id,overall_quality_of_services_3_01,overall_quality_of_services_3_02,overall_appearance_of_durham_3_03,overall_management_of_develo_3_04,overall_image_of_durham_3_05,overall_quality_of_life_in_d_3_06,overall_quality_of_life_in_y_3_07,overall_value_you_receive_fo_3_08,do_your_monthly_housing_cost_12_01,are_you_able_to_find_housing_12_02,do_you_have_major_home_repai_12_03,ease_of_travel_by_walking_18_01,ease_of_travel_by_biking_18_02,ease_of_travel_by_bus_godu_18_03,quality_of_downtown_parking_18_04,the_ability_in_your_neighbo_18_05,as_a_place_to_live_24_01,as_a_place_to_work_24_02,as_a_place_to_play_24_03,as_a_place_to_raise_childre_24_04,as_a_place_to_educate_child_24_05,as_a_place_to_retire_24_06,as_a_place_to_visit_24_07,as_a_place_to_start_a_busin_24_08,as_a_community_that_is_movi_24_09,have_you_or_someone_in_your_househol_26,approximately_how_many_years_have_yo_28,what_is_your_age_29,what_is_your_gender_30,do_you_own_or_rent_your_current_resi_31,asianpacific_islander_32_01,white_32_02,native_americaninuit_32_03,blackafrican_american_32_04,other_32_05,please_define_other_32_5,are_you_of_hispanic_latino_or_spa_33,primary_language,please_define_other_34_3,how_might_we_better_provide_service_34a,would_you_say_your_total_annual_hous_35,city,state,zip,pac_zone,inside_city_of_durham,block_lon,block_lat
1,3,3,2,2,2,2,5,3,2,1,2,NA,NA,NA,2,4,3,4,3,2,2,2,3,3,1,2,29,1,1,1,NA,NA,NA,4,NA,NA,2,English,NA,NA,1,Durham,NC,27712,NA,N,-78877000,36087000
2,4,4,4,2,4,4,5,5,2,NA,1,4,3,3,3,5,5,4,4,4,4,4,4,4,5,2,34,3,2,2,NA,2,NA,NA,NA,NA,2,English,NA,NA,2,Durham,NC,27705,2,Y,-78920000,36022000
3,4,4,4,4,4,4,4,4,2,1,2,2,2,2,3,4,4,NA,NA,NA,NA,4,3,NA,4,2,15,2,1,1,NA,2,NA,NA,NA,NA,1,English,NA,NA,NA,Durham,NC,27703,NA,N,-78756000,35927000
4,4,4,4,4,4,3,4,4,NA,1,2,4,3,3,3,4,4,4,4,NA,NA,4,3,3,4,2,11,1,2,1,NA,2,NA,NA,NA,NA,2,English,NA,NA,NA,Durham,NC,27713,4,Y,-78919000,35933000
5,4,4,4,3,2,4,5,3,2,1,2,4,4,NA,3,4,4,NA,3,2,1,4,5,NA,3,2,4,1,1,1,NA,NA,NA,4,NA,NA,2,English,NA,NA,3,Durham,NC,27713,4,Y,-78882000,35939000
6,3,4,4,2,1,4,4,3,2,1,2,3,2,3,3,4,4,5,3,4,4,4,4,NA,3,2,35,4,1,1,NA,2,NA,NA,NA,NA,2,English,NA,NA,4,Durham,NC,27705,NA,N,-78990000,35976000
7,5,4,4,3,4,4,3,4,2,1,2,2,3,NA,4,2,4,NA,NA,NA,NA,NA,4,NA,4,2,3,1,1,1,NA,2,NA,NA,NA,NA,2,English,NA,NA,3,Durham,NC,27707,4,Y,-78903000,35972000
8,2,4,2,2,2,3,5,4,2,1,2,3,2,NA,3,5,3,3,4,3,2,1,2,3,3,2,25,1,2,2,NA,2,NA,NA,NA,NA,2,English,NA,NA,3,Durham,NC,27712,NA,N,-78951000,36078000
NA,4,4,3,3,3,3,4,2,NA,1,2,3,NA,NA,1,5,4,4,4,NA,NA,4,3,3,3,2,25,5,2,1,NA,2,NA,NA,NA,NA,2,English,NA,NA,NA,Durham,NC,27705,3,Y,-78960000,36017000
10,3,3,2,2,2,2,5,4,1,2,2,4,4,3,4,5,3,3,3,2,2,2,2,2,2,2,12,1,2,1,NA,2,NA,4,NA,NA,2,English,NA,NA,2,Durham,NC,27712,NA,N,-78956000,36069000
11,4,4,4,4,4,4,4,3,2,1,2,4,4,NA,2,4,4,4,4,4,3,4,4,4,4,2,20,2,1,1,NA,NA,NA,4,NA,NA,2,English,NA,NA,4,Durham,NC,27713,NA,N,-78928000,35890000
12,4,4,4,3,3,4,5,4,2,1,2,3,3,NA,3,5,5,5,5,5,4,4,3,NA,4,2,41,4,1,1,NA,2,NA,NA,NA,NA,2,English,NA,NA,3,Durham,NC,27705,3,Y,-78990000,35982000
13,2,2,1,1,1,2,3,1,1,2,2,1,1,3,2,2,3,2,1,2,1,1,1,1,1,2,22,2,2,1,1,NA,3,4,NA,NA,1,Spanish,NA,NA,NA,Durham,NC,27703,NA,N,-78756000,35927000
14,4,4,4,4,3,3,4,4,2,1,2,3,NA,NA,4,5,4,NA,4,4,4,4,4,4,4,2,4,1,2,2,NA,2,NA,NA,NA,NA,2,English,NA,NA,1,Durham,NC,27707,NA,N,-78993000,35939000
15,4,NA,4,4,4,4,5,3,2,1,2,4,3,NA,4,5,5,4,4,4,4,5,4,4,4,2,6,3,1,1,1,NA,NA,NA,NA,NA,2,English,NA,NA,3,Durham,NC,27703,1,Y,-78789000,35927000
16,4,4,4,4,4,4,4,4,2,1,1,2,4,NA,4,4,5,4,4,4,3,4,4,NA,4,2,30,4,1,1,NA,2,NA,NA,NA,NA,2,English,NA,NA,3,Durham,NC,27705,3,Y,-78969000,35985000
17,4,4,2,3,1,2,4,2,2,1,2,4,NA,NA,2,4,4,4,2,NA,NA,2,4,NA,3,2,20,3,1,2,NA,2,NA,NA,NA,NA,2,English,NA,NA,3,Durham,NC,27703,1,Y,-78813000,35952000
18,5,5,4,4,4,5,5,4,2,1,2,4,4,NA,4,5,5,NA,5,5,NA,4,4,NA,4,2,4,1,1,1,NA,NA,NA,4,NA,NA,2,English,NA,NA,4,Durham,NC,27703,1,Y,-78794000,35970000
19,3,3,4,4,3,5,5,4,2,1,2,1,2,2,4,4,4,4,5,NA,NA,4,4,NA,4,2,7,1,1,2,NA,2,NA,NA,NA,NA,2,English,NA,NA,3,Durham,NC,27703,1,Y,-78813000,35978000
20,NA,NA,2,NA,4,2,5,2,2,1,2,1,NA,NA,1,3,3,3,2,1,1,NA,NA,NA,2,2,12,2,1,1,NA,2,NA,NA,NA,NA,2,English,NA,NA,3,Durham,NC,27703,4,Y,-78820000,35931000
21,4,4,4,5,4,4,5,4,2,1,2,3,2,2,4,5,4,4,5,4,2,5,4,4,4,2,23,3,2,2,NA,NA,NA,4,NA,NA,2,English,NA,NA,3,Durham,NC,27713,4,Y,-78922000,35883000
22,4,4,2,2,3,3,5,3,1,1,2,3,NA,NA,2,3,4,NA,3,NA,2,3,3,NA,4,2,5,5,1,2,NA,2,NA,NA,NA,NA,2,English,NA,NA,1,Durham,NC,27703,1,Y,-78782000,35936000
23,4,4,4,4,5,5,4,3,2,1,2,2,1,NA,4,4,5,4,4,NA,NA,3,4,3,4,2,5,1,1,1,NA,2,NA,NA,NA,NA,2,English,NA,NA,4,Durham,NC,27704,2,Y,-78917000,36059000
24,4,4,3,2,2,3,3,3,2,1,2,NA,NA,NA,3,5,5,5,4,NA,NA,4,4,5,5,2,37,4,2,1,NA,NA,NA,4,NA,NA,2,English,NA,NA,2,Durham,NC,27704,2,Y,-78895000,36072000
25,4,4,4,4,4,4,4,3,NA,NA,NA,2,2,3,2,2,4,4,4,4,4,4,4,4,4,2,25,2,1,1,NA,NA,NA,NA,5,MIXED,1,Spanish,NA,NA,3,Durham,NC,27703,1,Y,-78868000,35999000
26,4,4,5,NA,4,4,5,5,2,1,1,NA,NA,NA,NA,5,5,5,5,5,4,NA,5,5,5,2,0,1,2,1,NA,2,NA,NA,NA,NA,2,English,NA,NA,3,Durham,NC,27713,3,Y,-78931000,35930000
27,3,3,2,3,3,3,3,2,2,1,2,1,3,2,1,3,3,3,3,3,4,3,4,3,3,1,21,2,1,1,1,NA,NA,NA,NA,NA,2,English,NA,NA,2,Durham,NC,27703,1,Y,-78801000,35980000
28,4,4,3,3,3,3,2,3,2,NA,1,NA,NA,NA,2,1,4,4,2,2,2,1,1,4,4,1,6,2,2,1,NA,2,NA,NA,NA,NA,2,English,NA,NA,2,Durham,NC,27703,1,Y,-78846000,35992000
29,3,3,2,3,3,3,2,4,2,1,2,2,NA,NA,3,2,3,5,3,NA,NA,3,4,NA,NA,2,5,1,2,1,NA,2,NA,NA,NA,NA,1,English,NA,NA,3,Durham,NC,27703,1,Y,-78811000,36007000
30,1,1,3,2,2,2,5,1,1,2,1,1,2,NA,1,4,2,4,3,2,2,3,4,5,2,1,28,1,2,1,NA,2,NA,NA,NA,NA,2,English,NA,NA,NA,Durham,NC,27707,3,Y,-78949000,35960000
31,4,4,4,4,4,4,4,4,2,1,2,3,3,3,4,5,4,4,4,NA,NA,3,4,4,4,2,8,1,2,1,NA,2,NA,NA,NA,NA,2,English,NA,NA,NA,Durham,NC,27712,NA,N,-78895000,36095000
32,2,3,4,2,3,2,4,2,2,1,1,2,NA,NA,2,2,1,4,2,1,1,2,3,2,1,2,14,2,2,2,NA,2,NA,NA,NA,NA,2,English,NA,NA,1,Durham,NC,27703,4,Y,-78845000,35939000
33,4,4,4,4,4,4,4,4,2,1,2,4,3,NA,4,5,4,4,4,4,3,NA,4,4,4,2,5,1,1,1,NA,2,NA,NA,NA,NA,1,English,NA,NA,4,Durham,NC,27704,2,Y,-78891000,36016000
34,1,3,1,1,1,1,4,3,2,1,2,NA,NA,NA,3,5,1,3,3,1,1,2,1,1,1,2,50,3,2,1,NA,2,NA,NA,NA,NA,2,English,NA,NA,4,Durham,NC,27712,NA,N,-78960000,36103000
35,2,2,4,NA,1,2,3,1,2,1,2,4,4,NA,NA,4,4,5,4,3,2,4,4,3,1,2,52,3,1,1,NA,NA,NA,NA,5,MORE THAN ONE,2,English,NA,NA,NA,Durham,NC,27704,NA,N,-78770000,36018000
36,NA,1,4,3,4,4,4,3,NA,NA,NA,NA,NA,NA,3,4,4,5,4,4,4,4,4,3,3,2,48,5,2,1,NA,2,NA,NA,NA,NA,2,English,NA,NA,2,Durham,NC,27704,NA,N,-78802000,36052000
37,4,4,3,4,4,4,5,4,2,2,2,2,4,3,4,5,4,4,4,4,3,5,5,4,4,2,43,4,1,1,NA,2,NA,NA,NA,NA,2,English,NA,NA,2,Durham,NC,27712,NA,N,-78968000,36067000
38,NA,NA,NA,NA,NA,NA,NA,NA,2,1,2,NA,NA,NA,NA,NA,4,4,4,4,2,4,4,4,3,2,6,1,2,1,NA,NA,NA,4,NA,NA,2,English,NA,NA,2,Durham,NC,27703,NA,N,-78755000,35931000
39,4,4,4,2,NA,4,5,3,2,1,2,4,2,NA,3,4,4,4,4,4,4,4,4,4,4,2,47,4,2,1,NA,NA,NA,4,NA,NA,2,English,NA,NA,3,Durham,NC,27705,2,Y,-78915000,36011000
40,4,4,4,2,5,5,4,4,2,1,2,5,4,NA,4,4,5,5,5,NA,NA,5,5,5,2,2,25,4,1,2,NA,2,NA,NA,NA,NA,1,English,NA,NA,2,Durham,NC,27701,2,Y,-78898000,36013000
41,3,3,2,3,1,3,4,2,2,1,2,2,1,NA,2,5,2,NA,1,1,1,1,3,2,1,2,7,1,2,1,NA,NA,NA,NA,5,NA,2,English,NA,NA,4,Durham,NC,27703,NA,N,-78758000,35926000
42,1,1,1,3,3,3,1,3,1,2,1,3,NA,3,1,1,2,2,1,1,1,1,2,1,1,2,26,1,1,2,NA,NA,NA,4,NA,NA,2,English,NA,NA,1,Durham,NC,27701,1,Y,-78887000,35994000
43,4,4,4,4,3,3,4,3,2,1,2,2,3,3,4,4,4,4,4,2,2,2,3,3,3,2,5,1,1,1,NA,2,NA,NA,NA,NA,2,English,NA,NA,4,Durham,NC,27703,1,Y,-78804000,35960000
44,4,4,4,4,4,4,4,3,2,1,2,NA,NA,NA,4,4,4,4,4,4,2,4,4,4,4,2,7,1,2,1,NA,2,NA,NA,NA,NA,2,English,NA,NA,4,Durham,NC,27703,1,Y,-78833000,35957000
45,3,3,2,1,4,3,2,3,1,2,1,2,2,NA,3,1,4,4,4,NA,4,3,5,4,4,2,2,1,1,2,NA,NA,NA,4,NA,NA,1,English,NA,NA,3,Durham,NC,27703,1,Y,-78874000,35993000
46,2,2,4,4,4,4,2,2,1,2,2,2,2,NA,4,2,4,2,4,2,2,4,2,NA,2,2,49,4,2,1,NA,NA,NA,4,NA,NA,2,English,NA,NA,2,Durham,NC,27703,1,Y,-78881000,35992000
47,4,3,3,3,3,3,2,2,1,2,2,3,3,3,3,3,3,3,3,3,3,3,3,3,3,1,57,4,2,2,NA,NA,NA,4,NA,NA,2,English,NA,NA,2,Durham,NC,27701,4,Y,-78888000,35970000
48,4,4,5,2,4,1,3,2,1,2,1,5,4,5,5,5,2,1,4,4,4,2,5,3,5,1,4,4,1,2,NA,NA,NA,4,NA,NA,2,English,NA,NA,1,Durham,NC,27707,4,Y,-78902000,35973000
49,4,4,4,2,4,4,4,4,2,1,1,NA,NA,NA,2,4,4,4,4,4,4,4,4,4,4,2,31,2,1,1,NA,NA,NA,4,NA,NA,2,English,NA,NA,4,Durham,NC,27713,4,Y,-78924000,35894000
50,4,4,2,2,2,5,4,3,1,2,1,NA,NA,NA,NA,NA,5,5,3,3,5,5,5,3,3,2,39,3,1,2,NA,NA,NA,4,NA,NA,2,English,NA,NA,2,Durham,NC,27703,1,Y,-78883000,35990000
51,3,3,1,3,1,3,3,NA,2,1,2,3,NA,NA,1,3,3,3,3,3,3,3,3,3,3,2,11,NA,2,2,NA,NA,3,4,NA,NA,2,English,NA,NA,3,Durham,NC,27703,NA,N,-78812000,35993000
52,3,4,1,1,1,1,1,2,2,2,2,NA,NA,NA,1,3,4,NA,1,3,3,3,3,3,2,2,77,5,1,1,NA,NA,NA,4,NA,NA,2,English,NA,NA,NA,Durham,NC,27704,NA,N,-78884000,36064000
53,4,4,4,3,4,4,4,3,1,1,1,4,NA,5,4,4,4,4,4,4,5,4,4,4,5,1,NA,NA,2,2,1,NA,NA,NA,NA,NA,2,English,NA,NA,1,Durham,NC,27704,1,Y,-78823000,36027000
54,4,4,3,3,2,2,4,4,NA,1,2,NA,NA,NA,4,4,4,4,3,4,4,3,4,3,3,2,40,2,2,1,NA,2,NA,NA,NA,NA,2,English,NA,NA,NA,Rougemont,NC,27572,NA,N,-78850000,36183000
55,2,3,4,4,4,2,2,2,1,1,1,4,4,3,3,3,2,3,2,2,2,2,3,3,3,1,13,4,1,2,NA,NA,NA,NA,5,Hispanic,1,English,NA,NA,2,Durham,NC,27703,1,Y,-78805000,35965000
56,1,1,1,1,1,1,1,1,2,2,2,NA,NA,NA,NA,NA,1,1,1,1,1,1,1,1,1,2,NA,3,2,1,NA,NA,NA,4,NA,NA,2,English,NA,NA,4,Durham,NC,27712,NA,N,-78938000,36129000
57,4,4,4,4,4,4,4,4,2,1,2,3,3,4,4,4,4,4,4,4,4,4,4,4,5,2,10,1,2,2,NA,2,NA,NA,NA,NA,1,English,NA,NA,3,Durham,NC,27713,3,Y,-78936000,35917000
58,1,1,1,1,1,1,3,1,NA,2,1,1,5,1,3,4,1,1,1,1,1,1,1,1,1,1,17,3,2,1,NA,NA,NA,4,NA,NA,2,English,NA,NA,NA,Bahama,NC,27503,NA,N,-78861000,36145000
59,5,5,3,3,3,NA,5,3,1,1,2,3,3,3,3,3,4,3,4,5,5,5,5,5,5,2,26,5,1,1,NA,NA,NA,4,NA,NA,2,English,NA,NA,2,Durham,NC,27704,NA,N,-78881000,36062000
60,2,3,2,3,1,1,1,3,1,2,1,2,3,NA,2,2,3,2,2,2,2,3,2,2,2,2,36,3,2,1,NA,NA,NA,4,NA,NA,2,English,NA,NA,1,Durham,NC,27703,1,Y,-78810000,36000000
61,4,4,5,3,5,5,5,4,2,1,2,4,4,4,4,4,5,5,5,5,5,5,5,NA,5,2,30,1,2,2,NA,2,NA,NA,NA,NA,2,Spanish,NA,NA,3,Durham,NC,27705,2,Y,-78916000,36015000
62,3,3,4,4,4,3,5,3,2,1,2,4,4,3,3,5,4,4,3,3,2,3,4,4,4,2,11,1,1,2,NA,2,NA,NA,NA,NA,2,English,NA,NA,2,Durham,NC,27705,2,Y,-78915000,36014000
63,3,3,3,3,2,4,5,2,2,1,1,2,NA,NA,3,3,4,NA,4,4,NA,4,3,NA,3,2,4,3,2,1,NA,NA,NA,4,NA,NA,2,English,NA,NA,3,Durham,NC,27712,NA,N,-78868000,36099000
64,3,3,4,2,3,3,4,3,1,2,1,3,3,3,4,4,4,4,3,3,3,2,3,3,2,1,41,2,1,2,NA,NA,NA,4,NA,NA,2,English,NA,NA,1,Durham,NC,27701,2,Y,-78894000,36006000
65,4,4,4,2,5,5,5,NA,2,1,2,2,NA,NA,4,5,5,4,4,4,2,4,4,NA,5,2,4,1,1,2,NA,2,NA,NA,NA,NA,2,English,NA,NA,3,Durham,NC,27705,2,Y,-78932000,36016000
66,3,4,3,3,3,3,3,3,1,2,2,3,3,3,3,3,NA,NA,NA,NA,NA,NA,NA,NA,NA,2,44,3,2,2,NA,NA,NA,4,NA,NA,2,English,NA,NA,1,Durham,NC,27701,4,Y,-78894000,35979000
67,NA,NA,NA,NA,NA,NA,NA,NA,2,1,2,1,1,1,1,4,4,4,2,2,3,4,4,3,3,2,48,4,2,2,NA,NA,3,4,NA,NA,2,English,NA,NA,3,Durham,NC,27704,2,Y,-78899000,36073000
68,3,NA,3,2,3,3,4,2,2,1,2,4,4,NA,4,4,4,4,4,4,2,4,4,4,4,2,38,4,2,1,NA,2,NA,NA,NA,NA,2,English,NA,NA,4,Durham,NC,27707,3,Y,-78973000,35966000
69,4,4,3,4,3,3,4,4,1,1,1,3,3,3,2,3,4,5,3,4,1,3,4,4,4,2,24,4,2,2,NA,2,3,NA,5,Mediterranean,2,English,NA,NA,3,Durham,NC,27703,NA,N,-78842000,35952000
70,4,4,4,4,4,4,5,5,2,NA,NA,3,3,3,3,5,4,4,4,4,4,4,4,4,4,2,25,3,1,1,NA,NA,NA,4,NA,NA,2,English,NA,NA,4,Durham,NC,27713,NA,N,-78930000,35882000
71,3,4,2,2,1,3,4,2,2,1,2,NA,NA,NA,4,5,4,3,4,4,2,2,3,2,1,2,70,5,1,2,NA,NA,NA,4,NA,NA,2,English,NA,NA,2,Bahama,NC,27503,NA,N,-78862000,36168000
72,4,4,4,4,4,4,4,4,1,1,2,NA,NA,NA,4,4,4,4,4,4,4,4,4,4,4,2,NA,4,1,2,NA,2,NA,NA,NA,NA,2,English,NA,NA,NA,Rougemont,NC,27572,NA,N,-78928000,36221000
73,4,4,4,4,3,3,1,4,2,1,2,4,3,1,2,2,2,4,3,2,1,3,4,4,3,2,14,1,1,1,NA,2,NA,NA,NA,NA,1,English,NA,NA,4,Durham,NC,27707,4,Y,-78905000,35985000
74,5,5,4,4,4,4,5,3,2,1,2,4,4,NA,4,5,5,NA,5,5,5,5,5,NA,5,2,75,5,1,1,NA,NA,NA,4,NA,NA,2,English,NA,NA,1,Durham,NC,27703,1,Y,-78811000,35973000
75,4,4,4,4,4,4,4,4,1,1,1,4,4,3,2,4,4,4,4,4,4,4,4,4,4,2,51,4,1,2,NA,NA,NA,4,NA,NA,2,English,NA,NA,2,Durham,NC,27707,4,Y,-78907000,35969000
76,4,4,3,3,3,3,2,3,1,2,1,2,2,3,3,3,3,NA,1,2,3,2,3,3,3,1,49,3,1,2,NA,NA,NA,4,NA,NA,2,English,NA,NA,1,Durham,NC,27703,1,Y,-78857000,35987000
77,5,5,5,5,5,5,5,5,2,NA,2,NA,NA,NA,5,5,5,5,4,5,5,5,4,4,5,2,33,1,1,2,NA,NA,NA,4,NA,NA,2,English,NA,NA,2,Durham,NC,27705,3,Y,-78993000,35975000
78,3,3,4,3,2,2,3,3,2,1,2,3,3,3,3,4,3,NA,2,3,3,2,3,3,4,2,3,2,1,1,NA,2,NA,NA,NA,NA,2,English,NA,NA,3,Durham,NC,27712,NA,N,-78949000,36087000
79,3,3,3,2,3,4,4,3,2,1,2,4,NA,NA,2,4,4,4,4,4,3,3,4,NA,3,2,32,1,1,2,NA,2,NA,NA,NA,NA,2,English,NA,NA,2,Durham,NC,27704,2,Y,-78896000,36028000
80,NA,NA,1,3,2,2,2,1,2,1,2,4,3,NA,4,3,2,3,1,1,1,2,3,NA,1,2,6,3,1,1,NA,NA,NA,NA,5,NA,2,NA,NA,NA,NA,Durham,NC,27713,4,Y,-78919000,35946000
81,3,3,2,NA,3,3,3,2,2,1,1,2,2,3,2,3,5,4,3,5,4,5,5,3,4,2,73,5,2,2,NA,NA,NA,4,NA,NA,2,English,NA,NA,1,Durham,NC,27712,NA,N,-78912000,36096000
82,4,4,4,4,3,4,4,NA,1,2,1,5,5,NA,3,5,4,5,4,4,4,2,4,4,4,2,5,1,2,1,NA,NA,NA,4,NA,NA,2,English,NA,NA,2,Durham,NC,27704,1,Y,NA,NA
83,4,4,3,3,3,3,4,3,1,1,2,3,3,3,4,4,3,3,3,3,3,3,4,3,3,2,21,4,1,1,NA,2,NA,NA,NA,NA,2,English,NA,NA,4,Durham,NC,27707,NA,N,-78992000,35935000
84,NA,4,3,4,3,4,4,2,2,2,2,3,NA,NA,3,2,4,4,4,3,2,4,4,4,4,2,52,3,1,2,NA,2,NA,NA,NA,NA,1,English,NA,NA,3,Durham,NC,27704,NA,N,-78832000,36026000
85,4,4,4,4,4,4,4,4,2,1,2,4,3,3,4,4,4,4,4,4,3,4,4,4,4,2,8,4,2,1,NA,2,NA,NA,NA,NA,2,English,NA,NA,3,Durham,NC,27704,2,Y,-78834000,36052000
86,4,4,NA,2,3,4,4,3,2,1,2,4,NA,NA,3,4,4,NA,4,3,4,4,4,NA,3,2,30,5,1,1,NA,2,NA,NA,NA,NA,1,English,NA,NA,3,Durham,NC,27712,2,Y,-78972000,36076000
87,3,NA,4,3,4,2,4,4,1,1,2,3,3,2,2,2,4,4,4,4,4,4,4,4,4,2,40,3,1,1,NA,NA,NA,4,NA,NA,2,English,NA,NA,1,Durham,NC,27707,4,Y,-78921000,35966000
88,3,3,3,2,3,3,2,3,NA,1,2,2,2,2,3,2,4,3,3,3,3,2,4,3,3,2,1,1,1,2,NA,NA,NA,4,NA,NA,2,English,NA,NA,2,Durham,NC,27707,4,Y,-78908000,35977000
89,2,2,2,2,2,2,2,2,1,1,1,NA,NA,NA,NA,NA,4,3,4,3,3,3,3,3,4,1,54,3,1,2,NA,2,NA,NA,NA,NA,2,English,NA,NA,1,Durham,NC,27704,NA,N,-78848000,36026000
90,NA,NA,NA,NA,NA,NA,NA,NA,1,1,1,2,2,1,2,1,NA,NA,NA,NA,NA,NA,NA,NA,NA,1,25,3,1,2,1,NA,NA,NA,NA,NA,2,English,NA,NA,1,Durham,NC,27704,1,Y,NA,NA
91,4,4,4,4,4,4,4,4,NA,NA,NA,4,4,NA,4,4,5,NA,NA,NA,NA,5,5,5,5,2,NA,NA,1,1,NA,2,NA,NA,NA,NA,2,English,NA,NA,1,Durham,NC,27712,NA,N,-78967000,36078000
92,4,4,4,3,4,4,4,4,2,1,2,5,5,4,4,5,5,5,5,5,5,5,5,5,5,2,56,4,2,2,NA,NA,NA,4,NA,NA,2,English,NA,NA,1,Durham,NC,27712,2,Y,-78942000,36080000
93,NA,3,3,3,2,3,5,2,2,1,2,NA,2,2,1,5,4,4,4,NA,NA,NA,3,NA,2,2,25,3,1,1,NA,NA,NA,4,NA,NA,2,English,NA,NA,4,Durham,NC,27705,NA,N,-78983000,36012000
94,3,3,4,3,4,5,4,NA,2,1,2,2,1,1,5,4,5,5,4,NA,NA,NA,4,NA,4,1,4,1,2,1,NA,2,NA,NA,NA,NA,2,English,NA,NA,3,Durham,NC,27703,1,Y,-78803000,36010000
95,4,4,4,3,4,4,5,2,2,2,2,3,3,NA,NA,4,4,4,4,4,4,4,4,4,4,2,70,5,1,1,NA,2,NA,NA,NA,NA,2,English,NA,NA,2,Durham,NC,27712,NA,N,-78905000,36117000
96,1,1,3,1,3,3,2,3,2,2,2,2,3,2,2,5,5,3,4,5,5,5,5,4,1,1,72,5,2,1,NA,2,NA,NA,NA,NA,2,English,NA,NA,4,Durham,NC,27705,2,Y,-78916000,36012000
97,3,2,1,1,2,3,3,2,2,1,1,2,2,2,2,4,3,3,2,2,2,3,3,2,2,2,33,5,1,2,NA,2,NA,NA,NA,NA,2,English,NA,NA,2,Durham,NC,27712,NA,N,-78925000,36093000
98,2,4,NA,NA,NA,NA,NA,NA,1,2,2,4,4,NA,1,2,4,4,1,1,4,4,4,4,4,2,50,5,2,1,NA,NA,NA,4,NA,NA,2,NA,NA,NA,1,Durham,NC,27713,NA,N,-78940000,35897000
99,NA,NA,NA,NA,NA,NA,NA,NA,2,2,2,4,NA,NA,NA,4,2,2,NA,1,1,1,2,1,1,2,40,5,1,2,NA,2,NA,NA,NA,NA,2,English,NA,NA,1,Rougemont,NC,27572,NA,N,-78937000,36210000
100,3,4,3,3,3,3,5,3,2,1,2,3,3,3,3,4,4,4,4,4,3,3,4,3,3,2,10,1,1,1,NA,2,NA,NA,NA,NA,1,English,NA,NA,3,Bahama,NC,27503,NA,N,-78862000,36168000
101,NA,NA,2,2,3,3,5,4,2,NA,2,NA,NA,NA,4,5,5,NA,5,5,2,5,5,NA,NA,2,57,4,2,2,NA,2,NA,NA,NA,NA,2,English,NA,NA,3,Bahama,NC,27503,NA,N,-78859000,36151000
102,2,1,1,4,4,3,5,1,1,2,1,4,4,NA,1,5,1,1,1,1,1,1,1,1,1,1,51,3,2,2,NA,2,NA,NA,NA,NA,2,English,NA,NA,NA,Bahama,NC,27503,NA,N,-78861000,36145000
103,4,NA,3,3,3,4,5,5,2,1,2,1,3,2,2,5,4,4,4,3,4,NA,3,4,3,2,7,1,1,1,NA,2,NA,NA,NA,NA,2,English,NA,NA,3,Durham,NC,27713,4,Y,-78922000,35932000
104,5,5,5,5,5,5,5,5,2,NA,2,4,4,4,4,4,5,5,5,5,5,5,5,5,5,2,18,3,2,2,NA,NA,NA,4,NA,NA,2,English,NA,NA,1,Durham,NC,27704,1,Y,-78851000,36021000
105,5,5,4,3,5,5,5,5,2,1,2,3,2,5,5,5,5,5,4,NA,NA,5,5,5,5,2,8,4,1,1,NA,2,NA,NA,NA,NA,2,English,NA,NA,NA,Durham,NC,27712,2,Y,-78932000,36087000
106,4,5,4,NA,5,5,5,5,2,1,2,3,NA,NA,3,3,5,5,2,2,2,4,5,4,5,2,71,5,1,1,NA,NA,NA,4,NA,NA,2,English,NA,NA,4,Durham,NC,27712,NA,N,-78905000,36096000
107,3,3,1,1,1,1,1,1,2,1,2,1,1,1,1,1,1,4,1,1,1,1,1,1,1,2,26,2,1,1,NA,2,NA,NA,NA,NA,2,English,NA,NA,2,Durham,NC,27704,1,Y,-78855000,36009000
108,4,4,5,4,5,5,5,5,2,1,2,4,2,2,3,5,5,5,5,5,4,3,4,NA,3,2,12,1,2,2,NA,2,NA,NA,NA,NA,2,English,NA,NA,3,Durham,NC,27713,3,Y,-78924000,35932000
109,3,4,2,2,3,2,4,4,2,1,2,1,1,2,4,5,3,3,2,3,NA,1,2,NA,2,2,13,1,2,1,NA,NA,NA,4,NA,NA,2,English,NA,NA,3,Durham,NC,27707,3,Y,-78931000,35982000
110,4,4,4,4,4,4,4,5,2,1,2,5,NA,NA,NA,5,4,4,4,4,4,5,5,4,5,2,13,4,1,2,1,NA,NA,NA,NA,NA,2,English,NA,NA,3,Durham,NC,27701,2,Y,-78899000,36014000
111,3,4,2,1,1,2,4,2,NA,NA,NA,3,3,3,3,5,2,2,2,1,1,1,1,1,1,2,70,5,1,1,NA,NA,NA,4,NA,NA,2,English,NA,NA,NA,Rougemont,NC,27572,NA,N,-78914000,36232000
112,4,4,4,4,4,4,4,3,2,2,2,4,NA,NA,4,4,5,5,5,4,NA,5,NA,4,5,2,12,2,2,2,NA,NA,NA,4,NA,NA,2,English,NA,NA,3,Bahama,NC,27503,NA,N,-78883000,36162000
113,5,5,4,4,4,4,5,3,2,1,2,4,3,NA,4,5,5,4,5,4,4,4,4,5,5,2,35,4,1,1,NA,2,NA,NA,NA,NA,1,English,NA,NA,2,Durham,NC,27712,NA,N,-78921000,36108000
114,3,3,4,3,2,3,5,3,2,1,2,2,2,2,2,2,4,4,4,2,2,4,4,4,2,2,11,1,2,1,NA,2,NA,NA,NA,NA,2,Spanish,NA,NA,3,Bahama,NC,27503,NA,N,-78869000,36163000
115,3,3,1,2,1,3,5,3,2,1,2,NA,NA,NA,2,4,5,4,NA,NA,2,2,2,2,2,2,25,4,1,1,NA,NA,NA,4,NA,NA,2,English,NA,NA,NA,Bahama,NC,27503,NA,N,-78809000,36120000
116,NA,3,4,4,4,4,4,4,2,1,2,4,NA,NA,4,4,4,5,4,4,4,3,5,4,4,2,4,2,2,1,NA,2,NA,NA,NA,NA,2,English,NA,NA,NA,Bahama,NC,27503,NA,N,-78934000,36166000
117,4,4,4,5,5,5,5,4,2,1,2,NA,NA,NA,4,4,5,NA,5,4,3,3,5,3,5,2,1,2,1,1,1,NA,NA,NA,NA,NA,2,English,NA,NA,1,Durham,NC,27703,1,Y,-78833000,35995000
118,NA,3,4,1,4,4,4,4,2,1,2,2,2,NA,2,5,4,4,4,4,4,4,4,NA,5,2,20,2,1,1,NA,2,NA,NA,NA,NA,2,English,NA,NA,3,Durham,NC,27713,3,Y,-78949000,35895000
119,5,4,3,4,4,5,4,4,2,1,2,4,NA,NA,4,5,5,5,5,5,4,4,5,4,5,2,27,5,2,2,NA,2,NA,NA,NA,NA,2,English,NA,NA,3,Durham,NC,27713,3,Y,-78939000,35931000
120,3,3,4,4,3,2,4,3,2,2,1,4,4,1,1,2,2,3,2,3,2,2,2,2,2,1,NA,2,2,2,NA,NA,NA,NA,5,MULTI-RACIAL,2,English,NA,NA,1,Durham,NC,27713,4,Y,-78908000,35947000
121,4,4,4,3,3,4,3,4,1,1,1,NA,NA,NA,NA,NA,4,4,4,4,4,4,4,4,4,2,NA,5,2,2,NA,NA,NA,4,NA,NA,2,English,NA,NA,1,Durham,NC,27703,1,Y,-78848000,35986000
122,3,3,2,2,1,1,1,3,1,2,1,1,1,2,NA,NA,3,3,3,3,3,3,3,3,3,1,42,3,1,2,NA,2,NA,NA,NA,NA,2,English,NA,NA,1,Durham,NC,27703,1,Y,-78875000,35980000
123,NA,5,NA,NA,5,5,5,3,NA,NA,NA,NA,NA,NA,2,2,4,4,4,4,4,4,3,3,3,2,32,5,1,2,NA,2,NA,NA,NA,NA,1,English,NA,NA,3,Durham,NC,27712,NA,N,-78954000,36090000
124,3,4,2,3,2,3,4,3,NA,NA,NA,NA,NA,NA,NA,3,3,4,3,2,3,3,3,3,3,2,65,NA,2,1,NA,2,NA,NA,NA,NA,1,English,NA,NA,2,Durham,NC,27704,NA,N,-78834000,36032000
125,NA,3,3,2,3,4,4,1,2,NA,NA,NA,NA,NA,NA,NA,4,4,NA,4,NA,4,NA,4,3,2,NA,5,2,1,NA,2,NA,NA,NA,NA,2,English,NA,NA,1,Durham,NC,27704,NA,N,-78819000,36040000
126,4,4,4,4,5,5,4,5,2,1,2,1,NA,NA,3,2,5,4,4,5,2,3,3,5,5,2,2,1,2,1,NA,2,NA,NA,NA,NA,2,English,NA,NA,4,Durham,NC,27707,4,Y,-78892000,35968000
127,NA,4,NA,NA,NA,NA,5,5,2,2,2,NA,NA,NA,NA,4,5,NA,NA,NA,NA,5,4,NA,4,2,16,5,1,1,NA,2,NA,NA,NA,NA,2,English,NA,NA,2,Durham,NC,27707,NA,N,-79000000,35943000
128,2,2,2,2,2,2,3,1,2,1,1,1,NA,NA,1,5,2,2,2,2,1,2,2,1,1,1,41,3,1,1,NA,2,NA,NA,NA,NA,2,English,NA,NA,3,Durham,NC,27712,2,Y,-78890000,36078000
129,4,4,3,1,3,4,4,2,2,2,2,1,3,3,1,4,4,4,4,3,2,4,3,3,3,2,20,2,1,1,NA,2,NA,NA,NA,NA,2,English,NA,NA,4,Durham,NC,27704,2,Y,-78892000,36030000
130,3,3,2,3,2,4,4,2,2,1,2,3,NA,1,2,4,4,4,4,3,3,1,2,2,2,2,25,2,2,1,NA,NA,NA,NA,NA,NA,1,English,NA,NA,3,Durham,NC,27712,NA,N,-78887000,36088000
131,4,4,5,5,5,4,4,3,2,1,2,3,3,NA,3,4,5,5,5,5,2,4,4,5,5,2,6,2,2,1,NA,NA,NA,4,NA,NA,2,English,NA,NA,NA,Durham,NC,27707,3,Y,-78950000,35948000
132,4,4,4,4,4,4,4,2,1,2,1,2,3,3,2,4,2,4,3,4,4,4,4,3,4,2,50,5,2,2,NA,NA,NA,4,NA,NA,2,English,NA,NA,1,Durham,NC,27707,4,Y,-78897000,35958000
133,4,4,3,3,2,4,5,4,2,1,2,NA,NA,NA,4,5,4,5,2,2,2,2,4,4,4,2,2,1,2,1,NA,2,NA,NA,NA,NA,2,English,NA,NA,4,Durham,NC,27703,NA,N,-78824000,35967000
134,4,3,2,3,NA,3,4,4,2,2,2,3,NA,NA,NA,3,4,4,3,4,4,3,3,3,3,2,60,5,1,1,NA,NA,NA,4,NA,NA,2,English,NA,NA,3,Durham,NC,27707,4,Y,-78908000,35978000
135,4,4,3,4,4,4,4,3,2,1,1,3,3,3,4,4,4,5,4,2,1,3,4,4,4,2,6,1,2,1,NA,2,NA,NA,NA,NA,1,English,NA,NA,3,Durham,NC,27704,1,Y,-78808000,36037000
136,NA,4,4,3,4,4,5,5,2,1,2,2,2,2,4,5,5,5,3,5,4,NA,3,NA,4,2,10,1,2,1,NA,2,NA,NA,NA,NA,2,English,NA,NA,4,Durham,NC,27713,NA,N,-78924000,35888000
137,3,4,4,2,4,4,4,4,2,1,2,3,3,NA,2,3,4,4,3,3,3,4,4,4,4,2,30,3,1,1,NA,NA,NA,4,NA,NA,2,English,NA,NA,4,Bahama,NC,27503,NA,N,-78888000,36144000
138,3,3,1,3,3,2,4,3,2,2,2,5,NA,NA,4,4,4,NA,NA,NA,NA,1,3,4,4,2,3,1,1,2,NA,2,3,NA,NA,NA,2,English,NA,NA,3,Durham,NC,27701,2,Y,-78906000,36011000
139,4,4,4,4,4,4,4,4,2,1,2,4,4,4,2,4,4,4,4,4,4,4,4,4,4,2,NA,4,1,1,NA,NA,NA,4,NA,NA,2,English,NA,NA,3,Durham,NC,27703,1,Y,-78829000,35998000
140,2,2,1,1,2,1,1,1,2,2,2,1,2,1,1,1,4,4,4,1,1,4,4,4,2,2,22,2,2,2,NA,NA,NA,4,NA,NA,1,English,NA,NA,4,Durham,NC,27713,4,Y,-78888000,35941000
141,1,1,3,1,3,3,3,1,1,1,1,2,3,3,1,4,4,4,2,3,3,3,4,2,1,2,13,1,1,1,NA,NA,NA,NA,5,MIXED,1,English,NA,NA,2,Durham,NC,27701,2,Y,-78879000,36013000
142,3,3,3,3,3,3,3,3,2,NA,1,NA,NA,NA,NA,NA,4,NA,3,3,4,3,3,3,3,2,73,5,2,1,NA,NA,NA,4,NA,NA,2,English,NA,NA,1,Durham,NC,27701,3,Y,-78920000,35995000
143,4,4,4,4,2,4,4,2,2,1,2,3,2,NA,4,5,4,4,3,4,2,5,4,NA,3,2,33,3,2,1,NA,2,NA,NA,NA,NA,2,English,NA,NA,4,Durham,NC,27703,4,Y,-78824000,35933000
144,4,4,4,5,3,5,5,5,2,1,2,2,3,NA,3,5,5,5,5,NA,NA,NA,4,NA,5,2,0,1,2,1,NA,2,NA,NA,NA,NA,2,English,NA,NA,4,Durham,NC,27709,4,Y,-78831000,35926000
145,3,4,5,4,5,5,5,2,1,2,2,4,3,3,1,5,4,NA,4,4,4,4,4,NA,4,2,76,5,2,1,NA,NA,NA,4,NA,NA,2,English,NA,NA,1,Durham,NC,27703,NA,N,-78826000,35964000
146,5,5,4,3,3,5,5,5,2,1,2,5,NA,NA,NA,5,5,5,5,5,5,5,5,4,4,2,41,4,2,1,NA,2,NA,NA,NA,NA,2,English,NA,NA,2,Durham,NC,27707,3,Y,-78971000,35935000
147,3,4,3,4,2,2,4,4,1,1,2,NA,NA,NA,NA,NA,4,3,3,3,3,4,4,2,3,2,20,5,2,1,NA,NA,NA,4,NA,NA,2,English,NA,NA,1,Durham,NC,27707,4,Y,-78914000,35954000
148,3,3,3,3,3,3,3,3,2,2,2,3,3,3,3,3,4,4,4,4,4,4,4,4,4,2,50,3,1,1,NA,2,NA,NA,NA,NA,2,English,NA,NA,2,Durham,NC,27703,NA,N,-78820000,35963000
149,4,4,5,3,4,4,3,NA,2,1,2,4,5,3,4,4,4,3,4,4,4,4,3,3,4,2,20,1,2,2,NA,2,NA,NA,NA,NA,2,English,NA,NA,1,Durham,NC,27707,3,Y,-78934000,35981000
150,4,4,3,2,2,4,4,4,2,1,2,4,2,3,4,3,4,4,4,4,2,2,4,3,3,2,6,2,1,1,NA,2,NA,NA,NA,NA,2,English,NA,NA,4,Durham,NC,27707,3,Y,-78922000,35987000
151,1,3,3,NA,1,3,3,1,2,1,2,NA,NA,NA,1,4,2,4,2,2,1,1,1,4,1,2,41,2,1,1,NA,2,NA,NA,NA,NA,2,English,NA,NA,4,Durham,NC,27712,2,Y,-78854000,36126000
152,4,4,4,4,4,4,4,4,1,1,2,4,3,3,4,4,4,4,4,4,4,4,4,NA,4,2,33,3,1,1,NA,2,NA,NA,NA,NA,2,NA,NA,NA,3,Durham,NC,27704,2,Y,-78911000,36062000
153,4,4,5,3,4,4,4,3,1,1,2,5,NA,4,2,4,4,4,4,4,3,3,3,4,4,2,7,4,1,2,NA,2,NA,NA,NA,NA,2,English,NA,NA,1,Durham,NC,27707,3,Y,-78931000,35983000
154,3,3,3,3,2,1,3,2,2,1,2,NA,NA,NA,3,NA,1,3,3,2,1,1,3,3,1,2,43,2,2,1,NA,2,NA,NA,NA,NA,2,English,NA,NA,4,Durham,NC,27704,NA,N,-78815000,36055000
155,4,3,3,3,3,4,5,3,1,1,1,3,3,3,5,4,4,4,3,3,2,4,4,2,3,2,21,2,1,2,NA,2,NA,NA,NA,NA,1,English,NA,NA,2,Durham,NC,27705,2,Y,-78922000,36016000
156,3,3,2,3,3,3,5,5,1,1,2,4,5,NA,3,5,5,NA,4,4,2,3,2,4,5,2,3,1,2,1,NA,2,NA,NA,NA,NA,1,English,NA,NA,2,Durham,NC,27713,4,Y,-78922000,35932000
157,4,4,4,3,4,4,4,4,2,1,2,4,NA,NA,3,5,4,3,4,NA,NA,4,4,4,4,2,4,1,1,1,NA,2,NA,NA,NA,NA,2,English,NA,NA,2,Durham,NC,27703,1,Y,-78795000,35974000
158,2,2,3,3,2,4,2,3,1,1,2,4,1,3,2,2,4,4,4,2,2,3,4,4,4,1,5,1,1,2,NA,2,NA,NA,NA,NA,1,English,NA,NA,2,Durham,NC,27701,1,Y,-78895000,35996000
159,4,4,4,4,4,4,5,5,1,2,2,4,NA,2,2,2,4,4,3,3,3,2,2,2,4,2,20,3,1,2,NA,NA,NA,4,NA,NA,2,English,NA,NA,1,Durham,NC,27701,2,Y,-78899000,36012000
160,5,5,4,2,4,5,5,NA,1,1,2,5,4,2,2,5,5,5,5,NA,NA,4,NA,NA,3,2,30,4,1,2,NA,2,NA,NA,NA,NA,2,English,NA,NA,1,Durham,NC,27701,2,Y,-78898000,36012000
161,5,5,5,4,3,4,4,4,2,1,2,3,2,2,2,4,5,5,5,5,4,4,4,3,3,2,6,1,2,2,NA,NA,NA,4,NA,NA,2,English,NA,NA,3,Durham,NC,27701,2,Y,-78896000,36016000
162,1,1,1,1,1,1,4,1,2,1,2,1,1,1,1,4,2,4,3,1,1,2,1,2,1,2,68,5,1,1,NA,2,NA,NA,NA,NA,2,English,NA,NA,3,Durham,NC,27712,NA,N,-78959000,36075000
163,4,4,4,4,4,4,4,3,1,1,2,NA,NA,NA,4,4,4,4,4,4,4,4,4,4,4,2,60,4,2,1,NA,2,NA,NA,NA,NA,1,English,NA,NA,2,Durham,NC,27712,NA,N,-78967000,36077000
164,NA,3,1,1,1,3,5,3,2,1,2,3,NA,NA,3,5,4,4,3,4,2,3,3,2,3,2,60,4,2,1,NA,2,NA,NA,NA,NA,2,English,NA,NA,NA,Durham,NC,27712,NA,N,-78964000,36088000
165,5,5,3,2,4,4,4,4,2,1,2,1,2,3,5,2,5,3,4,3,3,4,2,4,4,2,4,1,1,1,NA,2,NA,NA,NA,NA,2,English,NA,NA,4,Durham,NC,27707,3,Y,-78925000,35987000
166,4,4,2,2,2,2,4,4,2,1,1,5,NA,4,2,5,4,4,4,NA,NA,4,4,NA,4,2,42,5,2,1,NA,2,NA,NA,NA,NA,2,English,NA,NA,1,Durham,NC,27701,3,Y,-78912000,35993000
167,3,2,3,3,3,3,4,3,1,1,2,4,3,NA,3,3,3,2,2,3,2,2,2,2,2,2,10,1,2,1,NA,NA,NA,4,NA,NA,2,English,NA,NA,4,Durham,NC,27704,NA,N,-78831000,36030000
168,4,4,3,2,3,3,4,3,1,1,2,4,NA,NA,NA,4,4,4,4,4,4,1,1,1,NA,2,33,5,2,2,NA,NA,NA,4,NA,NA,2,English,NA,NA,NA,Durham,NC,27703,NA,N,-78844000,35943000
169,NA,4,3,4,3,4,4,3,2,1,2,5,NA,NA,3,4,4,4,4,4,4,4,4,4,4,2,34,5,2,2,NA,2,NA,NA,NA,NA,2,English,NA,NA,2,Durham,NC,27712,NA,N,-78935000,36106000
170,4,4,4,4,4,4,5,2,1,1,2,4,2,4,2,5,4,5,4,4,2,2,2,2,3,1,8,2,1,1,NA,2,NA,NA,NA,NA,2,English,NA,NA,4,Durham,NC,27713,4,Y,-78920000,35924000
171,4,4,3,3,3,4,4,4,2,1,2,3,2,3,4,5,4,5,3,4,4,5,NA,NA,4,2,44,5,1,2,NA,2,NA,NA,NA,NA,2,English,NA,NA,3,Durham,NC,27713,4,Y,-78905000,35901000
172,3,4,3,3,4,4,5,3,NA,1,2,3,NA,NA,4,5,5,5,4,5,3,4,4,NA,4,2,39,3,1,1,NA,NA,NA,4,NA,NA,2,English,NA,NA,NA,Durham,NC,27713,NA,N,-78916000,35877000
173,4,4,4,2,4,4,5,NA,NA,2,2,3,2,2,3,5,3,4,4,4,2,NA,5,NA,4,2,3,1,2,2,NA,2,NA,NA,NA,NA,1,English,NA,NA,NA,Durham,NC,27701,2,Y,-78907000,36006000
174,2,2,1,1,1,2,2,1,2,2,1,2,5,5,2,1,1,2,2,1,1,1,1,1,1,2,70,5,1,1,NA,2,NA,NA,NA,NA,2,English,NA,NA,3,Durham,NC,27704,NA,N,-78844000,36041000
175,NA,NA,NA,NA,NA,NA,NA,NA,1,1,2,2,2,2,4,2,4,4,3,4,3,NA,3,NA,4,1,1,1,2,2,NA,2,NA,NA,NA,NA,2,English,NA,NA,3,Durham,NC,27704,1,Y,-78851000,36009000
176,3,3,4,4,4,2,4,2,2,1,2,NA,NA,NA,NA,NA,4,NA,NA,NA,NA,4,NA,NA,3,2,79,5,1,1,NA,2,NA,NA,NA,NA,1,English,NA,NA,NA,Durham,NC,27712,NA,N,-78948000,36086000
177,4,4,4,4,4,4,4,4,2,1,2,4,NA,NA,4,5,5,5,5,5,5,5,5,5,5,2,32,4,2,1,NA,2,NA,NA,NA,NA,2,English,NA,NA,4,Durham,NC,27707,3,Y,-78914000,35990000
178,5,5,2,4,2,3,3,3,2,2,2,5,5,NA,2,3,4,3,4,2,3,1,2,3,5,2,26,1,1,2,NA,NA,NA,4,NA,NA,2,English,NA,NA,1,Durham,NC,27705,3,Y,-78954000,36007000
179,5,5,5,4,5,4,4,4,1,2,2,4,4,4,4,4,4,4,3,3,4,3,4,3,3,2,47,3,2,2,NA,NA,NA,4,NA,NA,2,English,NA,NA,1,Durham,NC,27701,4,Y,-78890000,35980000
180,4,NA,4,4,4,4,5,3,2,1,2,1,1,1,4,5,4,4,2,4,NA,NA,2,NA,4,2,3,1,1,1,NA,NA,NA,4,NA,NA,2,English,NA,NA,4,Durham,NC,27703,1,Y,-78818000,35950000
181,NA,2,2,2,2,4,5,1,2,1,2,4,4,3,4,5,4,4,3,2,2,4,4,4,2,2,64,4,2,1,NA,2,NA,NA,NA,NA,2,English,NA,NA,2,Durham,NC,27703,NA,N,-78762000,35965000
182,2,2,2,1,1,1,3,NA,1,2,1,3,3,3,3,3,NA,NA,NA,NA,NA,NA,NA,NA,NA,2,73,5,1,1,NA,2,NA,NA,NA,NA,1,English,NA,NA,1,Durham,NC,27704,NA,N,-78804000,36024000
183,5,NA,5,4,5,5,5,5,2,1,2,5,NA,NA,4,5,5,5,5,5,5,5,5,5,5,2,29,4,1,2,NA,2,NA,NA,NA,NA,2,English,NA,NA,2,Durham,NC,27704,1,Y,NA,NA
184,4,4,3,4,3,4,5,4,2,1,2,3,NA,NA,3,4,4,4,3,5,4,4,4,NA,4,2,35,4,1,1,NA,2,NA,NA,NA,NA,2,English,NA,NA,4,Durham,NC,27705,NA,N,-78990000,35995000
185,4,4,3,3,4,4,5,4,2,1,2,4,NA,NA,3,4,4,4,4,4,4,4,4,NA,3,2,1,4,2,2,NA,NA,NA,4,NA,NA,2,English,NA,NA,2,Durham,NC,27713,NA,N,-78924000,35880000
186,3,3,3,NA,3,3,4,2,2,1,2,3,NA,NA,1,1,2,3,3,3,3,3,3,3,3,2,21,4,1,1,NA,NA,NA,4,NA,NA,2,English,NA,NA,NA,Durham,NC,27703,NA,N,-78803000,35995000
187,4,4,4,4,4,5,5,3,2,1,2,3,2,NA,2,5,5,5,5,5,4,5,4,NA,5,2,36,3,2,2,NA,2,NA,NA,NA,NA,2,English,NA,NA,3,Durham,NC,27705,2,Y,-78956000,36043000
188,3,3,4,1,3,4,4,3,2,1,2,3,3,NA,2,4,4,4,4,4,3,2,2,3,3,2,12,2,1,1,NA,NA,NA,4,NA,NA,2,English,NA,NA,4,Durham,NC,27707,3,Y,-78948000,35949000
189,2,4,2,3,2,2,4,1,2,1,2,3,2,3,4,4,2,3,3,1,1,3,3,1,1,2,12,1,1,1,NA,NA,NA,4,NA,NA,2,English,NA,NA,3,Durham,NC,27712,NA,N,-78940000,36096000
190,4,4,4,3,3,4,4,3,2,2,1,3,NA,NA,1,3,4,4,4,4,4,4,4,4,4,2,62,4,1,1,NA,NA,NA,4,NA,NA,2,English,NA,NA,NA,Durham,NC,27712,NA,N,-78874000,36085000
191,4,4,3,4,3,3,5,3,1,NA,NA,4,NA,4,NA,5,4,4,4,4,4,4,4,4,4,2,4,3,1,2,NA,NA,NA,4,NA,NA,2,English,NA,NA,1,Durham,NC,27704,2,Y,-78909000,36049000
192,2,2,4,2,2,4,5,2,2,1,2,4,NA,NA,2,5,4,2,2,2,2,4,2,2,4,2,60,5,1,2,NA,2,NA,NA,NA,NA,2,English,NA,NA,2,Durham,NC,27712,NA,N,-78973000,36073000
193,4,3,3,2,2,3,4,3,2,1,2,3,3,NA,3,5,4,4,3,3,3,3,3,NA,3,2,47,4,1,2,NA,NA,NA,4,NA,NA,2,English,NA,NA,3,Durham,NC,27712,2,Y,-78921000,36075000
194,4,4,2,3,2,3,5,2,2,2,2,3,3,3,3,5,4,4,3,3,2,4,3,4,2,2,49,5,1,1,NA,2,NA,NA,NA,NA,2,English,NA,NA,NA,Durham,NC,27712,2,Y,-78855000,36130000
195,4,4,4,5,5,4,4,3,2,1,2,NA,NA,NA,4,4,4,4,4,3,2,3,4,5,5,2,7,1,1,1,NA,NA,NA,4,NA,NA,2,English,NA,NA,4,Durham,NC,27703,4,Y,-78815000,35923000
196,4,4,5,5,5,5,5,5,2,1,2,5,5,NA,5,5,5,5,5,5,3,4,5,5,5,2,6,1,1,1,NA,2,NA,NA,NA,NA,2,English,NA,NA,4,Durham,NC,27701,2,Y,-78909000,36005000
197,3,3,4,4,3,3,4,NA,2,1,2,2,3,4,3,4,3,3,4,1,1,2,4,2,2,2,3,1,1,2,NA,NA,NA,4,NA,NA,1,English,NA,NA,3,Durham,NC,27713,4,Y,-78884000,35890000
198,3,3,3,3,3,4,3,2,1,2,2,NA,NA,NA,3,4,4,4,4,NA,NA,4,5,NA,3,2,26,3,2,2,NA,NA,NA,4,NA,NA,2,English,NA,NA,2,Durham,NC,27703,4,Y,-78844000,35937000
199,4,4,2,2,1,1,2,3,2,1,1,2,2,NA,4,4,2,1,3,NA,NA,2,2,2,1,2,2,1,2,2,NA,2,NA,NA,NA,NA,2,English,NA,NA,2,Durham,NC,27703,NA,N,-78812000,35992000
200,4,4,3,5,4,4,5,4,2,1,2,4,4,NA,3,5,4,5,4,4,3,3,4,5,4,2,20,2,1,1,NA,2,NA,NA,NA,NA,2,English,NA,NA,4,Durham,NC,27703,1,Y,-78795000,35970000
201,3,3,3,3,3,3,4,2,2,NA,2,3,3,NA,2,4,4,3,3,3,3,3,2,3,3,2,40,4,1,2,NA,2,NA,NA,NA,NA,2,English,NA,NA,1,Durham,NC,27703,NA,N,-78775000,35954000
202,4,4,4,4,4,4,3,4,2,1,2,3,NA,NA,4,3,4,4,4,4,4,4,4,4,4,2,61,5,1,1,NA,2,NA,NA,NA,NA,2,English,NA,NA,3,Durham,NC,27701,1,Y,-78878000,35996000
203,4,4,3,4,4,4,4,4,2,1,2,3,3,3,4,4,3,5,3,4,5,3,2,3,3,2,1,1,1,2,1,2,NA,NA,NA,NA,2,English,NA,NA,4,Durham,NC,27703,NA,N,-78826000,35967000
204,3,2,3,3,3,3,3,3,2,1,1,3,3,NA,3,3,4,4,4,3,2,3,2,3,3,2,14,2,1,1,1,NA,NA,NA,NA,NA,2,English,NA,NA,4,Durham,NC,27713,4,Y,-78911000,35932000
205,2,3,2,3,2,2,3,2,1,1,1,3,4,2,3,4,2,2,3,2,3,1,3,3,2,2,4,2,1,2,NA,2,NA,NA,NA,NA,2,English,NA,NA,2,Durham,NC,27704,2,Y,-78875000,36064000
206,4,4,5,4,5,5,5,NA,2,1,2,2,2,NA,4,5,4,4,4,NA,NA,NA,4,NA,5,2,8,1,1,2,NA,NA,NA,4,NA,NA,2,English,NA,NA,4,Durham,NC,27701,2,Y,-78905000,36011000
207,3,3,4,3,4,4,4,3,2,1,1,3,2,NA,4,4,4,4,4,4,3,3,4,4,4,2,4,1,1,1,NA,2,NA,NA,NA,NA,2,English,NA,NA,4,Durham,NC,27701,2,Y,-78908000,36011000
208,2,2,3,1,4,3,4,NA,1,1,1,3,2,NA,3,3,4,3,4,4,NA,4,4,NA,2,1,5,1,1,2,NA,2,NA,NA,NA,NA,2,English,NA,NA,3,Durham,NC,27705,2,Y,-78930000,36022000
209,4,4,4,3,3,4,5,3,1,1,2,4,4,NA,NA,5,4,4,4,NA,NA,NA,3,2,3,2,25,2,2,2,NA,2,NA,NA,NA,NA,2,English,NA,NA,3,Durham,NC,27713,4,Y,-78924000,35939000
210,4,3,4,3,3,4,4,2,2,1,2,NA,NA,NA,NA,5,4,5,5,4,4,3,5,4,3,2,20,2,2,2,NA,NA,NA,4,NA,NA,2,English,NA,NA,3,Durham,NC,27712,NA,N,-78868000,36101000
211,4,4,4,4,4,4,4,3,1,2,2,NA,NA,NA,NA,NA,4,4,4,4,4,3,3,4,4,2,32,3,1,1,NA,NA,NA,4,NA,NA,2,English,NA,NA,4,Durham,NC,27703,NA,N,-78817000,35990000
212,3,3,3,2,2,4,4,1,NA,NA,NA,NA,NA,NA,NA,NA,4,2,NA,2,2,2,2,2,2,2,18,5,2,1,NA,2,NA,NA,NA,NA,2,English,NA,NA,NA,Durham,NC,27713,3,Y,-78932000,35921000
213,4,4,4,4,4,4,4,4,1,1,1,3,NA,NA,2,NA,4,NA,4,4,4,4,4,3,4,2,50,5,2,1,NA,NA,NA,4,NA,NA,2,English,NA,NA,1,Durham,NC,27712,NA,N,-78960000,36086000
214,4,4,4,4,4,4,4,3,2,2,2,3,3,3,3,3,4,4,4,4,4,3,5,3,3,2,40,5,1,1,NA,NA,NA,4,NA,NA,2,English,NA,NA,2,Durham,NC,27707,3,Y,-78963000,35951000
215,4,4,5,2,4,4,4,2,2,1,2,4,3,NA,4,4,4,4,4,3,2,4,4,4,4,2,5,2,2,2,NA,NA,NA,4,NA,NA,1,English,NA,NA,3,Durham,NC,27701,2,Y,-78893000,36004000
216,3,3,3,3,3,3,4,4,NA,NA,NA,NA,NA,NA,NA,NA,NA,NA,NA,NA,NA,NA,NA,NA,NA,2,NA,5,2,1,NA,NA,NA,4,NA,NA,2,English,NA,NA,2,Durham,NC,27703,1,Y,-78831000,35997000
217,4,3,4,3,4,4,4,3,2,1,2,3,3,2,2,2,4,4,4,4,4,4,4,4,4,2,16,3,2,1,NA,NA,NA,4,NA,NA,2,English,NA,NA,NA,Durham,NC,27713,4,Y,-78907000,35927000
218,4,4,4,3,4,4,4,2,2,2,2,5,4,NA,2,5,4,4,4,4,4,4,4,4,4,2,39,3,1,1,NA,NA,NA,4,NA,NA,2,English,NA,NA,3,Durham,NC,27704,2,Y,-78911000,36042000
219,4,4,4,4,4,4,4,4,2,1,2,1,4,2,5,2,4,4,3,4,4,NA,4,4,4,2,1,1,1,2,NA,2,NA,NA,NA,NA,1,English,NA,NA,3,Durham,NC,27713,4,Y,-78888000,35943000
220,4,4,3,3,3,4,3,4,2,1,2,NA,NA,NA,4,5,4,NA,4,3,3,2,4,4,4,2,2,1,1,1,NA,2,NA,NA,NA,NA,1,English,NA,NA,3,Durham,NC,27713,4,Y,-78931000,35907000
221,1,1,1,1,5,4,4,1,1,2,1,1,2,2,2,5,1,1,1,4,4,1,1,1,1,2,7,1,1,1,NA,NA,NA,NA,NA,NA,1,English,NA,NA,3,Durham,NC,27713,3,Y,-78936000,35932000
222,3,3,3,3,3,3,3,2,2,1,1,4,4,4,3,4,4,4,3,4,4,3,4,4,3,2,52,4,1,2,NA,NA,NA,4,NA,NA,2,English,NA,NA,2,Durham,NC,27707,3,Y,-78942000,35954000
223,4,4,4,1,5,4,5,3,1,1,2,5,4,NA,4,4,5,5,5,5,5,5,5,4,4,2,15,2,1,1,NA,NA,NA,4,NA,NA,2,English,NA,NA,4,Durham,NC,27713,4,Y,-78927000,35906000
224,3,3,4,4,3,3,3,3,1,2,2,2,2,5,3,2,2,5,2,2,2,2,2,2,2,2,48,3,2,1,NA,2,NA,NA,NA,NA,2,English,NA,NA,2,Durham,NC,27704,2,Y,-78881000,36039000
225,4,3,3,2,3,4,4,NA,2,1,2,4,5,NA,5,5,4,4,3,3,3,4,4,4,4,2,3,1,2,2,NA,NA,NA,4,NA,NA,2,English,NA,NA,4,Durham,NC,27705,2,Y,-78918000,36014000
226,2,2,2,2,1,1,5,3,1,1,1,4,4,4,4,4,1,2,1,1,4,1,1,1,1,1,40,3,2,1,NA,NA,NA,4,NA,NA,2,English,NA,NA,1,Durham,NC,27707,4,Y,-78912000,35955000
227,4,3,2,1,2,3,4,3,2,1,2,3,3,3,2,4,4,4,2,3,3,2,4,4,4,2,32,3,2,1,1,NA,NA,NA,NA,NA,2,English,NA,NA,3,Durham,NC,27712,NA,N,-78947000,36086000
228,NA,NA,NA,NA,NA,NA,NA,NA,2,1,2,NA,NA,NA,NA,NA,4,NA,3,NA,4,4,3,3,3,2,60,5,2,1,NA,2,NA,NA,NA,NA,2,English,NA,NA,2,Durham,NC,27704,NA,N,-78867000,36047000
229,3,3,3,2,4,4,4,4,2,1,1,1,1,1,3,1,4,4,4,4,4,3,4,NA,3,2,6,NA,2,2,NA,2,NA,NA,NA,NA,2,English,NA,NA,1,Durham,NC,27704,2,Y,-78867000,36034000
230,4,4,4,1,1,3,4,3,2,NA,2,NA,NA,NA,2,4,4,4,4,3,4,1,4,2,1,2,20,2,2,1,NA,NA,NA,4,NA,NA,2,English,NA,NA,4,Durham,NC,27701,2,Y,-78891000,36009000
231,3,3,4,3,4,4,5,3,2,1,2,3,NA,NA,2,2,4,4,NA,NA,NA,NA,4,NA,4,2,0,1,1,2,NA,2,NA,NA,NA,NA,2,English,NA,NA,3,Durham,NC,27703,1,Y,-78781000,35923000
232,3,3,1,2,2,4,4,3,NA,NA,1,2,1,NA,4,5,4,4,4,NA,NA,3,4,4,3,2,30,2,1,1,NA,2,NA,NA,NA,NA,2,English,NA,NA,3,Durham,NC,27703,1,Y,-78812000,35953000
233,3,NA,2,3,3,3,3,3,2,1,2,3,2,3,3,NA,4,4,4,4,3,NA,NA,NA,5,2,17,2,1,1,NA,2,NA,NA,NA,NA,2,English,NA,NA,4,Durham,NC,27701,1,Y,-78894000,35996000
234,NA,NA,NA,NA,NA,NA,NA,NA,NA,NA,NA,NA,NA,NA,NA,NA,NA,NA,NA,NA,NA,NA,NA,NA,NA,NA,7,4,2,1,NA,NA,NA,4,NA,NA,2,English,NA,NA,2,Durham,NC,27703,1,Y,-78783000,35927000
235,2,3,4,3,3,3,3,2,2,1,2,4,4,4,1,4,4,4,4,3,3,3,4,2,3,2,35,3,1,2,NA,2,NA,NA,NA,NA,2,English,NA,NA,3,Durham,NC,27701,2,Y,-78900000,36013000
236,NA,NA,2,NA,3,2,2,1,1,NA,1,3,3,NA,NA,3,2,NA,NA,NA,NA,2,NA,NA,NA,2,65,5,1,2,NA,2,NA,NA,NA,NA,1,English,NA,NA,1,Durham,NC,27703,NA,N,-78757000,35941000
237,2,3,2,3,2,2,4,1,2,1,2,5,3,2,4,4,4,4,4,2,2,4,4,3,3,2,14,2,2,1,NA,2,NA,NA,NA,NA,2,English,NA,NA,4,Durham,NC,27701,2,Y,-78890000,36006000
238,5,4,4,5,4,5,5,5,2,1,2,5,5,4,3,4,5,5,5,5,5,5,5,5,5,2,NA,4,1,1,NA,NA,NA,4,NA,NA,2,English,NA,NA,2,Durham,NC,27713,4,Y,-78927000,35905000
239,3,3,3,3,1,3,5,2,2,1,2,3,3,3,3,3,3,3,3,3,2,3,3,3,1,2,30,2,1,1,NA,2,NA,NA,NA,NA,2,English,NA,NA,4,Bahama,NC,27503,NA,N,-78955000,36160000
240,4,4,4,4,4,4,5,4,2,1,1,4,4,NA,2,5,4,4,4,4,3,4,4,4,4,2,16,2,1,2,NA,NA,NA,4,NA,NA,2,English,NA,NA,4,Durham,NC,27703,4,Y,-78880000,35948000
241,2,2,2,3,2,1,1,1,2,NA,NA,NA,NA,NA,1,2,1,3,1,1,2,1,1,1,2,2,40,2,2,2,NA,2,NA,NA,NA,NA,2,English,NA,NA,2,Durham,NC,27703,NA,N,-78764000,35979000
242,2,2,4,2,4,4,5,3,1,1,1,2,2,2,2,2,4,4,3,4,4,4,3,2,3,1,NA,4,2,1,NA,NA,NA,4,NA,NA,2,English,NA,NA,2,Durham,NC,27703,NA,N,-78833000,35969000
243,2,NA,1,1,4,4,4,1,2,1,1,NA,NA,NA,NA,NA,4,4,3,NA,NA,NA,NA,NA,3,2,14,2,1,1,NA,2,NA,NA,NA,NA,2,English,NA,NA,NA,Durham,NC,27701,2,Y,-78890000,36006000
244,4,4,2,1,1,3,4,4,2,1,2,4,NA,NA,1,5,2,4,1,1,1,3,4,3,1,2,35,4,2,1,NA,NA,NA,NA,5,POLISH,2,English,NA,NA,4,Durham,NC,27713,3,Y,-78940000,35921000
245,3,2,1,1,1,1,4,4,2,1,2,3,NA,3,2,4,4,NA,3,4,2,4,4,NA,3,2,70,5,2,1,NA,NA,NA,4,NA,NA,2,English,NA,NA,4,Rougemont,NC,27572,NA,N,-78884000,36225000
246,3,3,4,4,4,5,5,5,2,1,1,4,NA,NA,2,4,5,4,5,5,4,5,5,3,3,2,39,5,2,2,NA,2,NA,NA,NA,NA,1,English,NA,NA,1,Durham,NC,27701,3,Y,-78913000,35994000
247,2,2,3,2,3,3,5,2,NA,NA,NA,3,3,NA,1,5,3,2,3,NA,NA,3,3,2,3,2,6,4,1,2,1,NA,NA,NA,NA,NA,2,English,NA,NA,NA,Durham,NC,27703,1,Y,-78782000,35937000
248,4,4,3,2,4,5,5,NA,2,1,2,4,4,2,3,5,5,5,5,4,4,3,5,5,4,2,2,1,1,2,NA,2,NA,NA,NA,NA,2,English,NA,NA,3,Durham,NC,27713,3,Y,-78942000,35909000
249,4,4,4,4,2,2,4,2,2,1,2,NA,2,2,4,4,4,4,4,2,2,3,3,3,4,2,7,2,1,1,NA,2,3,NA,NA,NA,2,English,NA,NA,3,Durham,NC,27703,4,Y,-78817000,35920000
250,4,4,4,4,3,4,5,3,2,1,2,4,4,NA,3,4,4,4,3,NA,NA,4,4,3,3,2,6,5,1,1,NA,2,NA,NA,NA,NA,2,English,NA,NA,3,Durham,NC,27703,1,Y,-78784000,35933000
251,3,3,3,4,5,5,4,3,2,1,2,2,2,4,1,4,5,5,5,4,4,4,5,5,4,1,53,3,2,1,NA,NA,NA,4,NA,NA,2,English,NA,NA,2,Durham,NC,27703,1,Y,-78811000,35979000
252,4,4,2,NA,1,4,5,2,2,1,2,NA,NA,NA,3,5,4,5,2,3,1,3,2,NA,2,2,64,4,2,2,NA,2,NA,NA,NA,NA,1,English,NA,NA,3,Durham,NC,27703,1,Y,-78813000,35978000
253,4,4,4,2,4,4,4,NA,2,1,2,3,NA,NA,4,3,4,4,4,4,NA,2,5,4,4,2,5,1,2,2,NA,2,NA,NA,NA,NA,2,English,NA,NA,3,Durham,NC,27704,2,Y,-78907000,36031000
254,NA,NA,4,3,4,4,5,3,2,1,1,4,4,4,4,5,5,5,5,5,4,5,5,5,5,2,48,3,1,2,NA,2,NA,NA,NA,NA,2,English,NA,NA,2,Bahama,NC,27503,NA,N,-78906000,36156000
255,3,3,1,2,1,3,3,3,2,NA,2,NA,NA,NA,4,4,4,4,4,4,4,4,4,4,4,2,64,4,2,1,NA,2,NA,NA,NA,NA,2,English,NA,NA,2,Durham,NC,27703,1,Y,-78824000,35949000
256,NA,NA,NA,1,NA,NA,NA,1,NA,NA,NA,NA,NA,NA,NA,NA,3,3,1,NA,NA,NA,NA,NA,1,2,66,5,2,1,NA,2,NA,NA,NA,NA,2,English,NA,NA,NA,Durham,NC,27703,NA,N,-78824000,35977000
257,3,3,3,4,3,3,4,3,2,1,2,NA,NA,NA,3,4,4,4,4,4,3,4,4,4,3,2,51,5,2,1,NA,NA,NA,4,NA,NA,2,English,NA,NA,NA,Durham,NC,27713,4,Y,-78909000,35930000
258,4,NA,4,4,5,5,5,4,2,1,2,4,4,4,4,4,5,5,5,NA,NA,NA,4,NA,5,2,16,2,1,1,NA,2,NA,NA,NA,NA,2,English,NA,NA,4,Durham,NC,27701,2,Y,-78909000,36017000
259,3,3,3,3,3,3,3,3,2,1,1,3,NA,NA,3,3,3,4,3,3,3,3,4,3,3,2,15,1,2,1,NA,2,NA,NA,NA,NA,2,English,NA,NA,4,Durham,NC,27703,1,Y,-78827000,35994000
260,3,3,2,2,3,2,3,3,1,1,2,NA,NA,NA,2,4,3,3,2,3,3,2,3,3,3,2,39,3,1,1,NA,NA,NA,4,NA,NA,2,English,NA,NA,NA,Durham,NC,27703,1,Y,-78830000,35956000
261,4,4,5,4,4,3,4,3,1,1,1,3,NA,NA,2,3,5,5,4,4,4,3,5,5,4,2,25,4,2,1,NA,2,NA,NA,NA,NA,2,English,NA,NA,1,Durham,NC,27705,2,Y,-78975000,36044000
262,3,3,3,3,3,4,3,3,1,NA,2,NA,NA,NA,3,4,4,4,3,4,3,2,4,4,4,2,10,2,2,1,NA,NA,NA,4,NA,NA,2,English,NA,NA,4,Durham,NC,27703,1,Y,-78817000,35949000
263,4,4,4,2,3,4,5,4,2,1,1,4,2,4,4,NA,5,5,5,NA,NA,4,4,4,4,2,25,2,2,1,NA,2,NA,NA,NA,NA,1,English,NA,NA,3,Durham,NC,27701,2,Y,-78896000,36008000
264,3,4,3,4,3,4,4,2,1,1,1,2,2,NA,4,3,4,4,2,4,3,1,2,3,4,2,10,1,1,1,NA,NA,NA,4,NA,NA,2,English,NA,NA,NA,Durham,NC,27703,1,Y,NA,NA
265,3,4,2,3,2,3,4,3,2,1,2,3,NA,NA,2,4,5,3,4,4,4,5,5,3,4,2,20,5,1,1,NA,2,NA,NA,NA,NA,2,English,NA,NA,3,Bahama,NC,27503,NA,N,-78919000,36142000
266,2,3,2,2,3,2,1,1,2,2,1,2,NA,NA,2,1,4,5,3,3,2,3,4,4,5,2,48,3,2,1,NA,NA,NA,4,NA,NA,2,English,NA,NA,3,Durham,NC,27703,1,Y,-78875000,35981000
267,2,2,5,2,5,3,4,3,2,1,2,NA,NA,NA,5,5,5,5,5,5,5,5,5,5,5,2,22,3,1,2,NA,NA,NA,4,NA,NA,2,English,NA,NA,3,Durham,NC,27703,1,Y,-78794000,35972000
268,4,3,3,2,1,3,4,1,2,2,1,4,NA,4,3,4,5,5,4,2,1,4,4,4,1,2,5,2,1,1,NA,2,NA,NA,NA,NA,2,English,NA,NA,3,Durham,NC,27713,4,Y,-78905000,35896000
269,5,2,2,2,1,4,4,4,2,NA,1,1,NA,NA,4,2,4,4,5,4,4,4,5,3,3,2,30,3,2,1,NA,NA,NA,4,NA,NA,2,English,NA,NA,NA,Durham,NC,27703,NA,N,-78810000,35993000
270,4,4,3,3,4,4,5,4,2,1,2,4,4,NA,4,4,5,5,5,5,NA,4,5,4,5,2,20,3,1,1,NA,2,NA,NA,NA,NA,1,Spanish,NA,NA,4,Durham,NC,27701,2,Y,-78895000,36005000
271,4,4,4,4,4,4,4,3,NA,NA,NA,NA,NA,NA,NA,NA,5,5,5,3,3,5,3,3,NA,2,NA,5,2,1,NA,2,NA,NA,NA,NA,2,English,NA,NA,NA,Durham,NC,27713,4,Y,-78922000,35922000
272,3,NA,4,2,3,4,4,3,1,1,2,3,NA,NA,NA,4,4,4,4,4,4,4,3,4,3,2,17,2,2,1,NA,2,NA,NA,NA,NA,2,English,NA,NA,NA,Durham,NC,27703,1,Y,-78831000,35960000
273,3,3,3,3,3,3,3,1,1,2,1,2,4,4,2,3,2,4,2,2,2,5,2,4,4,2,30,2,1,2,NA,NA,NA,4,NA,NA,2,English,NA,NA,3,Durham,NC,27713,3,Y,-78933000,35928000
274,2,2,4,2,4,3,4,4,2,1,1,3,3,3,4,4,4,4,4,4,4,4,4,4,4,1,20,3,2,2,NA,NA,NA,4,NA,NA,2,English,NA,NA,3,Durham,NC,27704,2,Y,-78856000,36050000
275,5,5,5,2,4,5,5,5,2,1,2,4,NA,NA,4,5,5,5,5,5,4,5,5,5,5,2,13,1,2,1,NA,2,NA,NA,NA,NA,2,English,NA,NA,4,Durham,NC,27712,NA,N,-78952000,36080000
276,5,NA,3,2,1,2,1,NA,1,2,2,NA,NA,NA,2,3,NA,NA,NA,NA,NA,NA,NA,NA,NA,2,25,2,2,2,NA,NA,NA,4,NA,NA,2,English,NA,NA,2,Durham,NC,27703,4,Y,-78844000,35936000
277,2,NA,4,2,2,3,3,2,2,2,1,2,NA,2,2,1,4,2,4,3,2,2,4,3,3,2,35,3,2,1,NA,NA,NA,4,NA,NA,2,English,NA,NA,NA,Durham,NC,27703,1,Y,NA,NA
278,4,NA,1,3,3,3,4,1,NA,NA,NA,NA,NA,NA,NA,5,4,NA,NA,NA,NA,3,3,NA,3,2,12,5,2,1,NA,NA,NA,4,NA,NA,2,English,NA,NA,NA,Durham,NC,27703,1,Y,-78806000,35984000
279,3,NA,2,3,2,2,2,1,1,1,NA,1,NA,NA,3,3,2,2,2,1,1,1,1,4,2,2,33,1,2,1,NA,NA,NA,4,5,Mexican,1,English,NA,NA,2,Durham,NC,27703,1,Y,-78812000,36004000
280,1,1,1,1,1,1,1,1,NA,NA,NA,3,3,NA,1,NA,1,1,1,1,1,1,1,1,1,2,20,NA,1,2,NA,NA,NA,4,NA,NA,2,English,NA,NA,NA,Durham,NC,27704,NA,N,-78797000,36026000
281,4,4,3,2,3,3,3,3,2,NA,2,2,3,NA,NA,2,4,4,3,4,3,4,4,3,3,2,58,5,1,1,NA,NA,NA,4,NA,NA,2,English,NA,NA,NA,Durham,NC,27703,1,Y,-78843000,35992000
282,4,4,4,3,3,4,4,3,1,1,1,4,NA,2,3,5,4,4,3,NA,NA,NA,4,3,4,2,10,1,2,2,NA,NA,NA,4,NA,NA,2,English,NA,NA,NA,Durham,NC,27705,3,Y,-78953000,36004000
283,4,4,3,4,2,2,2,2,2,NA,1,3,2,4,1,2,NA,NA,NA,NA,NA,NA,NA,NA,NA,1,22,3,2,2,NA,NA,NA,NA,5,Hispanic,1,English,NA,NA,2,Durham,NC,27704,2,Y,-78915000,36025000
284,5,5,4,5,2,4,5,5,2,1,2,2,2,4,5,3,5,5,4,5,4,4,4,4,4,2,23,3,1,1,NA,NA,NA,4,NA,NA,2,English,NA,NA,4,Durham,NC,27703,1,Y,-78807000,35997000
285,3,3,4,3,4,4,4,2,2,1,1,4,4,4,4,4,4,3,4,4,4,4,4,3,4,2,54,3,1,2,NA,NA,NA,4,NA,NA,2,English,NA,NA,2,Durham,NC,27704,2,Y,-78904000,36023000
286,4,4,5,4,5,5,5,5,2,1,2,4,4,NA,4,5,4,4,4,NA,NA,NA,4,NA,4,2,1,1,1,1,NA,2,NA,NA,NA,NA,2,English,NA,NA,3,Durham,NC,27713,4,Y,-78911000,35952000
287,4,4,4,4,5,5,5,5,2,1,2,3,3,3,2,5,5,5,5,5,5,5,5,5,5,2,14,1,1,1,NA,NA,NA,4,NA,NA,2,English,NA,NA,4,Durham,NC,27713,3,Y,-78945000,35883000
288,3,3,4,4,3,4,4,3,2,1,2,NA,NA,NA,2,4,3,4,2,3,2,3,4,2,1,2,54,3,2,1,NA,NA,NA,4,NA,NA,2,English,NA,NA,2,Durham,NC,27703,1,Y,-78811000,35972000
289,NA,NA,3,2,4,4,5,3,2,1,1,4,2,NA,2,4,4,NA,4,4,2,3,4,NA,3,2,11,2,1,1,NA,2,NA,NA,NA,NA,2,English,NA,NA,4,Durham,NC,27712,NA,N,-78961000,36070000
290,3,4,4,3,2,2,2,2,NA,NA,NA,3,3,3,3,3,2,4,3,2,3,1,1,2,2,2,NA,5,1,2,NA,2,NA,NA,NA,NA,2,English,NA,NA,2,Durham,NC,27704,NA,N,-78843000,36045000
291,4,4,2,3,3,4,5,4,2,1,2,NA,NA,NA,NA,5,4,4,4,4,4,4,4,4,4,2,51,3,2,1,NA,2,NA,NA,NA,NA,2,English,NA,NA,NA,Durham,NC,27705,2,Y,-78963000,36041000
292,4,3,4,4,5,5,4,4,2,1,1,2,5,2,4,5,5,5,4,3,3,3,5,5,5,2,5,1,1,2,NA,2,NA,NA,NA,NA,1,English,NA,NA,3,Durham,NC,27713,NA,N,-78918000,35879000
293,3,3,3,NA,2,4,4,3,2,1,2,NA,NA,NA,2,4,4,4,3,NA,1,3,4,NA,4,2,16,2,2,2,NA,NA,NA,4,NA,NA,2,English,NA,NA,4,Durham,NC,27713,4,Y,-78888000,35942000
294,3,3,3,2,2,4,1,NA,1,1,2,2,NA,NA,2,1,3,4,3,4,4,3,2,3,4,2,5,NA,2,2,NA,2,NA,NA,NA,NA,2,English,NA,NA,NA,Durham,NC,27705,2,Y,-78914000,36025000
295,4,4,2,2,4,4,4,2,2,1,2,NA,NA,NA,2,4,4,4,4,NA,NA,NA,4,NA,3,2,14,1,1,1,NA,NA,NA,4,NA,NA,2,English,NA,NA,4,Durham,NC,27704,1,Y,-78825000,36022000
296,3,3,1,2,1,NA,3,1,2,2,2,NA,NA,NA,NA,NA,3,3,2,3,3,2,NA,NA,NA,2,78,5,2,1,NA,2,NA,NA,NA,NA,2,English,NA,NA,NA,Durham,NC,27704,2,Y,-78886000,36025000
297,1,1,1,5,1,3,5,3,2,NA,2,3,3,3,3,NA,3,3,3,3,2,1,1,1,1,2,39,3,1,1,NA,2,NA,NA,NA,NA,2,English,NA,NA,3,Rougemont,NC,27572,NA,N,-78848000,36190000
298,3,3,4,4,4,4,3,3,2,1,2,3,2,3,3,4,4,4,4,4,4,4,5,4,4,2,35,4,1,2,NA,NA,NA,4,NA,NA,2,English,NA,NA,2,Durham,NC,27705,2,Y,-78919000,36044000
299,4,4,5,4,5,5,5,4,2,1,2,4,NA,NA,3,5,5,5,5,5,5,5,5,5,5,2,30,5,2,2,NA,2,NA,NA,NA,NA,2,English,NA,NA,3,Durham,NC,27713,3,Y,-78935000,35926000
300,3,3,2,2,2,4,4,4,2,1,2,4,3,1,1,5,3,4,1,3,1,1,2,3,3,2,30,3,1,1,NA,2,NA,NA,NA,NA,2,English,NA,NA,4,Durham,NC,27703,1,Y,-78819000,35974000
301,5,5,4,5,4,5,5,4,2,1,1,3,4,4,3,5,NA,NA,NA,NA,NA,NA,NA,NA,NA,2,30,5,1,1,1,NA,NA,NA,NA,NA,2,Other,ARABIC,NA,1,Durham,NC,27705,2,Y,-78979000,36040000
302,4,4,4,2,4,4,3,3,2,2,2,4,NA,NA,3,4,4,4,5,4,4,5,5,5,5,2,25,1,2,2,NA,NA,NA,4,NA,NA,2,English,NA,NA,2,Durham,NC,27707,3,Y,-78931000,35978000
303,5,5,4,5,4,5,5,5,2,1,1,4,4,3,5,5,5,5,5,5,3,2,5,5,5,2,35,4,2,1,NA,NA,NA,4,NA,NA,2,English,NA,NA,4,Durham,NC,27701,2,Y,-78905000,36012000
304,NA,5,3,2,2,4,4,1,1,1,1,4,3,3,1,4,4,4,3,4,2,2,4,3,3,2,46,3,2,1,NA,NA,NA,4,NA,NA,2,English,NA,NA,1,Durham,NC,27704,NA,N,-78798000,36052000
305,5,5,5,5,5,5,5,5,1,2,1,5,5,5,5,5,5,5,5,5,5,5,5,5,5,2,25,5,1,1,NA,NA,NA,4,NA,NA,2,English,NA,NA,2,Durham,NC,27707,4,Y,-78915000,35952000
306,5,5,5,5,5,5,5,3,2,1,2,4,3,3,3,2,5,5,3,4,4,5,5,5,5,2,12,5,2,1,NA,NA,NA,4,NA,NA,2,English,NA,NA,1,Durham,NC,27707,NA,N,-79000000,35944000
307,4,4,5,5,4,4,5,3,1,1,1,4,NA,NA,3,5,5,5,4,5,3,3,4,4,5,2,5,1,2,1,NA,2,NA,NA,NA,NA,2,English,NA,NA,4,Durham,NC,27713,3,Y,-78940000,35935000
308,4,4,4,4,4,5,5,3,2,1,2,2,2,NA,2,4,5,NA,4,5,NA,NA,4,NA,4,2,4,1,1,2,NA,2,NA,NA,NA,NA,2,English,NA,NA,2,Durham,NC,27705,3,Y,-78963000,35978000
309,4,4,4,3,3,3,4,3,2,NA,2,3,3,NA,2,2,4,4,4,4,4,4,4,4,4,2,71,5,1,1,NA,NA,NA,4,NA,NA,2,English,NA,NA,3,Durham,NC,27712,NA,N,-78955000,36089000
310,NA,NA,1,4,1,2,4,1,1,1,2,2,1,NA,1,5,3,2,1,1,2,1,1,1,1,2,15,2,1,2,NA,NA,NA,NA,5,PUERTO RICAN,1,Spanish,NA,NA,3,Durham,NC,27705,2,Y,-78926000,36062000
311,4,4,4,4,4,4,4,4,2,1,2,4,4,NA,4,4,4,4,4,4,3,3,4,4,4,2,10,1,1,1,NA,2,NA,NA,NA,NA,2,English,NA,NA,4,Durham,NC,27704,2,Y,-78903000,36022000
312,4,4,4,4,4,4,4,4,1,1,2,NA,5,NA,4,4,5,5,5,5,3,5,5,5,5,2,1,1,2,1,NA,NA,NA,4,NA,NA,2,English,NA,NA,4,Durham,NC,27704,NA,N,-78797000,36026000
313,4,4,5,3,4,4,3,3,1,1,2,4,4,NA,NA,5,4,4,5,4,NA,2,4,4,4,2,0,1,2,1,NA,2,NA,NA,NA,NA,2,English,NA,NA,4,Durham,NC,27707,4,Y,-78905000,35982000
314,4,4,4,4,5,5,4,4,1,1,1,5,5,5,5,5,4,5,5,4,4,3,5,4,5,2,6,1,1,2,NA,2,NA,NA,NA,NA,2,English,NA,NA,2,Durham,NC,27705,3,Y,-78986000,36032000
315,3,3,1,3,3,3,3,3,2,2,2,3,3,NA,3,NA,4,3,3,4,3,5,4,4,3,2,62,4,2,1,NA,NA,NA,4,NA,NA,2,English,NA,NA,2,Durham,NC,27704,2,Y,-78905000,36028000
316,4,4,4,3,3,3,4,3,2,1,2,4,3,NA,3,5,4,4,4,4,4,3,4,4,4,2,14,2,1,1,NA,2,NA,NA,NA,NA,2,English,NA,NA,4,Durham,NC,27712,NA,N,-78905000,36101000
317,NA,4,4,5,4,4,4,3,2,1,2,NA,NA,NA,4,4,4,4,3,3,4,3,4,3,4,2,36,5,1,2,NA,NA,NA,4,NA,NA,2,English,NA,NA,3,Durham,NC,27712,NA,N,-78951000,36086000
318,4,4,4,4,4,4,4,4,2,1,2,3,3,NA,3,5,5,4,4,NA,NA,NA,4,4,4,2,2,1,2,2,NA,2,NA,NA,NA,NA,2,English,NA,NA,1,Durham,NC,27703,NA,N,-78816000,35987000
319,3,NA,2,3,2,4,5,3,2,1,2,1,2,NA,3,4,4,3,3,3,2,4,2,3,4,2,6,1,1,2,NA,2,NA,NA,NA,NA,2,English,NA,NA,3,Durham,NC,27712,2,Y,-78856000,36119000
320,2,2,2,2,2,NA,4,4,2,1,2,4,2,NA,1,4,4,4,4,4,4,1,4,4,1,2,50,5,2,2,NA,NA,NA,4,NA,NA,2,English,NA,NA,2,Durham,NC,27704,2,Y,-78901000,36073000
321,5,5,5,5,5,5,5,5,2,1,2,3,3,3,4,4,5,5,5,5,5,5,5,5,5,2,10,1,2,2,NA,2,NA,NA,NA,NA,2,English,NA,NA,2,Durham,NC,27712,NA,N,-78952000,36096000
322,4,4,4,4,4,4,5,4,2,1,2,NA,NA,NA,4,5,4,NA,4,4,3,5,5,5,4,2,26,5,2,1,NA,2,NA,NA,NA,NA,2,English,NA,NA,2,Durham,NC,27703,1,Y,-78812000,35973000
323,3,3,2,2,2,3,4,2,2,1,2,2,1,NA,3,4,4,5,4,4,3,4,3,NA,5,2,11,4,1,1,NA,2,NA,NA,NA,NA,2,English,NA,NA,2,Durham,NC,27703,1,Y,-78819000,35955000
324,3,4,4,3,3,4,4,2,NA,NA,NA,NA,NA,NA,NA,NA,5,5,3,4,4,4,4,5,4,2,71,5,2,1,NA,2,NA,NA,NA,NA,2,English,NA,NA,3,Durham,NC,27703,NA,N,-78801000,35970000
325,5,5,5,5,5,5,5,5,1,NA,NA,4,NA,NA,NA,4,5,4,NA,NA,4,5,4,4,4,2,23,3,2,2,NA,NA,NA,4,NA,NA,2,English,NA,NA,1,Durham,NC,27704,1,Y,NA,NA
326,4,4,4,2,4,3,2,4,1,2,2,3,4,3,4,4,4,5,4,2,3,4,5,4,2,1,33,2,2,2,NA,NA,NA,4,NA,NA,2,English,NA,NA,1,Durham,NC,27713,4,Y,-78900000,35936000
327,NA,NA,2,NA,3,3,4,3,2,NA,2,3,NA,NA,3,4,4,4,4,3,3,3,3,3,3,2,37,2,2,1,NA,NA,NA,4,NA,NA,2,English,NA,NA,2,Durham,NC,27703,1,Y,-78837000,35983000
328,NA,NA,3,NA,3,3,4,NA,NA,2,NA,NA,NA,NA,NA,4,3,3,2,3,3,3,3,3,3,2,49,3,2,1,NA,NA,NA,4,NA,NA,2,English,NA,NA,3,Durham,NC,27707,3,Y,-78947000,35955000
329,4,4,4,2,4,4,4,2,2,1,2,4,3,4,3,5,5,5,4,4,4,5,5,3,4,2,43,4,2,2,NA,NA,NA,4,NA,NA,2,English,NA,NA,1,Durham,NC,27704,2,Y,-78895000,36020000
330,1,2,1,1,1,1,2,1,2,1,2,NA,NA,NA,3,4,3,4,2,2,2,1,1,4,2,2,33,1,2,2,NA,NA,NA,NA,5,MULTI-RACIAL,2,English,NA,NA,3,Durham,NC,27704,NA,N,-78771000,36020000
331,5,3,4,2,4,4,4,4,2,1,1,2,2,3,2,2,4,5,4,3,3,2,4,4,4,2,14,1,1,1,NA,2,NA,NA,NA,NA,2,English,NA,NA,2,Durham,NC,27705,2,Y,-78926000,36032000
332,2,3,3,2,2,2,5,1,NA,2,1,NA,3,NA,4,4,5,3,3,2,4,2,2,2,1,2,53,3,1,1,NA,NA,NA,4,NA,NA,2,English,NA,NA,3,Rougemont,NC,27572,NA,N,-78915000,36204000
333,4,4,4,4,4,2,2,3,1,2,2,3,NA,2,2,NA,4,3,NA,3,2,3,4,3,3,2,61,4,2,2,NA,NA,NA,4,NA,NA,2,English,NA,NA,1,Durham,NC,27701,1,Y,-78880000,35996000
334,NA,3,4,4,3,4,5,4,2,1,2,NA,NA,NA,NA,4,4,4,3,3,3,3,3,3,3,2,35,4,1,1,NA,NA,NA,NA,NA,NA,1,English,NA,NA,4,Durham,NC,27712,NA,N,-78969000,36086000
335,4,4,3,2,1,2,3,3,2,1,2,NA,NA,NA,1,4,4,4,2,2,4,3,2,4,2,2,74,5,1,2,NA,NA,NA,4,NA,NA,2,English,NA,NA,1,Durham,NC,27704,2,Y,-78872000,36029000
336,2,2,2,3,3,3,3,2,2,1,2,2,2,3,1,3,3,3,3,3,3,3,3,3,3,2,50,5,1,1,NA,2,NA,NA,NA,NA,2,English,NA,NA,2,Durham,NC,27712,NA,N,-78952000,36090000
337,4,4,4,4,4,4,4,3,1,1,1,3,3,NA,2,5,4,4,3,2,1,2,2,3,4,2,6,5,1,1,NA,2,NA,NA,NA,NA,2,English,NA,NA,4,Durham,NC,27713,NA,N,-78925000,35888000
338,4,4,2,2,2,2,2,2,1,2,2,3,3,3,1,4,4,4,4,4,4,4,4,3,4,2,43,5,1,2,NA,NA,NA,4,NA,NA,2,English,NA,NA,1,Durham,NC,27704,2,Y,-78895000,36041000
339,NA,NA,3,NA,NA,NA,3,3,NA,NA,NA,NA,NA,NA,NA,NA,5,5,NA,5,5,NA,5,NA,NA,2,76,NA,2,1,NA,NA,NA,4,NA,NA,2,English,NA,NA,NA,Durham,NC,27704,2,Y,-78899000,36074000
340,3,3,3,3,3,3,4,3,1,1,1,2,2,1,3,4,4,4,4,4,4,3,1,3,3,2,10,2,1,1,NA,2,NA,NA,NA,NA,2,English,NA,NA,1,Durham,NC,27712,2,Y,-78947000,36079000
341,NA,4,4,4,4,4,4,4,NA,NA,NA,NA,NA,NA,NA,NA,4,NA,NA,NA,NA,NA,NA,NA,NA,2,40,5,1,2,NA,NA,NA,4,NA,NA,2,English,NA,NA,1,Durham,NC,27712,NA,N,-78928000,36114000
342,4,4,4,5,5,4,4,4,1,1,2,5,5,3,4,5,5,5,5,4,5,4,4,3,5,2,12,2,1,1,NA,NA,NA,4,NA,NA,2,English,NA,NA,2,Durham,NC,27704,2,Y,-78871000,36062000
343,2,2,3,3,3,3,3,2,1,2,1,2,NA,NA,2,2,4,4,4,4,4,4,4,4,4,2,52,3,2,1,NA,NA,NA,4,NA,NA,2,English,NA,NA,2,Durham,NC,27713,4,Y,-78909000,35949000
344,4,4,4,4,4,4,4,4,2,1,2,4,4,NA,3,4,4,4,4,4,4,4,4,4,4,2,NA,2,2,1,NA,NA,NA,4,NA,NA,2,English,NA,NA,4,Durham,NC,27713,4,Y,-78899000,35930000
345,4,4,4,1,3,4,3,2,2,1,2,2,NA,NA,1,3,4,4,4,4,4,NA,4,NA,3,2,15,2,2,1,NA,2,NA,NA,NA,NA,1,English,NA,NA,2,Durham,NC,27704,2,Y,-78892000,36022000
346,4,4,4,3,4,5,4,4,2,1,2,4,4,4,3,4,5,5,5,4,3,4,4,4,4,2,15,2,1,1,1,2,NA,NA,NA,NA,2,English,NA,NA,NA,Durham,NC,27701,2,Y,-78895000,36005000
347,NA,4,4,4,3,4,4,4,2,1,2,3,NA,4,2,5,4,NA,4,4,4,3,3,4,4,2,20,3,2,1,NA,NA,NA,4,NA,NA,2,English,NA,NA,NA,Durham,NC,27713,NA,N,-78930000,35883000
348,NA,NA,3,2,4,4,5,2,1,NA,1,3,NA,NA,3,4,4,4,4,4,2,3,4,4,4,2,10,2,2,1,NA,2,NA,NA,NA,NA,2,English,NA,NA,2,Durham,NC,27713,4,Y,-78900000,35930000
349,4,4,4,4,2,4,4,4,2,1,2,NA,NA,NA,4,4,4,NA,4,2,3,4,4,3,3,2,31,NA,2,2,NA,NA,NA,4,NA,NA,2,English,NA,NA,2,Durham,NC,27713,4,Y,-78916000,35893000
350,4,4,4,4,3,4,5,3,2,1,2,5,NA,4,NA,5,5,5,5,NA,NA,4,4,4,5,2,20,2,1,1,NA,2,NA,NA,NA,NA,2,English,NA,NA,4,Durham,NC,27713,3,Y,-78937000,35929000
351,4,4,4,4,4,4,4,4,1,2,2,1,NA,NA,NA,5,5,3,5,5,4,4,5,5,4,1,15,3,1,1,NA,NA,NA,4,NA,NA,2,English,NA,NA,2,Durham,NC,27703,1,Y,-78842000,35972000
352,5,5,4,4,4,4,4,NA,1,1,1,2,2,NA,4,2,4,4,4,2,2,2,4,4,4,2,17,2,1,2,NA,NA,NA,NA,5,Latino,1,Spanish,NA,NA,1,Durham,NC,27703,NA,N,-78837000,35985000
353,3,NA,4,3,3,3,2,NA,NA,NA,NA,3,NA,3,3,3,5,5,5,5,5,3,5,3,NA,2,50,4,2,2,NA,NA,NA,4,NA,NA,2,English,NA,NA,1,Durham,NC,27707,4,Y,-78901000,35983000
354,4,4,3,3,2,2,3,3,2,1,2,4,4,NA,3,4,3,4,4,4,3,3,5,4,4,2,11,1,2,1,NA,2,NA,NA,NA,NA,2,English,NA,NA,NA,Durham,NC,27713,3,Y,-78929000,35938000
355,4,4,4,4,2,4,5,3,1,1,2,NA,NA,NA,5,5,NA,NA,NA,NA,NA,NA,NA,NA,NA,2,42,4,2,2,NA,NA,NA,4,NA,NA,2,English,NA,NA,2,Durham,NC,27704,1,Y,-78809000,36038000
356,4,NA,3,3,4,4,4,3,2,1,1,2,3,NA,2,3,5,5,4,5,4,5,4,3,4,2,27,5,2,2,NA,2,NA,NA,NA,NA,2,English,NA,NA,1,Durham,NC,27713,3,Y,-78940000,35933000
357,4,4,3,3,2,3,4,2,1,1,2,2,2,2,3,1,4,4,4,5,5,5,5,4,4,2,20,3,2,1,NA,NA,NA,4,NA,NA,2,English,NA,NA,2,Durham,NC,27704,1,Y,-78818000,36014000
358,NA,NA,NA,NA,NA,5,5,4,NA,1,NA,NA,NA,NA,NA,5,5,NA,NA,NA,NA,5,NA,NA,NA,2,20,5,2,2,NA,2,NA,NA,NA,NA,1,English,NA,NA,1,Durham,NC,27712,2,Y,-78891000,36087000
359,4,4,4,5,5,4,4,4,2,1,2,NA,NA,NA,3,5,5,5,4,4,3,5,5,NA,4,2,17,4,1,1,1,NA,NA,NA,NA,NA,2,English,NA,NA,3,Durham,NC,27712,2,Y,-78852000,36129000
360,4,4,4,2,4,4,5,4,2,1,2,2,2,NA,4,4,5,5,5,5,4,5,4,NA,4,2,NA,1,1,1,NA,NA,NA,4,NA,NA,1,English,NA,NA,4,Durham,NC,27705,3,Y,-78951000,35983000
361,3,3,4,4,4,4,4,3,1,1,1,3,2,NA,4,4,4,5,1,3,4,2,3,3,3,2,14,2,1,2,1,NA,NA,NA,NA,NA,2,English,NA,NA,3,Durham,NC,27712,2,Y,-78916000,36080000
362,4,NA,4,3,3,4,3,1,2,2,1,NA,NA,NA,2,3,4,4,3,4,4,4,4,3,3,2,40,4,2,1,NA,NA,NA,4,NA,NA,2,English,NA,NA,NA,Durham,NC,27703,1,Y,NA,NA
363,4,4,3,3,3,3,4,4,2,1,2,2,3,NA,3,2,3,NA,3,2,2,3,4,3,3,2,6,2,1,1,NA,2,NA,NA,NA,NA,2,English,NA,NA,4,Durham,NC,27703,NA,N,-78755000,35932000
364,3,3,3,4,4,4,4,3,2,1,2,NA,NA,NA,4,4,5,5,5,5,4,4,4,4,4,2,16,1,2,2,NA,NA,NA,4,NA,NA,2,English,NA,NA,3,Durham,NC,27704,2,Y,-78898000,36044000
365,4,4,4,2,4,4,4,4,2,1,2,2,3,NA,2,5,5,4,4,NA,2,4,4,4,4,2,65,5,2,1,1,NA,NA,NA,NA,NA,2,English,NA,NA,2,Durham,NC,27707,4,Y,-78930000,35963000
366,NA,4,2,1,1,NA,4,1,2,1,2,NA,NA,NA,3,4,4,4,4,NA,NA,4,4,4,3,2,62,4,1,1,NA,2,NA,NA,NA,NA,2,English,NA,NA,NA,Durham,NC,27704,NA,N,-78777000,36029000
367,4,NA,4,3,4,4,4,4,2,1,2,2,2,NA,3,4,5,NA,4,5,3,5,5,NA,4,2,51,4,2,1,NA,2,NA,NA,NA,NA,2,English,NA,NA,4,Durham,NC,27707,3,Y,-78965000,35948000
368,4,4,4,2,3,3,4,4,2,1,1,2,2,2,3,3,4,NA,4,2,2,4,4,3,3,2,17,5,2,1,NA,2,NA,NA,NA,NA,2,English,NA,NA,2,Durham,NC,27707,3,Y,-78934000,35951000
369,4,4,5,4,5,5,5,3,2,2,2,4,3,4,4,5,5,4,4,4,2,4,5,3,4,2,15,3,1,1,NA,2,NA,NA,NA,NA,1,English,NA,NA,4,Durham,NC,27705,2,Y,-78949000,36053000
370,3,4,5,5,2,4,5,5,2,1,2,4,2,NA,2,5,5,NA,4,NA,NA,5,5,4,3,2,16,5,2,1,NA,2,NA,NA,NA,NA,2,English,NA,NA,NA,Durham,NC,27705,2,Y,-78965000,36036000
371,4,4,2,4,2,4,4,4,NA,NA,2,2,NA,NA,2,3,4,4,4,4,4,4,4,5,5,2,21,3,2,2,NA,NA,NA,NA,5,Hispanic,1,English,NA,NA,2,Durham,NC,27705,2,Y,-78926000,36031000
372,4,4,4,4,4,5,5,5,2,1,2,4,4,NA,4,5,5,5,5,5,5,5,5,5,5,2,52,4,1,1,NA,2,NA,NA,NA,NA,2,English,NA,NA,4,Durham,NC,27705,3,Y,-78951000,35979000
373,4,4,4,NA,3,4,5,4,2,NA,2,3,NA,NA,NA,4,5,5,5,5,4,5,5,5,5,2,52,3,2,2,NA,NA,NA,4,NA,NA,2,English,NA,NA,3,Durham,NC,27704,2,Y,-78899000,36065000
374,2,4,2,3,3,3,4,2,2,1,1,2,3,NA,2,5,3,5,3,2,2,3,3,1,1,2,35,3,2,1,NA,2,NA,NA,NA,NA,2,English,NA,NA,4,Durham,NC,27712,2,Y,-78916000,36095000
375,3,3,3,4,4,4,3,4,2,1,2,3,NA,NA,3,2,3,5,2,4,3,3,4,4,4,2,10,1,2,1,NA,2,NA,NA,NA,NA,1,English,NA,NA,3,Durham,NC,27703,1,Y,-78865000,35985000
376,NA,NA,1,1,1,1,4,2,NA,NA,1,NA,NA,NA,3,5,NA,NA,NA,NA,NA,NA,NA,NA,NA,2,NA,NA,2,2,NA,NA,NA,NA,5,American Caucasian,2,English,NA,NA,NA,Durham,NC,27704,NA,N,-78787000,35997000
377,3,3,2,2,2,1,3,3,1,2,1,1,1,NA,1,NA,4,3,2,2,1,3,2,3,2,2,32,4,1,1,NA,NA,NA,4,NA,NA,2,English,NA,NA,1,Durham,NC,27707,4,Y,-78921000,35968000
378,4,4,4,5,5,5,5,5,2,1,2,4,NA,NA,5,5,5,3,4,4,2,3,5,NA,5,2,5,1,1,1,NA,2,NA,NA,NA,NA,2,English,NA,NA,4,Durham,NC,27713,4,Y,-78920000,35887000
379,3,3,2,2,3,3,4,3,2,1,2,3,3,3,2,3,4,4,3,3,3,2,3,4,2,2,32,4,2,1,NA,2,NA,NA,NA,NA,1,English,NA,NA,3,Durham,NC,27707,3,Y,-78964000,35943000
380,4,4,3,4,2,3,4,3,2,1,2,4,4,NA,4,5,4,4,4,4,3,4,4,4,3,2,51,3,1,1,NA,2,NA,NA,NA,NA,2,English,NA,NA,4,Durham,NC,27713,NA,N,-78928000,35887000
381,5,5,5,4,5,5,5,4,2,1,2,1,1,1,2,3,4,4,3,3,NA,4,3,3,3,2,13,3,2,1,NA,2,NA,NA,NA,NA,1,Spanish,NA,No needs,4,Durham,NC,27705,3,Y,-78988000,35980000
382,4,3,4,3,3,3,3,3,1,2,2,3,3,3,2,3,3,4,3,2,1,4,3,3,3,2,41,2,1,2,NA,2,NA,NA,NA,NA,2,English,NA,NA,NA,Durham,NC,27705,2,Y,-78927000,36039000
383,3,3,4,4,3,4,5,3,2,1,2,4,4,NA,3,5,4,4,NA,NA,NA,4,3,3,3,2,20,4,1,1,NA,NA,NA,4,NA,NA,2,English,NA,NA,4,Durham,NC,27705,3,Y,-78993000,35972000
384,4,4,4,2,4,4,2,2,NA,2,1,3,NA,NA,1,1,5,5,5,5,5,5,5,5,3,2,64,4,2,1,NA,NA,NA,4,NA,NA,2,English,NA,NA,4,Durham,NC,27704,2,Y,-78888000,36053000
385,3,3,2,3,3,3,4,2,NA,NA,NA,NA,NA,4,2,2,NA,2,1,2,2,2,2,2,2,2,10,5,1,1,NA,2,NA,NA,NA,NA,2,English,NA,NA,1,Durham,NC,27703,1,Y,-78823000,35993000
386,3,3,3,3,3,3,3,3,1,NA,1,3,NA,NA,2,3,4,4,3,4,4,4,4,3,3,2,27,3,2,1,NA,NA,NA,4,NA,NA,2,English,NA,NA,1,Durham,NC,27705,2,Y,-78931000,36049000
387,4,4,5,5,5,5,4,4,1,1,2,3,3,3,3,5,5,5,5,5,4,NA,4,4,5,2,20,1,2,1,NA,NA,NA,4,NA,NA,2,English,NA,NA,4,Durham,NC,27705,3,Y,-78965000,36015000
388,NA,2,3,3,3,3,2,NA,2,2,2,2,1,NA,2,1,2,4,4,1,1,3,3,NA,3,2,30,3,1,1,NA,2,NA,NA,NA,NA,2,English,NA,NA,2,Durham,NC,27703,1,Y,-78839000,35965000
389,4,4,3,3,3,3,4,3,1,1,2,4,3,NA,3,3,4,5,3,3,4,3,3,3,NA,2,55,5,2,1,NA,2,NA,NA,NA,NA,2,English,NA,NA,4,Durham,NC,27705,2,Y,-78928000,36049000
390,3,3,4,3,4,4,4,3,2,1,2,4,NA,NA,3,4,4,4,4,4,3,NA,4,NA,4,2,12,2,1,2,1,NA,NA,NA,NA,NA,2,English,NA,NA,3,Durham,NC,27705,2,Y,-78928000,36020000
391,2,3,2,1,1,3,3,1,1,1,1,3,3,3,2,3,4,4,4,4,2,2,4,4,1,2,42,2,1,2,NA,2,NA,NA,NA,NA,2,English,NA,NA,2,Durham,NC,27705,2,Y,NA,NA
392,4,4,4,2,3,4,5,3,2,1,NA,2,3,NA,3,4,5,4,4,4,3,3,4,3,3,2,12,3,1,1,NA,2,NA,NA,NA,NA,2,English,NA,NA,3,Durham,NC,27705,2,Y,-78978000,36045000
393,3,3,2,2,1,1,4,1,2,1,2,4,4,NA,3,4,3,3,3,2,2,1,1,1,1,2,30,3,2,1,NA,NA,NA,4,NA,NA,2,English,NA,NA,3,Durham,NC,27704,2,Y,-78837000,36053000
394,4,4,2,3,4,3,4,3,1,1,2,2,NA,2,NA,4,4,3,4,3,3,3,2,NA,4,2,10,5,2,2,NA,2,NA,NA,NA,NA,2,English,NA,NA,1,Durham,NC,27707,NA,N,-79001000,35945000
395,2,3,2,1,2,2,3,1,NA,NA,NA,2,NA,NA,1,NA,2,3,1,1,1,1,2,2,1,2,54,3,2,1,NA,2,NA,NA,NA,NA,2,English,NA,NA,NA,Durham,NC,27704,NA,N,-78801000,36029000
396,4,NA,4,2,5,5,5,4,1,1,2,4,2,NA,4,5,5,5,4,4,2,5,5,5,5,2,42,3,2,1,NA,2,NA,NA,NA,NA,2,English,NA,NA,2,Durham,NC,27701,1,Y,NA,NA
397,3,3,2,3,3,3,3,3,NA,NA,1,3,NA,NA,2,2,4,4,4,3,NA,4,4,NA,3,1,55,4,2,1,NA,2,NA,NA,NA,NA,2,English,NA,NA,2,Durham,NC,27704,1,Y,-78861000,36016000
398,NA,NA,4,4,4,4,5,4,2,2,2,4,NA,NA,2,4,5,5,5,5,4,5,5,NA,4,2,30,5,2,2,NA,NA,NA,4,NA,NA,2,English,NA,NA,2,Durham,NC,27705,2,Y,-78977000,36038000
399,4,4,3,3,4,4,5,4,2,1,2,2,2,3,2,3,5,4,3,3,3,4,4,4,3,2,35,5,1,1,NA,NA,NA,4,NA,NA,2,English,NA,NA,3,Durham,NC,27703,1,Y,-78830000,35993000
400,4,4,4,4,4,4,5,4,1,1,2,3,NA,4,2,4,5,4,3,NA,NA,NA,5,5,4,2,4,2,2,1,NA,2,NA,NA,NA,NA,2,English,NA,NA,NA,Durham,NC,27703,4,Y,-78817000,35925000
401,4,4,4,3,4,4,4,3,1,2,2,3,3,3,4,4,4,4,4,4,4,4,4,4,4,2,43,4,2,1,NA,NA,NA,4,NA,NA,2,English,NA,NA,1,Durham,NC,27703,NA,N,-78809000,35991000
402,4,4,4,3,4,4,4,2,2,1,2,4,2,3,4,5,4,NA,3,4,3,4,4,3,4,2,58,4,2,1,NA,2,NA,NA,NA,NA,2,English,NA,NA,3,Durham,NC,27705,3,Y,-78941000,35976000
403,3,3,5,4,4,4,4,5,1,1,2,5,4,3,3,4,4,4,4,3,2,1,3,4,4,2,1,1,1,1,NA,2,NA,NA,NA,NA,1,English,NA,NA,NA,Durham,NC,27701,3,Y,-78916000,35994000
404,4,4,4,4,4,4,4,4,1,1,2,4,5,3,3,4,3,3,4,3,2,3,4,3,4,2,1,2,1,2,NA,2,NA,NA,NA,NA,2,English,NA,NA,NA,Durham,NC,27701,2,Y,-78901000,36006000
405,5,NA,4,1,2,4,5,2,2,2,1,5,5,3,5,4,4,4,5,NA,1,1,5,3,3,1,5,1,1,1,NA,2,NA,NA,NA,NA,1,English,NA,NA,2,Durham,NC,27705,2,Y,-78935000,36041000
406,3,3,3,2,2,3,2,2,2,2,2,NA,NA,NA,2,NA,4,NA,4,4,4,4,4,4,3,2,72,5,1,1,NA,2,NA,NA,NA,NA,1,English,NA,NA,1,Durham,NC,27705,2,Y,-78928000,36032000
407,4,4,1,3,2,3,5,NA,2,1,2,4,5,5,4,3,3,2,2,2,3,3,5,5,4,2,1,1,2,2,NA,NA,NA,NA,5,Latino,1,English,NA,NA,1,Durham,NC,27703,1,Y,-78849000,35996000
408,3,3,4,3,4,4,5,3,2,1,2,NA,NA,NA,3,5,5,5,5,5,4,4,4,4,4,2,8,2,2,1,NA,NA,NA,4,NA,NA,2,English,NA,NA,NA,Durham,NC,27713,3,Y,-78932000,35942000
409,4,4,3,1,4,4,4,4,2,1,2,4,4,NA,3,4,4,4,3,3,3,4,4,3,4,2,13,1,2,1,NA,2,NA,NA,NA,NA,2,English,NA,NA,4,Durham,NC,27713,3,Y,-78929000,35945000
410,NA,NA,4,2,4,4,4,5,NA,1,2,4,4,2,4,5,5,4,5,NA,NA,NA,NA,NA,4,2,2,1,2,2,NA,NA,NA,4,NA,NA,2,English,NA,NA,3,Durham,NC,27701,1,Y,-78894000,36001000
411,4,NA,4,4,5,4,3,NA,2,1,2,5,5,NA,4,5,4,NA,3,NA,NA,2,5,5,5,1,0,1,2,2,NA,2,NA,NA,NA,NA,2,English,NA,NA,1,Durham,NC,27701,2,Y,-78902000,36018000
412,3,3,4,2,1,3,4,2,2,1,2,NA,3,NA,3,5,4,4,3,NA,NA,3,4,4,3,1,20,5,1,1,NA,NA,NA,4,NA,NA,2,English,NA,NA,2,Durham,NC,27703,NA,N,-78760000,35947000
413,4,4,4,4,4,5,5,5,2,1,2,3,NA,NA,4,5,4,4,4,4,1,4,4,4,3,2,4,1,2,1,NA,2,NA,NA,NA,NA,2,English,NA,NA,NA,Durham,NC,27703,1,Y,-78789000,35968000
414,2,3,5,1,4,5,5,4,2,1,2,4,4,NA,2,4,5,5,5,5,5,5,5,5,5,2,8,1,1,1,NA,NA,NA,4,NA,NA,2,English,NA,NA,4,Durham,NC,27701,1,Y,-78889000,35995000
415,4,4,2,3,2,3,2,3,1,1,2,2,2,NA,3,3,3,4,3,3,2,4,4,3,3,2,5,1,2,2,1,NA,NA,NA,5,MIXED,1,English,NA,NA,1,Durham,NC,27713,4,Y,-78893000,35953000
416,3,3,4,3,3,3,5,4,2,1,2,NA,NA,NA,4,4,4,4,4,4,5,4,5,3,3,2,56,4,2,2,NA,2,NA,NA,NA,NA,2,English,NA,NA,3,Bahama,NC,27503,NA,N,-78881000,36159000
417,4,4,4,4,4,4,3,3,1,1,1,4,NA,3,1,4,NA,NA,NA,NA,NA,NA,NA,NA,NA,2,NA,NA,1,2,NA,NA,NA,4,NA,NA,2,NA,NA,NA,NA,Durham,NC,27707,4,Y,-78879000,35961000
418,NA,NA,NA,NA,NA,NA,NA,NA,NA,NA,NA,NA,NA,NA,NA,NA,5,5,5,5,5,5,5,5,5,2,42,5,1,1,NA,2,NA,NA,NA,NA,2,English,NA,NA,3,Durham,NC,27707,3,Y,-78934000,35948000
419,5,5,5,4,4,4,4,5,1,2,2,4,4,4,4,1,5,4,4,5,4,3,5,4,5,2,14,3,1,2,NA,NA,NA,4,NA,NA,2,English,NA,NA,1,Durham,NC,27705,2,Y,-78913000,36029000
420,5,4,4,5,4,4,5,4,2,1,2,2,NA,NA,3,5,5,5,5,2,4,5,4,5,3,2,31,1,2,1,NA,2,NA,NA,NA,NA,2,English,NA,NA,4,Durham,NC,27712,2,Y,-78959000,36046000
421,4,4,4,4,4,4,4,3,NA,NA,NA,2,NA,NA,2,2,2,4,NA,NA,NA,2,NA,NA,2,2,59,4,1,1,NA,2,NA,NA,NA,NA,2,English,NA,NA,2,Durham,NC,27707,3,Y,-78922000,35985000
422,2,2,3,1,2,4,1,2,1,1,2,4,4,3,1,4,NA,NA,NA,NA,NA,NA,NA,NA,NA,1,30,3,1,1,NA,NA,NA,NA,NA,NA,2,English,NA,NA,NA,Durham,NC,27704,2,Y,-78924000,36058000
423,NA,NA,NA,NA,NA,NA,NA,NA,NA,NA,NA,NA,NA,NA,NA,NA,5,4,4,4,3,4,4,3,4,NA,NA,1,2,2,NA,2,NA,NA,NA,NA,2,English,NA,NA,NA,Rougemont,NC,27572,NA,N,-78923000,36192000
424,3,3,4,2,4,4,4,3,2,1,2,2,3,NA,4,3,5,5,4,4,3,4,3,4,4,2,41,NA,1,1,NA,2,NA,NA,NA,NA,1,English,NA,NA,2,Durham,NC,27705,2,Y,-78965000,36041000
425,3,1,2,4,1,3,4,1,1,1,2,2,2,3,2,4,3,3,3,3,2,1,1,3,2,2,35,4,1,2,NA,2,NA,NA,NA,NA,1,Spanish,NA,NA,2,Rougemont,NC,27572,NA,N,-78906000,36208000
426,4,4,4,4,4,4,5,4,2,1,2,4,NA,NA,4,5,4,4,4,4,3,1,4,3,3,2,13,2,1,1,NA,NA,NA,4,NA,NA,2,English,NA,NA,4,Durham,NC,27703,1,Y,NA,NA
427,4,4,4,2,4,4,4,2,2,1,2,4,2,NA,4,3,4,4,3,4,3,4,4,3,3,2,7,3,2,1,NA,NA,NA,4,NA,NA,2,English,NA,NA,4,Durham,NC,27703,1,Y,-78801000,35963000
428,2,2,3,3,2,3,3,1,1,1,1,2,NA,NA,2,2,4,4,2,2,1,3,3,NA,3,2,15,2,2,1,NA,NA,NA,4,NA,NA,2,English,NA,NA,4,Durham,NC,27704,2,Y,-78918000,36059000
429,4,4,4,4,5,5,5,4,2,1,1,4,NA,NA,2,5,5,NA,5,4,4,5,5,NA,4,2,42,4,2,1,NA,2,NA,NA,NA,NA,2,English,NA,NA,1,Durham,NC,27701,2,Y,-78890000,36009000
430,4,4,3,2,3,4,3,2,1,1,1,2,NA,NA,1,4,5,5,4,NA,NA,3,4,4,5,1,5,2,2,2,NA,2,NA,NA,NA,NA,2,English,NA,NA,1,Durham,NC,27701,4,Y,-78897000,35978000
431,3,3,2,2,3,3,4,3,2,NA,NA,NA,NA,NA,2,4,4,NA,NA,NA,NA,4,NA,NA,4,2,6,NA,1,1,NA,2,NA,NA,NA,NA,2,English,NA,NA,NA,Durham,NC,27703,1,Y,-78784000,35934000
432,4,4,4,5,4,4,4,4,NA,1,NA,4,4,4,5,4,4,4,4,4,4,4,4,4,4,1,19,1,1,1,NA,NA,NA,NA,5,Hispanic,1,Spanish,NA,NA,1,Durham,NC,27703,NA,N,-78826000,35973000
433,2,2,2,4,1,2,1,3,NA,NA,NA,2,NA,NA,4,1,2,NA,2,2,2,2,2,NA,1,2,60,5,1,1,NA,2,NA,NA,NA,NA,2,English,NA,NA,NA,Durham,NC,27703,1,Y,NA,NA
434,4,4,4,4,4,4,4,3,2,1,1,NA,NA,4,4,4,4,4,4,4,4,4,4,4,4,2,25,3,1,1,NA,2,NA,NA,NA,NA,1,English,NA,NA,2,Durham,NC,27701,2,Y,-78903000,36018000
435,4,4,4,4,3,3,4,4,2,1,2,4,NA,NA,4,4,4,4,4,4,NA,4,4,NA,3,2,10,NA,1,1,NA,NA,NA,4,NA,NA,2,NA,NA,NA,NA,Durham,NC,27703,1,Y,-78825000,35950000
436,4,4,4,4,4,4,4,4,NA,NA,NA,NA,NA,NA,NA,NA,3,3,3,3,3,3,3,3,4,2,60,5,2,2,NA,2,NA,NA,NA,NA,2,English,NA,NA,2,Durham,NC,27705,2,Y,-78935000,36038000
437,4,5,2,2,3,4,5,2,2,2,2,2,NA,2,3,4,4,NA,3,3,3,4,4,5,4,2,7,5,1,1,NA,2,NA,NA,NA,NA,2,English,NA,NA,4,Durham,NC,27703,1,Y,-78785000,35933000
438,3,3,3,2,3,2,3,3,2,1,2,4,3,NA,2,4,4,3,4,3,2,3,4,4,3,2,59,4,2,1,NA,2,NA,NA,NA,NA,2,English,NA,NA,NA,Durham,NC,27707,4,Y,-78928000,35963000
439,4,4,4,4,4,4,4,4,2,NA,2,3,4,3,4,4,4,4,4,4,4,4,4,4,4,2,37,3,2,1,NA,NA,NA,4,NA,NA,2,English,NA,NA,2,Durham,NC,27707,3,Y,-78931000,35953000
440,3,4,2,3,3,3,4,NA,1,2,2,2,1,2,5,4,5,4,4,5,5,5,5,5,3,1,26,3,2,2,NA,NA,NA,4,NA,NA,2,English,NA,NA,3,Durham,NC,27704,2,Y,-78897000,36068000
441,4,4,3,4,4,4,4,4,1,1,2,3,3,3,3,3,4,4,4,4,4,4,4,4,4,2,35,3,1,2,NA,NA,NA,4,NA,NA,2,English,NA,NA,2,Durham,NC,27703,1,Y,-78860000,35975000
442,4,4,5,4,5,5,5,4,2,1,2,4,3,NA,4,5,5,5,4,5,3,4,4,4,5,2,38,3,2,1,NA,2,NA,NA,NA,NA,2,English,NA,NA,NA,Durham,NC,27705,2,Y,-78944000,36049000
443,4,3,4,1,4,3,4,3,2,1,2,3,3,2,1,5,4,4,4,4,3,4,4,NA,NA,2,42,5,2,1,NA,2,NA,NA,NA,NA,2,English,NA,NA,4,Durham,NC,27705,3,Y,-78964000,35978000
444,5,5,5,5,5,5,5,5,2,1,2,5,2,NA,2,5,5,5,5,5,4,5,5,5,5,2,23,4,1,1,NA,2,NA,NA,NA,NA,2,English,NA,NA,3,Durham,NC,27705,2,Y,-78932000,36016000
445,NA,4,4,4,4,4,4,3,2,1,2,NA,NA,NA,NA,NA,4,4,4,4,3,4,4,NA,4,2,52,4,2,2,NA,2,NA,NA,NA,NA,2,English,NA,NA,2,Bahama,NC,27503,NA,N,-78883000,36162000
446,4,4,4,3,4,4,4,3,1,NA,1,3,3,3,3,3,5,4,5,5,5,4,5,5,4,2,20,2,2,2,NA,NA,NA,4,NA,NA,2,English,NA,NA,2,Rougemont,NC,27572,NA,N,-78878000,36219000
447,2,3,4,4,4,4,4,3,2,1,2,NA,NA,NA,4,5,4,3,3,NA,NA,4,4,3,4,2,6,5,1,1,NA,NA,NA,4,NA,NA,2,English,NA,NA,3,Durham,NC,27703,1,Y,-78786000,35928000
448,2,2,2,2,2,2,1,1,1,2,1,2,1,NA,3,1,4,5,2,2,1,2,4,4,3,2,8,1,1,2,NA,NA,3,4,NA,NA,2,English,NA,NA,3,Durham,NC,27707,3,Y,-78975000,35959000
449,4,4,4,5,2,3,2,4,2,1,1,4,NA,4,4,3,3,4,2,3,2,2,3,4,5,2,18,2,2,1,NA,NA,NA,4,NA,NA,2,English,NA,NA,4,Durham,NC,27703,1,Y,-78827000,35993000
450,3,3,3,3,3,3,2,3,1,1,1,2,NA,NA,3,2,4,4,3,3,3,3,4,3,4,2,27,2,1,2,NA,NA,3,4,NA,NA,2,English,NA,NA,1,Durham,NC,27703,1,Y,-78812000,35999000
451,4,4,4,4,4,4,4,4,1,1,2,3,3,NA,5,5,4,4,4,4,3,NA,4,3,4,2,5,2,2,1,NA,NA,NA,4,NA,NA,2,English,NA,NA,4,Durham,NC,27703,1,Y,-78823000,35986000
452,2,3,2,2,3,4,4,2,NA,1,2,2,2,3,4,4,4,4,3,3,3,NA,4,4,4,2,13,2,1,1,NA,2,NA,NA,NA,NA,2,English,NA,NA,2,Durham,NC,27701,2,Y,-78895000,36007000
453,4,4,2,4,2,4,4,2,NA,NA,NA,NA,NA,NA,NA,NA,NA,NA,NA,NA,NA,NA,NA,NA,NA,NA,NA,NA,NA,NA,NA,NA,NA,4,NA,NA,2,NA,NA,NA,NA,Durham,NC,27703,1,Y,-78836000,36005000
454,3,3,3,2,3,2,4,2,2,2,1,2,3,2,2,4,4,4,2,4,4,4,4,4,4,2,36,2,2,1,NA,NA,NA,4,NA,NA,2,English,NA,NA,3,Durham,NC,27703,1,Y,-78788000,35967000
455,5,5,NA,5,5,5,5,4,2,1,2,4,4,NA,2,5,5,5,5,NA,NA,5,5,5,5,2,10,3,1,1,NA,2,NA,NA,NA,NA,NA,NA,NA,NA,NA,Durham,NC,27705,3,Y,-78994000,35973000
456,4,4,4,4,4,4,4,2,2,1,1,3,3,3,2,3,4,4,4,4,2,4,4,4,4,2,34,5,2,2,NA,2,NA,NA,NA,NA,1,Spanish,NA,NA,2,Durham,NC,27705,3,Y,-78990000,35981000
457,4,4,4,4,4,4,5,3,2,NA,2,4,4,3,4,4,5,NA,4,5,5,5,5,5,5,2,37,5,2,1,NA,NA,NA,4,NA,NA,2,English,NA,NA,4,Durham,NC,27707,4,Y,-78910000,35968000
458,3,3,4,3,2,3,4,2,NA,NA,NA,NA,NA,NA,NA,4,4,NA,NA,NA,NA,3,3,NA,1,2,50,5,1,1,NA,2,NA,NA,NA,NA,2,English,NA,NA,NA,Durham,NC,27712,2,Y,-78854000,36130000
459,4,NA,3,3,4,4,5,5,2,1,2,2,2,NA,2,5,5,NA,4,5,4,5,4,NA,4,2,36,4,1,1,NA,2,NA,NA,NA,NA,1,English,NA,NA,2,Durham,NC,27701,1,Y,NA,NA
460,4,4,5,NA,5,5,4,NA,NA,NA,NA,NA,NA,NA,NA,NA,5,NA,5,NA,4,5,5,NA,5,2,64,4,2,1,1,NA,NA,NA,NA,NA,2,English,NA,NA,NA,Durham,NC,27707,4,Y,-78891000,35967000
461,4,4,4,3,5,5,5,4,2,1,2,4,3,4,5,4,4,4,2,4,4,4,4,4,4,2,32,4,2,1,NA,2,NA,NA,NA,NA,1,English,NA,NA,4,Durham,NC,27707,3,Y,-78983000,35970000
462,2,2,2,3,1,NA,NA,NA,1,2,1,1,1,1,1,1,1,1,1,1,1,1,1,1,1,2,20,3,1,2,1,NA,NA,NA,NA,NA,NA,NA,NA,NA,NA,Durham,NC,27705,2,Y,-78973000,36044000
463,4,4,4,4,4,5,5,4,2,1,2,3,3,3,3,5,5,5,4,5,4,5,5,3,5,2,46,4,2,1,NA,2,NA,NA,NA,NA,2,English,NA,NA,3,Durham,NC,27705,3,Y,-78969000,36017000
464,4,4,4,1,4,4,4,2,1,2,2,3,2,NA,1,3,5,5,4,NA,NA,3,4,4,3,2,10,2,2,2,NA,2,NA,NA,NA,NA,2,English,NA,NA,3,Durham,NC,27705,3,Y,-78973000,36026000
465,5,5,4,4,3,5,5,5,2,1,2,3,1,3,5,4,5,5,5,5,5,5,5,5,5,2,15,5,1,1,NA,2,NA,NA,NA,NA,2,English,NA,NA,NA,Durham,NC,27707,3,Y,-78932000,35951000
466,4,NA,5,1,4,2,5,3,2,1,2,4,NA,NA,1,5,5,5,5,5,5,5,5,5,5,2,7,4,2,1,NA,2,NA,NA,NA,NA,2,NA,NA,NA,3,Durham,NC,27713,4,Y,-78913000,35920000
467,3,3,4,2,3,3,4,2,2,1,2,2,2,2,3,3,4,3,3,2,2,3,3,3,3,2,60,4,2,1,NA,2,NA,NA,NA,NA,1,English,NA,NA,3,Durham,NC,27705,3,Y,-78979000,36031000
468,5,5,4,5,5,5,4,5,1,1,2,4,NA,NA,4,4,4,4,5,5,5,5,5,5,5,2,29,3,1,1,NA,2,NA,NA,NA,NA,2,English,NA,NA,2,Durham,NC,27707,3,Y,-78949000,35960000
469,3,3,4,2,4,5,4,3,NA,1,2,NA,NA,NA,NA,5,5,5,4,4,2,4,4,NA,4,2,40,4,1,1,NA,NA,NA,4,NA,NA,2,English,NA,NA,NA,Durham,NC,27705,2,Y,-78953000,36044000
470,3,3,3,2,2,3,4,3,NA,NA,NA,NA,NA,NA,1,4,NA,NA,NA,NA,NA,NA,NA,NA,NA,2,NA,NA,NA,NA,NA,NA,NA,NA,NA,NA,NA,NA,NA,NA,NA,Durham,NC,27705,2,Y,-78970000,36039000
471,5,NA,3,3,3,4,5,4,2,1,2,4,NA,NA,4,4,5,5,4,NA,NA,NA,4,4,5,2,20,2,1,1,NA,NA,3,NA,NA,NA,2,English,NA,NA,4,Durham,NC,27707,3,Y,-78912000,35985000
472,2,2,3,3,2,3,4,1,1,2,NA,2,2,3,1,2,2,2,3,1,1,1,2,1,1,2,10,2,1,2,NA,2,NA,NA,NA,NA,2,English,NA,NA,3,Durham,NC,27707,3,Y,-78955000,35925000
473,4,NA,1,4,4,4,5,2,2,1,2,2,3,NA,4,5,5,5,4,3,2,4,3,5,4,2,5,2,1,1,NA,2,NA,NA,NA,NA,2,English,NA,NA,NA,Durham,NC,27705,2,Y,-78954000,36048000
474,3,NA,4,3,4,4,5,4,2,1,2,NA,NA,NA,4,5,5,5,4,4,2,NA,4,NA,NA,2,20,2,2,1,NA,2,NA,NA,NA,NA,2,English,NA,NA,NA,Durham,NC,27705,3,Y,-78984000,35979000
475,3,3,2,NA,1,4,4,2,2,1,2,NA,NA,NA,NA,4,4,4,3,4,2,4,4,NA,3,2,57,5,2,1,NA,2,NA,NA,NA,NA,2,English,NA,NA,NA,Durham,NC,27705,2,Y,-78921000,36041000
476,3,3,3,3,3,3,3,NA,2,1,1,2,NA,1,2,4,3,3,3,4,NA,4,4,NA,1,2,18,1,2,2,NA,NA,NA,4,NA,NA,2,English,NA,NA,3,Durham,NC,27707,4,Y,-78898000,35961000
477,3,3,4,4,4,4,4,3,2,NA,2,2,3,4,4,4,4,4,5,4,4,4,4,5,5,2,10,4,2,2,NA,2,NA,NA,NA,NA,1,English,NA,NA,3,Durham,NC,27705,NA,N,-78979000,36011000
478,4,4,2,2,2,4,4,2,2,1,1,1,NA,NA,1,2,4,3,4,4,1,1,4,1,1,1,17,4,2,1,NA,NA,NA,4,NA,NA,2,English,NA,NA,2,Durham,NC,27703,NA,N,-78754000,35930000
479,4,4,4,4,4,4,4,4,2,1,2,4,4,NA,NA,4,4,4,4,NA,NA,4,4,4,4,2,13,2,1,2,NA,2,NA,NA,NA,NA,2,English,NA,NA,2,Durham,NC,27704,1,Y,-78811000,36017000
480,4,3,4,4,4,4,4,4,2,1,2,5,4,3,4,4,5,5,5,5,5,3,3,5,4,2,25,3,2,1,NA,2,NA,NA,NA,NA,2,English,NA,NA,4,Durham,NC,27701,2,Y,-78906000,36009000
481,3,2,2,2,1,3,3,3,1,NA,NA,NA,NA,NA,NA,NA,3,3,3,3,3,3,3,3,2,2,44,2,2,1,NA,NA,NA,4,NA,NA,2,English,NA,NA,NA,Durham,NC,27703,1,Y,-78832000,36003000
482,3,3,1,1,1,3,4,1,1,1,2,4,4,4,3,5,4,4,4,3,3,2,2,3,2,2,44,2,1,1,NA,NA,NA,4,NA,NA,2,English,NA,NA,4,Durham,NC,27704,1,Y,NA,NA
483,3,3,4,2,3,4,4,4,2,1,1,2,NA,3,2,2,4,NA,4,4,2,4,4,3,2,2,35,5,2,1,NA,NA,NA,4,NA,NA,2,English,NA,NA,1,Durham,NC,27707,4,Y,-78899000,35956000
484,NA,4,3,3,2,2,4,2,2,NA,2,NA,NA,NA,3,3,3,NA,3,3,3,3,3,2,3,2,60,4,1,2,NA,NA,3,NA,NA,NA,2,English,NA,NA,2,Bahama,NC,27503,NA,N,-78872000,36168000
485,3,3,3,3,3,3,4,2,2,2,2,3,2,3,1,5,5,5,5,4,4,5,4,5,5,2,52,3,1,1,NA,NA,NA,4,NA,NA,2,English,NA,NA,4,Durham,NC,27703,4,Y,-78880000,35946000
486,4,4,3,2,1,4,4,4,1,1,2,4,4,3,4,2,4,4,4,4,2,3,4,4,2,2,20,2,1,2,NA,NA,NA,4,NA,NA,2,English,NA,NA,3,Durham,NC,27707,4,Y,-78885000,35959000
487,3,3,3,4,2,2,2,2,1,2,1,3,3,NA,2,2,3,3,3,3,3,3,3,3,3,2,40,4,2,1,NA,NA,NA,4,NA,NA,2,English,NA,NA,3,Durham,NC,27707,4,Y,-78896000,35969000
488,4,4,4,4,4,4,4,3,2,1,2,1,2,1,3,3,4,4,4,4,4,4,4,4,4,2,20,3,1,1,NA,NA,NA,4,NA,NA,2,English,NA,NA,4,Durham,NC,27712,2,Y,-78890000,36077000
489,4,4,4,4,4,4,4,4,2,1,2,NA,NA,NA,4,4,4,4,4,4,4,4,4,4,4,2,50,3,1,1,NA,NA,NA,4,NA,NA,2,English,NA,NA,3,Durham,NC,27712,NA,N,-78966000,36079000
490,3,3,4,1,1,2,3,1,2,1,2,NA,NA,NA,NA,NA,3,3,3,2,2,3,3,3,1,2,45,3,1,1,NA,2,NA,NA,NA,NA,2,English,NA,NA,2,Durham,NC,27712,2,Y,-78945000,36086000
491,2,3,2,4,2,3,3,2,2,1,2,3,3,NA,4,4,4,4,2,NA,NA,NA,3,3,3,2,6,2,2,1,NA,2,NA,NA,NA,NA,2,English,NA,NA,4,Durham,NC,27701,3,Y,-78914000,35994000
492,4,3,4,2,4,5,5,3,2,1,2,2,2,NA,3,4,5,5,4,NA,2,4,NA,NA,4,2,20,4,2,1,NA,2,NA,NA,NA,NA,2,English,NA,NA,2,Durham,NC,27707,3,Y,-78914000,35986000
493,2,2,3,1,2,2,3,2,1,NA,1,NA,NA,NA,2,NA,2,2,1,2,3,1,1,1,2,2,79,5,2,2,NA,2,NA,NA,NA,NA,2,English,NA,NA,1,Durham,NC,27701,1,Y,NA,NA
494,3,3,4,5,3,4,5,1,2,1,2,4,NA,NA,2,5,4,4,4,4,2,4,4,NA,3,2,60,5,2,1,NA,NA,NA,4,NA,NA,2,English,NA,NA,NA,Durham,NC,27712,2,Y,NA,NA
495,2,2,2,2,3,2,1,1,2,1,2,2,2,NA,3,4,2,NA,NA,2,2,2,2,NA,NA,2,13,2,1,1,NA,NA,NA,4,NA,NA,2,English,NA,NA,4,Durham,NC,27703,4,Y,-78859000,35946000
496,4,3,4,NA,4,4,4,3,2,1,1,3,3,NA,2,5,5,4,4,4,4,3,3,3,4,2,16,3,2,1,NA,NA,NA,4,NA,NA,2,English,NA,NA,NA,Durham,NC,27705,3,Y,-78950000,35981000
497,3,4,4,4,4,5,5,4,2,1,2,3,3,NA,3,3,5,NA,NA,NA,NA,5,5,3,4,2,34,5,1,1,NA,NA,NA,4,NA,NA,2,English,NA,NA,2,Durham,NC,27712,NA,N,-78923000,36113000
498,3,4,2,2,3,4,4,2,2,1,2,2,2,2,1,4,5,5,4,4,4,4,4,5,4,2,55,5,1,1,NA,2,NA,NA,NA,NA,2,English,NA,NA,4,Durham,NC,27705,3,Y,-78964000,35991000
499,4,4,4,2,4,4,2,3,2,1,2,4,NA,NA,3,2,4,3,3,4,4,3,4,NA,4,2,4,2,2,1,NA,2,NA,NA,NA,NA,2,English,NA,NA,4,Durham,NC,27701,2,Y,-78893000,36004000
500,4,4,4,2,4,4,4,2,1,2,1,2,3,3,2,4,4,4,4,4,4,4,4,4,4,2,2,1,1,2,NA,2,NA,NA,NA,NA,1,English,NA,NA,4,Durham,NC,27713,4,Y,-78929000,35913000
501,NA,NA,4,4,5,5,5,4,2,1,2,4,4,NA,3,4,4,4,4,4,4,NA,4,4,4,2,7,1,1,1,NA,2,NA,NA,NA,NA,2,English,NA,NA,4,Durham,NC,27713,3,Y,-78929000,35934000
502,4,4,4,4,4,4,4,4,2,1,2,4,3,3,4,4,5,NA,4,4,4,4,4,NA,5,2,14,1,1,2,NA,2,NA,NA,NA,NA,2,English,NA,NA,3,Durham,NC,27705,2,Y,-78917000,36018000
503,4,3,4,4,4,5,4,3,2,2,2,1,1,1,1,4,4,4,4,4,3,4,4,3,4,2,10,3,2,1,1,NA,NA,NA,NA,NA,1,English,NA,NA,3,Durham,NC,27713,4,Y,-78888000,35941000
504,4,2,3,3,3,3,3,3,2,1,2,NA,NA,NA,3,1,4,4,3,NA,4,3,4,4,3,1,15,2,2,2,NA,NA,NA,4,NA,NA,2,English,NA,NA,3,Durham,NC,27703,NA,N,-78800000,35970000
505,4,4,4,3,3,4,4,4,2,1,2,3,3,3,4,4,4,4,4,4,4,4,3,3,3,2,6,4,2,1,NA,2,NA,NA,NA,NA,2,English,NA,NA,3,Durham,NC,27712,2,Y,-78863000,36130000
506,3,4,3,2,4,4,4,2,2,2,1,2,NA,NA,3,3,4,4,4,4,3,4,4,3,3,2,80,5,1,2,NA,2,NA,NA,NA,NA,2,English,NA,NA,3,Durham,NC,27704,NA,N,-78816000,36021000
507,4,4,5,1,4,5,5,4,2,2,1,4,4,4,3,5,5,5,5,5,5,5,4,4,4,1,8,1,3,1,NA,2,NA,NA,NA,NA,2,English,NA,NA,2,Durham,NC,27701,2,Y,-78896000,36007000
508,NA,NA,NA,NA,NA,NA,NA,NA,2,1,2,5,5,NA,5,5,5,5,5,5,5,5,5,5,5,2,38,5,1,1,NA,2,NA,NA,NA,NA,2,English,NA,NA,NA,Durham,NC,27713,4,Y,-78918000,35917000
509,NA,4,2,3,3,3,4,2,2,1,2,5,3,3,3,5,5,3,3,5,5,5,4,3,5,2,NA,5,1,1,NA,NA,NA,4,NA,NA,2,English,NA,NA,2,Durham,NC,27703,NA,N,-78807000,35992000
510,2,2,3,3,3,2,2,2,1,2,1,2,2,NA,NA,4,4,4,4,3,3,4,4,4,3,2,21,1,2,2,NA,NA,NA,4,NA,NA,2,English,NA,NA,2,Durham,NC,27704,2,Y,-78883000,36029000
511,1,2,1,1,1,1,2,1,2,1,2,5,5,5,1,5,1,1,1,1,1,1,1,1,1,2,35,3,1,2,NA,2,NA,NA,NA,NA,2,English,NA,NA,2,Durham,NC,27712,NA,N,-78934000,36135000
512,4,3,4,2,2,2,2,2,2,2,1,NA,NA,NA,2,3,4,2,3,2,2,2,3,3,2,2,51,4,2,1,NA,NA,NA,4,NA,NA,2,English,NA,NA,1,Durham,NC,27703,1,Y,-78869000,35984000
513,3,3,2,3,4,4,5,3,2,1,2,3,NA,NA,4,5,4,NA,4,NA,NA,5,4,NA,4,2,6,4,2,1,NA,NA,NA,4,NA,NA,2,English,NA,NA,NA,Durham,NC,27713,3,Y,-78946000,35881000
514,3,4,4,4,2,3,4,4,1,1,1,3,3,3,4,4,5,4,4,4,2,3,4,4,4,2,20,2,2,1,NA,2,NA,NA,NA,NA,2,English,NA,NA,1,Durham,NC,27712,NA,N,-78964000,36084000
515,5,5,5,5,5,5,5,5,2,1,2,5,5,3,2,5,5,5,5,5,3,5,5,5,5,2,7,1,1,1,NA,NA,NA,4,NA,NA,2,English,NA,NA,3,Durham,NC,27713,4,Y,-78922000,35924000
516,3,3,4,3,2,3,4,3,2,1,2,3,NA,3,3,2,3,3,3,3,3,4,4,NA,3,2,1,5,1,1,NA,2,NA,NA,NA,NA,2,English,NA,NA,3,Durham,NC,27712,NA,N,-78898000,36094000
517,4,3,4,3,3,4,5,1,2,1,2,3,NA,3,3,3,5,3,3,4,4,5,4,3,3,1,5,5,2,2,NA,NA,NA,4,NA,NA,2,English,NA,NA,2,Durham,NC,27704,1,Y,-78817000,36014000
518,3,3,1,1,1,3,3,1,1,2,1,3,NA,NA,1,3,4,4,4,3,3,4,4,NA,1,2,40,3,2,1,NA,NA,NA,4,NA,NA,2,English,NA,NA,NA,Durham,NC,27703,1,Y,-78845000,35984000
519,4,4,4,4,2,4,4,1,2,1,2,2,2,4,2,4,2,4,2,3,2,3,2,4,2,2,29,2,2,1,NA,2,NA,NA,NA,NA,2,English,NA,NA,3,Durham,NC,27712,NA,N,-78890000,36088000
520,3,3,3,3,3,3,3,3,1,2,1,1,3,1,3,4,4,4,4,4,4,2,5,5,4,2,43,2,1,2,NA,NA,NA,4,NA,NA,2,English,NA,NA,2,Durham,NC,27705,2,Y,-78931000,36037000
521,4,4,4,4,5,5,5,5,1,1,2,4,4,4,4,5,5,5,4,4,3,3,5,4,5,2,3,1,1,1,NA,2,NA,NA,NA,NA,1,English,NA,NA,2,Durham,NC,27713,3,Y,-78936000,35924000
522,4,4,4,4,4,4,4,3,2,1,2,2,3,NA,4,5,4,4,4,4,4,4,4,4,4,2,13,NA,1,1,NA,2,NA,NA,NA,NA,2,English,NA,NA,NA,Durham,NC,27713,NA,N,-78957000,35893000
523,4,4,4,4,4,4,4,4,1,2,1,NA,NA,NA,4,NA,5,5,5,5,5,5,5,5,5,2,50,3,2,1,NA,2,NA,NA,NA,NA,2,English,NA,NA,1,Rougemont,NC,27572,NA,N,-78826000,36234000
524,NA,NA,4,4,4,5,5,3,2,1,2,4,3,NA,3,4,5,5,5,NA,NA,NA,4,4,4,1,15,1,2,1,NA,2,NA,NA,NA,NA,2,English,NA,NA,4,Durham,NC,27712,NA,N,-78960000,36086000
525,4,4,4,4,4,4,4,3,1,1,1,NA,NA,NA,2,4,4,NA,4,4,4,4,4,4,4,2,25,5,1,2,NA,NA,NA,4,NA,NA,2,English,NA,NA,2,Durham,NC,27707,4,Y,-78906000,35975000
526,4,4,3,NA,3,3,3,3,NA,NA,NA,4,NA,NA,4,3,3,3,3,3,4,NA,NA,4,NA,2,13,1,2,2,NA,NA,NA,NA,NA,NA,1,Spanish,NA,NA,1,Durham,NC,27704,2,Y,-78869000,36035000
527,3,3,2,2,3,3,2,2,2,NA,1,2,4,NA,4,3,4,4,4,3,3,3,4,4,5,1,38,3,1,2,1,NA,NA,NA,NA,NA,2,English,NA,NA,1,Durham,NC,27704,2,Y,-78881000,36032000
528,4,4,4,4,4,5,5,4,2,1,2,5,NA,3,4,5,5,5,5,NA,NA,NA,4,NA,4,2,5,1,1,1,NA,2,NA,NA,NA,NA,2,English,NA,NA,3,Durham,NC,27713,4,Y,-78914000,35940000
529,5,NA,4,4,4,5,5,4,2,1,2,3,4,NA,4,2,5,NA,5,4,3,5,4,4,5,2,15,4,1,1,NA,NA,NA,4,NA,NA,2,English,NA,NA,4,Durham,NC,27707,3,Y,-78980000,35971000
530,2,2,1,NA,1,1,4,1,NA,NA,1,3,4,4,1,4,1,1,1,1,1,1,1,1,1,2,3,3,2,1,NA,2,3,NA,NA,NA,2,English,NA,NA,NA,Durham,NC,27713,4,Y,-78917000,35919000
531,4,3,4,4,2,4,5,3,2,1,2,3,3,NA,4,5,NA,NA,NA,NA,NA,NA,NA,NA,NA,2,20,3,2,1,NA,NA,NA,4,NA,NA,2,English,NA,NA,4,Durham,NC,27713,4,Y,-78918000,35886000
532,3,NA,3,3,2,2,4,3,1,NA,2,NA,NA,NA,3,5,5,NA,4,NA,3,5,4,NA,4,2,18,5,2,2,NA,NA,NA,4,5,Hispanic,1,English,NA,NA,2,Durham,NC,27703,4,Y,-78820000,35931000
533,4,4,3,3,4,4,4,4,2,1,2,2,3,NA,4,5,4,4,4,4,4,4,4,4,4,2,53,4,1,2,NA,NA,NA,4,NA,NA,2,English,NA,NA,2,Durham,NC,27713,4,Y,-78928000,35895000
534,4,4,2,3,2,NA,4,2,1,1,2,2,NA,NA,3,2,5,4,3,2,NA,1,2,NA,3,2,0,3,2,2,NA,2,NA,NA,NA,NA,2,English,NA,NA,2,Durham,NC,27707,NA,N,-78994000,35940000
535,3,3,4,3,3,3,3,2,1,1,2,3,3,2,2,3,4,5,3,3,2,3,4,3,3,2,30,3,1,1,NA,2,NA,NA,NA,NA,2,English,NA,NA,2,Durham,NC,27707,3,Y,-78962000,35955000
536,3,3,3,2,4,4,4,4,2,1,2,1,1,NA,3,4,4,4,4,4,2,4,3,4,4,2,30,1,2,2,1,NA,NA,NA,NA,NA,2,English,NA,NA,3,Durham,NC,27713,4,Y,-78907000,35887000
537,3,3,4,3,3,4,5,3,1,1,2,4,3,3,2,5,4,NA,3,3,3,NA,4,3,3,2,6,3,2,1,NA,2,NA,NA,NA,NA,2,English,NA,NA,3,Rougemont,NC,27572,NA,N,-78914000,36212000
538,3,3,4,4,4,3,2,2,2,2,1,2,2,2,3,3,4,5,4,3,3,2,5,4,4,1,36,4,1,2,NA,NA,NA,4,NA,NA,2,English,NA,NA,1,Durham,NC,27704,NA,N,-78882000,36063000
539,3,4,4,3,4,4,5,3,2,1,2,NA,NA,NA,3,NA,4,5,4,4,4,5,5,NA,3,2,45,5,2,2,NA,NA,NA,4,NA,NA,2,English,NA,NA,2,Durham,NC,27712,2,Y,-78918000,36089000
540,NA,5,5,5,5,5,5,4,1,2,1,4,NA,NA,2,4,5,5,4,4,4,4,5,4,5,2,30,4,1,1,NA,2,NA,NA,NA,NA,2,English,NA,NA,3,Durham,NC,27712,NA,N,-78961000,36087000
541,4,4,4,2,3,3,3,2,2,1,1,3,NA,NA,2,3,4,3,3,3,3,4,NA,1,2,2,37,5,1,1,NA,NA,NA,4,NA,NA,2,English,NA,NA,2,Durham,NC,27713,3,Y,-78948000,35914000
542,NA,2,3,3,4,4,4,2,2,2,1,NA,NA,NA,NA,NA,5,NA,1,4,4,4,4,4,3,2,30,5,2,2,NA,NA,NA,4,NA,NA,2,English,NA,NA,2,Rougemont,NC,27572,NA,N,-78865000,36208000
543,4,4,3,3,3,4,4,3,2,1,2,3,2,NA,3,5,4,4,4,NA,NA,4,4,4,4,2,0,1,2,1,NA,NA,NA,4,NA,NA,2,English,NA,NA,4,Durham,NC,27713,4,Y,-78902000,35880000
544,4,4,5,5,4,5,5,4,2,1,2,4,NA,NA,4,5,5,NA,5,5,4,5,5,NA,5,2,17,3,2,2,NA,NA,NA,4,NA,NA,2,English,NA,NA,1,Durham,NC,27713,4,Y,-78909000,35937000
545,4,4,4,3,3,4,5,3,2,1,1,2,4,4,2,3,4,5,5,5,5,5,5,5,5,2,25,3,1,2,NA,NA,NA,4,NA,NA,2,English,NA,NA,3,Durham,NC,27705,2,Y,-78916000,36020000
546,4,4,3,3,3,4,5,4,2,NA,2,NA,NA,NA,3,4,4,4,4,4,4,4,4,3,4,2,20,2,2,1,NA,NA,NA,4,NA,NA,2,English,NA,NA,2,Durham,NC,27703,NA,N,-78816000,35980000
547,5,5,4,4,4,4,5,4,2,1,2,NA,NA,NA,2,3,5,NA,5,5,4,5,5,4,5,2,35,3,1,2,NA,2,NA,NA,NA,NA,2,English,NA,NA,2,Bahama,NC,27503,NA,N,-78897000,36184000
548,4,4,4,3,4,4,5,4,2,1,2,4,5,NA,3,5,5,NA,4,NA,NA,5,5,NA,4,2,5,5,1,1,NA,2,NA,NA,NA,NA,2,English,NA,NA,3,Durham,NC,27703,1,Y,-78785000,35933000
549,4,4,4,4,3,2,3,4,2,1,1,3,3,4,2,4,4,4,4,4,4,4,4,3,3,2,23,4,1,1,NA,2,NA,NA,NA,NA,2,English,NA,NA,4,Durham,NC,27707,3,Y,-78914000,35987000
550,2,3,1,3,2,3,4,3,1,1,1,3,3,NA,3,5,3,3,3,2,1,1,3,3,3,2,10,1,2,1,NA,2,NA,NA,NA,NA,2,English,NA,NA,2,Durham,NC,27712,NA,N,-78949000,36095000
551,3,3,2,4,4,3,3,2,2,1,2,3,NA,NA,3,3,3,4,4,1,1,3,3,4,4,2,1,1,1,1,NA,2,NA,NA,NA,NA,1,English,NA,NA,4,Durham,NC,27707,4,Y,-78901000,35977000
552,5,5,5,5,5,5,5,4,2,1,2,4,5,5,4,5,5,5,5,5,5,4,5,5,5,2,8,1,1,1,NA,2,NA,NA,NA,NA,2,English,NA,NA,4,Durham,NC,27707,3,Y,-78985000,35934000
553,3,3,3,3,3,3,3,3,2,2,2,NA,4,3,3,4,4,4,4,4,4,4,5,4,4,2,50,5,1,2,NA,NA,NA,4,NA,NA,2,English,NA,NA,2,Durham,NC,27713,4,Y,-78908000,35917000
554,4,4,3,3,4,4,4,3,2,1,2,NA,1,3,4,1,4,4,4,4,5,4,3,3,3,2,68,5,1,1,NA,NA,3,4,NA,NA,2,English,NA,NA,3,Durham,NC,27704,2,Y,-78904000,36067000
555,4,4,4,5,5,5,5,5,2,1,2,5,4,NA,4,5,5,5,5,5,5,5,5,5,5,2,40,3,2,1,NA,NA,NA,4,NA,NA,2,English,NA,NA,2,Bahama,NC,27503,NA,N,-78882000,36161000
556,4,3,4,2,4,5,5,4,2,1,1,1,3,1,2,5,5,5,5,4,3,4,2,3,4,2,5,1,1,1,NA,2,NA,NA,NA,NA,2,English,NA,NA,4,Durham,NC,27713,3,Y,-78934000,35934000
557,3,3,4,2,1,3,4,2,2,1,1,2,3,NA,1,4,3,4,3,2,3,2,2,3,1,2,31,1,1,1,NA,2,NA,NA,NA,NA,2,English,NA,NA,4,Durham,NC,27712,2,Y,-78951000,36066000
558,4,4,3,3,4,4,5,4,2,2,1,3,NA,3,NA,3,4,4,4,4,4,5,5,4,5,2,52,5,2,2,NA,NA,NA,4,NA,NA,2,English,NA,NA,2,Durham,NC,27705,2,Y,-78976000,36040000
559,3,3,4,4,4,3,3,3,2,1,2,3,3,4,4,4,4,4,4,4,4,5,5,4,5,2,47,3,1,2,NA,NA,NA,4,NA,NA,2,English,NA,NA,2,Durham,NC,27703,NA,N,-78800000,36009000
560,4,4,4,4,4,5,5,4,2,1,2,4,NA,NA,2,4,4,4,4,4,4,3,4,NA,4,2,13,1,1,2,NA,2,NA,NA,NA,NA,2,English,NA,NA,3,Durham,NC,27713,3,Y,-78937000,35933000
561,4,4,3,3,3,3,3,3,2,1,2,2,NA,NA,3,2,4,4,3,3,3,3,4,4,3,2,63,4,2,1,NA,NA,NA,4,NA,NA,2,English,NA,NA,2,Durham,NC,27704,NA,N,-78884000,36063000
562,NA,NA,2,NA,1,2,2,NA,1,2,2,2,NA,1,1,2,1,1,NA,1,1,1,1,1,1,1,2,3,2,2,NA,NA,NA,4,NA,NA,2,English,NA,NA,3,Durham,NC,27703,4,Y,-78846000,35894000
563,2,1,3,2,3,3,3,2,2,1,2,2,3,NA,3,1,3,3,4,2,1,3,3,NA,4,2,30,3,1,1,NA,2,NA,NA,NA,NA,2,English,NA,NA,3,Durham,NC,27703,1,Y,-78839000,35965000
564,4,4,4,3,3,3,4,4,1,2,1,3,3,3,1,2,4,4,4,4,4,4,3,3,4,2,44,4,1,1,NA,NA,NA,4,NA,NA,2,English,NA,NA,2,Durham,NC,27712,NA,N,-78863000,36075000
565,4,4,2,3,2,4,4,4,2,1,2,NA,NA,NA,3,4,4,4,3,NA,NA,5,5,5,4,2,54,4,2,1,NA,2,NA,NA,NA,NA,2,English,NA,NA,2,Durham,NC,27703,NA,N,-78818000,35989000
566,5,4,4,4,4,4,4,4,2,1,1,4,4,NA,3,4,4,4,4,4,3,4,5,4,4,2,8,2,1,2,NA,2,NA,NA,NA,NA,2,English,NA,NA,4,Durham,NC,27701,1,Y,-78895000,36000000
567,4,4,4,3,5,5,5,4,2,1,2,3,3,3,2,4,5,5,3,4,2,3,1,4,3,1,15,1,2,1,NA,NA,NA,4,NA,NA,2,English,NA,NA,3,Durham,NC,27704,1,Y,-78811000,36017000
568,3,3,1,3,1,2,3,2,2,1,2,2,5,NA,2,5,4,NA,NA,4,NA,4,3,NA,3,1,8,3,1,1,NA,NA,NA,4,NA,NA,2,English,NA,NA,3,Durham,NC,27713,4,Y,-78888000,35942000
569,4,4,4,5,5,5,5,4,2,1,2,3,3,NA,4,4,4,4,4,4,4,NA,4,4,4,2,16,2,1,1,NA,NA,NA,4,NA,NA,2,English,NA,NA,3,Durham,NC,27707,3,Y,-78932000,35965000
570,4,4,4,4,4,4,4,4,2,1,2,4,NA,NA,4,4,5,5,4,NA,NA,4,4,5,4,2,19,2,2,1,NA,2,NA,NA,NA,NA,2,English,NA,NA,3,Durham,NC,27707,3,Y,-78966000,35928000
571,2,NA,4,4,3,4,4,2,2,1,2,3,NA,NA,2,5,4,NA,3,NA,NA,4,4,NA,4,2,7,5,2,1,NA,2,NA,NA,NA,NA,2,English,NA,NA,NA,Durham,NC,27712,2,Y,-78864000,36129000
572,4,4,2,3,4,2,4,4,2,1,2,1,NA,NA,2,3,4,4,2,2,2,3,4,3,3,2,31,4,1,1,NA,NA,NA,4,NA,NA,2,English,NA,NA,2,Durham,NC,27704,2,Y,-78909000,36029000
573,4,4,5,5,4,5,5,5,2,2,2,4,3,3,4,5,5,5,5,5,5,5,4,4,5,1,16,3,2,1,NA,NA,NA,4,NA,NA,2,English,NA,NA,3,Durham,NC,27707,3,Y,-78924000,35987000
574,4,4,3,2,1,2,4,3,1,2,2,3,3,NA,2,5,4,4,4,4,1,4,4,4,2,2,20,2,1,1,NA,NA,NA,4,NA,NA,2,English,NA,NA,3,Durham,NC,27704,1,Y,-78817000,36012000
575,NA,NA,4,NA,2,5,5,2,1,1,2,4,NA,NA,3,2,5,NA,4,4,4,NA,3,4,4,2,1,1,1,2,1,NA,NA,NA,NA,NA,2,English,NA,NA,3,Durham,NC,27712,NA,N,-78955000,36081000
576,4,4,4,4,5,4,5,4,2,1,2,2,NA,2,4,3,4,4,4,4,3,4,4,4,4,1,10,1,1,1,NA,2,NA,NA,NA,NA,2,English,NA,NA,3,Durham,NC,27713,4,Y,-78911000,35886000
577,4,4,4,3,4,4,5,4,2,1,1,3,4,3,3,4,5,5,5,4,4,4,5,4,4,2,28,3,1,1,NA,NA,NA,4,NA,NA,2,English,NA,NA,3,Durham,NC,27703,1,Y,-78835000,35973000
578,4,4,4,4,4,4,4,4,2,NA,2,5,4,4,4,5,5,5,5,5,4,5,5,4,5,2,61,4,1,2,NA,NA,NA,4,NA,NA,2,English,NA,NA,3,Durham,NC,27704,2,Y,-78899000,36074000
579,5,NA,3,3,3,2,5,4,2,1,2,2,NA,NA,5,4,5,5,5,NA,NA,4,5,5,5,2,3,1,2,1,NA,2,NA,NA,NA,NA,1,English,NA,NA,4,Durham,NC,27713,4,Y,-78899000,35931000
580,4,4,3,4,3,4,5,4,2,1,2,4,4,3,3,4,5,5,4,5,3,4,3,4,4,2,25,3,2,1,NA,2,NA,NA,NA,NA,2,English,NA,NA,3,Durham,NC,27713,3,Y,-78934000,35937000
581,5,5,5,4,5,5,5,4,2,1,2,4,4,NA,5,5,5,5,4,5,4,NA,4,5,4,2,21,2,1,1,NA,2,NA,NA,NA,NA,1,English,NA,NA,3,Durham,NC,27701,2,Y,-78911000,36009000
582,4,4,4,4,1,2,4,4,1,2,1,4,3,3,3,3,4,4,3,NA,NA,4,3,2,1,2,51,3,1,2,NA,NA,NA,4,NA,NA,2,English,NA,NA,3,Durham,NC,27703,1,Y,-78806000,35964000
583,4,5,5,5,5,4,5,3,2,1,2,NA,NA,NA,NA,NA,5,5,5,5,2,5,5,5,5,2,32,4,2,1,NA,NA,NA,4,NA,NA,2,English,NA,NA,4,Durham,NC,27707,3,Y,-78957000,35939000
584,3,4,3,2,2,4,4,2,2,1,1,4,4,NA,NA,4,3,2,4,3,3,4,4,4,3,2,30,4,2,2,NA,2,NA,NA,NA,NA,2,English,NA,NA,1,Durham,NC,27705,NA,N,-78988000,35972000
585,3,3,2,3,3,3,3,1,2,1,1,NA,NA,4,NA,NA,4,4,4,4,4,4,4,4,4,2,23,4,2,1,NA,NA,NA,4,NA,NA,2,English,NA,NA,1,Durham,NC,27703,1,Y,-78850000,35997000
586,3,3,3,3,3,3,3,3,2,1,2,NA,NA,NA,3,NA,4,4,4,4,4,4,4,4,4,2,36,4,2,2,NA,NA,NA,4,NA,NA,2,English,NA,NA,3,Durham,NC,27704,2,Y,-78872000,36028000
587,2,2,3,1,1,1,1,1,1,2,2,5,NA,4,3,3,1,1,1,1,1,1,2,1,1,1,NA,2,1,2,NA,NA,NA,4,NA,NA,2,English,NA,NA,1,Durham,NC,27707,3,Y,-78932000,35983000
588,4,4,4,3,4,4,4,3,2,1,1,2,3,3,4,4,5,4,4,NA,NA,NA,5,4,4,2,15,1,2,2,NA,NA,NA,4,NA,NA,2,English,NA,NA,3,Durham,NC,27704,2,Y,-78889000,36020000
589,3,3,3,2,2,2,2,3,2,2,2,2,3,2,2,4,3,5,4,3,3,2,4,3,3,2,7,1,2,2,NA,2,NA,NA,NA,NA,2,English,NA,NA,3,Durham,NC,27704,2,Y,-78903000,36024000
590,NA,4,3,1,3,3,3,3,2,1,2,1,1,NA,1,2,4,NA,2,NA,NA,4,2,NA,4,2,34,3,2,1,NA,2,NA,NA,NA,NA,2,English,NA,NA,1,Durham,NC,27704,NA,N,-78787000,36040000
591,NA,NA,NA,NA,3,1,5,3,2,2,1,5,5,4,1,5,5,NA,4,5,5,5,5,NA,4,2,77,5,1,1,NA,NA,NA,4,NA,NA,2,English,NA,NA,1,Durham,NC,27712,2,Y,-78904000,36077000
592,4,5,5,4,5,5,5,5,2,1,2,3,3,NA,4,5,5,5,5,5,5,5,5,NA,5,2,14,2,1,1,NA,2,NA,NA,NA,NA,1,English,NA,NA,4,Durham,NC,27712,NA,N,-78970000,36096000
593,3,3,4,2,3,3,3,3,2,1,2,2,2,2,4,3,4,4,4,3,3,3,4,4,3,1,27,3,1,1,NA,NA,NA,4,NA,NA,2,English,NA,NA,NA,Durham,NC,27704,1,Y,-78812000,36016000
594,3,3,4,4,4,3,5,2,1,NA,2,NA,NA,NA,NA,NA,3,3,2,2,3,3,3,3,3,2,7,3,1,2,NA,NA,NA,4,NA,NA,2,English,NA,NA,1,Durham,NC,27703,4,Y,-78814000,35921000
595,4,4,4,3,2,3,4,4,2,1,2,2,3,NA,3,5,5,4,4,4,4,3,3,3,5,2,5,1,2,1,NA,NA,NA,4,NA,NA,2,English,NA,NA,4,Durham,NC,27703,1,Y,-78818000,35973000
596,4,4,4,4,4,3,4,4,2,1,2,4,3,NA,2,5,5,NA,4,4,4,4,4,NA,4,2,15,1,2,1,NA,2,NA,NA,NA,NA,2,English,NA,NA,3,Durham,NC,27703,1,Y,-78819000,35970000
597,NA,NA,3,NA,3,4,5,4,2,NA,2,NA,NA,NA,NA,NA,5,NA,NA,NA,NA,5,NA,NA,5,2,NA,5,1,1,NA,NA,NA,NA,NA,NA,1,English,NA,NA,1,Durham,NC,27713,NA,N,-78928000,35879000
598,3,3,4,4,5,5,4,4,2,1,1,1,1,NA,3,1,4,4,4,3,1,4,4,5,5,2,13,1,1,1,1,NA,NA,NA,NA,NA,2,English,NA,NA,4,Durham,NC,27703,1,Y,NA,NA
599,3,3,1,1,1,NA,5,2,1,2,1,2,2,2,4,2,2,4,1,1,1,3,2,3,3,2,59,4,2,1,NA,NA,NA,4,NA,NA,2,English,NA,NA,3,Durham,NC,27713,NA,N,-78937000,35896000
600,3,3,4,1,1,3,4,1,1,2,1,1,2,1,3,4,4,4,4,2,1,2,4,3,1,1,17,3,2,1,NA,NA,NA,4,NA,NA,2,English,NA,NA,2,Durham,NC,27703,NA,N,-78844000,35951000
601,4,4,3,3,3,3,3,3,NA,NA,2,NA,NA,NA,NA,3,5,5,5,5,5,5,4,NA,5,2,60,4,2,1,NA,NA,NA,4,NA,NA,2,English,NA,NA,1,Durham,NC,27701,5,Y,-78893000,35989000
602,3,3,3,2,2,2,3,1,1,2,1,3,NA,2,1,NA,1,NA,NA,1,1,1,2,1,1,2,NA,NA,1,1,NA,2,NA,NA,NA,NA,1,Spanish,NA,NA,2,Durham,NC,27712,NA,N,-78964000,36072000
603,5,5,5,5,5,5,5,5,2,1,2,4,NA,NA,5,5,5,5,5,5,5,5,5,5,5,2,2,2,1,1,NA,NA,NA,4,NA,NA,2,English,NA,NA,4,Durham,NC,27703,1,Y,-78823000,35950000
604,2,2,3,2,2,2,2,2,1,2,1,NA,NA,NA,2,2,4,4,2,2,3,4,4,4,2,1,44,2,2,1,NA,NA,NA,4,NA,NA,2,English,NA,NA,2,Durham,NC,27703,1,Y,-78863000,35974000
605,3,3,2,1,3,3,1,1,2,2,1,2,NA,3,1,2,2,3,NA,NA,NA,1,4,NA,2,1,6,2,2,2,NA,2,NA,NA,NA,NA,2,English,NA,NA,1,Durham,NC,27707,4,Y,-78909000,35952000
606,4,4,4,3,3,4,4,3,2,1,2,2,2,3,4,4,4,5,4,4,2,4,4,3,4,2,6,1,2,1,1,2,NA,NA,NA,NA,2,English,NA,NA,4,Durham,NC,27703,1,Y,-78793000,35970000
607,3,3,3,3,3,3,3,3,2,2,1,3,3,3,3,3,3,3,3,3,3,3,3,3,3,1,33,1,2,2,NA,NA,NA,4,NA,NA,2,English,NA,NA,1,Durham,NC,27707,4,Y,-78916000,35967000
608,4,4,5,4,5,4,3,3,2,2,2,4,4,NA,1,4,5,5,5,4,5,5,5,5,4,2,6,4,1,1,NA,2,NA,NA,NA,NA,2,English,NA,NA,4,Durham,NC,27704,2,Y,-78912000,36041000
609,4,4,4,2,4,5,5,4,2,1,2,2,2,1,2,5,5,5,5,5,5,5,5,5,3,2,11,1,1,1,NA,NA,NA,4,NA,NA,2,English,NA,NA,4,Bahama,NC,27503,NA,N,-78960000,36159000
610,4,4,3,3,4,4,4,4,2,2,2,3,4,NA,4,2,4,4,4,4,3,2,4,4,4,2,20,2,1,2,NA,NA,NA,4,NA,NA,1,Spanish,NA,NA,2,Durham,NC,27703,1,Y,-78844000,35970000
611,3,3,3,3,3,3,5,4,2,NA,NA,4,NA,NA,3,5,4,NA,4,4,4,4,4,4,4,2,15,2,2,1,NA,NA,NA,4,NA,NA,2,English,NA,NA,4,Durham,NC,27703,1,Y,NA,NA
612,3,3,2,2,2,2,4,NA,2,1,2,3,3,3,2,3,2,3,2,2,2,1,3,3,2,2,30,3,2,1,NA,2,NA,NA,NA,NA,2,English,NA,NA,4,Bahama,NC,27503,NA,N,-78947000,36169000
613,NA,NA,NA,NA,NA,NA,NA,NA,2,1,2,3,3,3,4,5,5,5,4,4,4,5,5,5,4,2,39,3,1,1,NA,NA,NA,4,NA,NA,2,English,NA,NA,3,Durham,NC,27704,1,Y,-78811000,36014000
614,4,4,4,2,3,2,3,2,1,1,2,2,2,2,4,4,2,NA,NA,5,3,1,4,1,1,2,4,4,1,1,NA,NA,NA,4,NA,NA,2,English,NA,NA,4,Durham,NC,27703,1,Y,-78812000,35954000
615,NA,1,2,1,1,1,4,NA,1,2,1,2,3,4,1,1,4,4,4,4,1,4,4,1,1,2,40,4,2,1,NA,NA,NA,4,NA,NA,2,English,NA,NA,2,Bahama,NC,27503,NA,N,-78956000,36160000
616,3,3,3,2,4,4,3,3,2,2,2,3,3,3,3,4,3,4,3,3,3,2,3,3,3,2,26,3,2,1,NA,2,NA,NA,NA,NA,2,English,NA,NA,NA,Durham,NC,27703,4,Y,-78824000,35924000
617,5,5,5,5,5,5,5,5,2,1,2,5,5,5,4,5,5,5,5,5,5,5,5,5,5,2,50,4,1,2,NA,NA,NA,4,NA,NA,2,English,NA,NA,2,Durham,NC,27704,2,Y,-78907000,36043000
618,4,4,4,2,4,2,4,4,2,1,2,NA,NA,NA,2,5,2,2,1,1,1,1,1,1,1,2,NA,2,2,1,NA,2,NA,NA,NA,NA,1,English,NA,NA,3,Durham,NC,27703,1,Y,-78813000,35949000
619,5,5,4,4,4,5,5,5,2,1,1,NA,NA,NA,NA,NA,4,5,5,NA,NA,3,3,3,4,2,14,3,1,1,NA,2,NA,NA,NA,NA,1,English,NA,NA,3,Durham,NC,27704,1,Y,-78812000,36036000
620,3,3,2,3,2,1,2,2,2,1,1,4,4,3,3,2,3,3,2,2,2,1,3,2,1,2,46,3,1,2,NA,2,NA,NA,NA,NA,2,English,NA,NA,1,Durham,NC,27704,2,Y,-78905000,36064000
621,4,4,4,4,4,4,5,4,1,1,2,NA,NA,NA,NA,NA,5,5,5,5,5,5,5,5,4,2,76,5,2,1,NA,2,NA,NA,NA,NA,2,English,NA,NA,NA,Rougemont,NC,27572,NA,N,-78915000,36227000
622,4,4,4,3,2,3,4,3,2,1,2,NA,NA,NA,2,4,3,NA,3,3,2,2,3,3,3,2,7,4,1,2,NA,2,NA,NA,NA,NA,2,English,NA,NA,3,Durham,NC,27703,1,Y,-78826000,35957000
623,4,4,4,4,4,4,4,4,2,1,2,NA,NA,NA,1,4,4,4,4,NA,NA,NA,2,4,4,2,40,2,2,1,NA,NA,NA,4,NA,NA,2,English,NA,NA,4,Durham,NC,27703,1,Y,-78833000,35960000
624,5,4,5,5,5,5,4,3,2,1,2,1,1,2,4,1,4,4,4,4,4,4,5,5,4,2,20,3,2,1,1,NA,NA,NA,NA,NA,2,English,NA,NA,4,Durham,NC,27712,2,Y,-78917000,36094000
625,2,2,3,2,2,2,2,NA,1,2,NA,1,NA,NA,3,2,2,2,3,NA,NA,2,4,NA,2,2,15,4,1,2,NA,NA,NA,4,NA,NA,2,English,NA,NA,1,Durham,NC,27704,2,Y,-78922000,36050000
626,3,3,4,4,4,5,5,5,2,1,2,3,NA,NA,4,5,5,3,5,3,3,5,5,3,5,2,10,5,2,1,NA,2,NA,NA,NA,NA,2,English,NA,NA,4,Durham,NC,27703,1,Y,-78781000,35930000
627,4,NA,3,1,4,3,4,4,2,1,1,5,5,NA,4,5,4,NA,4,4,4,3,5,5,5,2,22,4,1,1,NA,2,NA,NA,NA,NA,2,English,NA,NA,2,Durham,NC,27701,2,Y,-78898000,36007000
628,4,4,4,2,4,4,4,5,2,1,2,2,NA,NA,2,5,5,5,3,4,3,5,4,3,4,2,20,5,2,1,NA,2,NA,NA,NA,NA,1,English,NA,NA,1,Durham,NC,27712,2,Y,-78977000,36072000
629,3,4,3,3,4,4,5,3,2,1,2,2,2,2,4,4,4,4,4,4,4,5,4,4,4,2,42,5,1,2,NA,2,NA,NA,NA,NA,2,English,NA,NA,3,Durham,NC,27707,3,Y,-78958000,35930000
630,3,3,2,2,4,4,4,1,2,NA,2,4,4,4,3,4,4,4,4,NA,NA,4,4,NA,3,2,32,3,2,1,NA,2,NA,NA,NA,NA,2,English,NA,NA,2,Durham,NC,27701,2,Y,-78894000,36007000
631,3,4,3,3,2,2,4,3,NA,NA,NA,1,1,2,NA,4,4,4,3,3,4,3,3,3,3,2,NA,4,1,1,NA,NA,NA,4,NA,NA,2,English,NA,NA,NA,Durham,NC,27703,1,Y,-78810000,35970000
632,NA,4,5,4,4,4,5,3,2,NA,NA,NA,NA,NA,4,NA,4,NA,4,NA,NA,NA,4,NA,4,2,7,5,1,1,NA,2,NA,NA,NA,NA,2,English,NA,NA,2,Bahama,NC,27503,NA,N,-78878000,36148000
633,5,5,4,4,4,5,5,4,2,1,2,4,NA,NA,4,4,5,5,5,5,5,5,5,5,5,2,50,5,1,2,NA,2,NA,NA,NA,NA,2,English,NA,NA,3,Durham,NC,27712,NA,N,-78957000,36092000
634,NA,3,4,3,4,4,5,2,2,1,2,3,3,NA,3,5,5,5,5,3,1,5,5,5,4,2,37,5,2,1,NA,2,NA,NA,NA,NA,1,English,NA,NA,2,Durham,NC,27712,NA,N,-78902000,36102000
635,4,4,4,3,2,4,5,4,2,NA,2,4,NA,NA,2,5,4,4,4,4,2,3,3,3,3,2,35,2,1,1,NA,2,NA,NA,NA,NA,2,English,NA,NA,2,Bahama,NC,27503,NA,N,-78882000,36158000
636,4,4,3,3,3,3,5,3,2,1,1,NA,4,NA,3,4,4,3,4,4,2,NA,3,4,3,2,13,1,1,1,NA,NA,NA,4,NA,NA,2,English,NA,NA,4,Durham,NC,27713,4,Y,-78921000,35933000
637,4,4,4,4,4,4,4,4,1,1,2,4,NA,NA,4,4,5,5,5,5,5,5,5,5,5,2,70,5,1,2,NA,NA,NA,4,NA,NA,2,English,NA,NA,1,Durham,NC,27705,NA,N,-78975000,35996000
638,4,4,4,3,4,5,5,NA,2,1,2,4,2,4,3,3,5,5,5,5,4,3,4,4,3,2,2,1,2,2,1,2,NA,NA,NA,NA,2,English,NA,NA,2,Durham,NC,27701,5,Y,-78907000,35998000
639,4,4,4,3,4,4,5,4,NA,NA,NA,NA,NA,NA,NA,NA,4,NA,NA,NA,NA,3,4,NA,3,2,61,5,2,1,NA,2,NA,NA,NA,NA,2,English,NA,NA,NA,Durham,NC,27705,2,Y,-78977000,36051000
640,4,4,3,2,4,4,4,NA,2,1,2,5,4,2,5,4,4,4,4,NA,4,NA,4,NA,4,1,2,1,3,2,NA,2,NA,NA,NA,NA,1,English,NA,NA,1,Durham,NC,27701,1,Y,-78894000,35997000
641,2,2,2,1,2,2,2,1,1,2,1,3,3,2,1,2,2,2,2,2,2,2,2,2,1,1,61,4,1,1,NA,NA,NA,4,NA,NA,2,English,NA,NA,1,Durham,NC,27703,NA,N,-78806000,35992000
642,3,3,2,1,2,3,2,1,1,1,1,2,NA,NA,4,1,4,3,4,4,3,NA,5,5,5,2,15,1,1,1,NA,2,NA,NA,NA,NA,2,English,NA,NA,4,Durham,NC,27713,4,Y,-78913000,35922000
643,3,3,2,3,2,2,3,4,2,1,2,3,3,NA,2,3,3,3,2,2,2,2,2,4,3,2,19,3,1,1,NA,2,NA,NA,NA,NA,2,English,NA,NA,3,Bahama,NC,27503,NA,N,-78864000,36172000
644,4,5,4,3,3,3,4,5,2,2,1,4,3,NA,2,5,4,4,4,NA,NA,4,5,5,5,2,48,3,2,1,NA,NA,NA,4,NA,NA,2,English,NA,NA,3,Durham,NC,27713,4,Y,-78920000,35917000
645,1,1,2,1,1,2,3,1,2,1,2,1,1,1,1,4,3,4,3,3,3,3,3,3,2,2,30,4,1,2,NA,2,NA,NA,NA,NA,2,English,NA,NA,2,Durham,NC,27713,NA,N,-78930000,35881000
646,NA,4,5,4,4,4,4,4,2,1,2,3,NA,NA,4,4,4,4,4,4,2,3,4,3,4,2,35,3,2,2,NA,2,NA,NA,NA,NA,2,English,NA,NA,2,Durham,NC,27713,NA,N,-78927000,35879000
647,4,NA,5,3,5,5,5,4,2,1,2,5,5,3,3,5,5,5,5,NA,NA,NA,5,NA,5,2,2,2,1,2,NA,2,NA,NA,NA,NA,2,English,NA,NA,3,Durham,NC,27701,1,Y,-78890000,36001000
648,1,4,1,1,1,1,1,1,1,1,1,4,4,NA,4,5,1,2,3,3,4,4,4,4,1,2,36,NA,2,1,NA,2,NA,NA,NA,NA,1,English,NA,NA,NA,Durham,NC,27703,1,Y,NA,NA
649,NA,1,4,NA,NA,2,4,NA,1,1,2,5,1,4,NA,5,3,NA,2,NA,NA,4,3,NA,NA,2,8,4,1,2,NA,2,NA,NA,NA,NA,2,English,NA,NA,1,Durham,NC,27703,NA,N,-78824000,35969000
650,3,4,3,2,4,2,4,3,2,1,1,2,3,3,2,4,4,5,3,4,3,2,5,5,4,1,5,1,1,1,NA,2,NA,NA,NA,NA,2,English,NA,NA,3,Durham,NC,27713,4,Y,-78910000,35915000
651,4,4,4,2,4,5,4,NA,1,2,2,4,NA,NA,2,5,5,4,4,4,3,4,5,5,5,2,3,1,1,2,NA,2,NA,NA,NA,NA,2,English,NA,NA,2,Durham,NC,27701,2,Y,-78898000,36004000
652,3,3,3,3,3,2,3,3,2,2,2,3,NA,NA,2,3,3,NA,NA,3,4,NA,4,4,5,2,37,3,2,2,NA,NA,NA,4,NA,NA,2,English,NA,NA,1,Durham,NC,27704,2,Y,-78870000,36033000
653,NA,3,4,2,3,3,4,3,2,NA,NA,NA,NA,NA,3,4,4,4,3,3,3,3,3,4,3,2,58,4,1,2,NA,NA,NA,4,NA,NA,2,English,NA,NA,3,Durham,NC,27712,NA,N,-78959000,36093000
654,NA,NA,4,4,4,5,5,4,2,1,2,2,2,NA,4,5,4,4,2,4,2,5,4,4,5,2,10,1,1,2,NA,2,NA,NA,NA,NA,2,English,NA,NA,3,Durham,NC,27713,4,Y,-78918000,35897000
655,3,3,2,2,2,2,3,3,1,2,2,3,3,2,3,2,3,3,3,3,3,2,2,3,3,2,4,1,1,2,1,NA,NA,NA,NA,NA,2,English,NA,NA,3,Durham,NC,27705,3,Y,-78949000,36009000
656,4,NA,4,3,4,4,4,4,2,1,2,2,3,3,4,4,4,5,4,3,3,3,4,5,4,2,3,1,2,1,NA,2,NA,NA,NA,NA,1,English,NA,NA,3,Durham,NC,27701,1,Y,-78888000,36002000
657,3,3,4,2,4,3,2,2,2,1,2,4,2,3,4,2,4,4,4,2,2,4,4,3,2,2,NA,2,2,1,NA,2,NA,NA,NA,NA,1,English,NA,NA,3,Durham,NC,27701,1,Y,-78887000,36000000
658,4,4,3,3,4,4,5,5,2,1,2,5,NA,NA,3,4,5,NA,NA,NA,NA,5,3,NA,4,2,3,4,1,1,NA,NA,NA,4,NA,NA,2,English,NA,NA,4,Durham,NC,27713,4,Y,-78922000,35918000
659,2,3,2,1,1,1,3,1,2,2,1,3,3,NA,3,4,1,1,3,1,1,1,1,1,1,2,52,4,3,1,NA,NA,NA,4,NA,NA,2,English,NA,NA,2,Durham,NC,27703,NA,N,-78799000,35972000
660,2,2,1,3,3,3,2,2,2,2,1,3,3,3,3,2,3,4,3,3,3,3,4,3,3,2,64,4,1,2,NA,NA,NA,4,NA,NA,2,English,NA,NA,1,Durham,NC,27701,2,Y,-78881000,36012000
661,3,3,4,4,4,4,4,3,2,1,2,NA,NA,NA,3,5,4,4,3,3,3,3,5,NA,4,2,4,1,1,1,NA,2,NA,NA,NA,NA,2,English,NA,NA,4,Durham,NC,27703,1,Y,-78802000,35962000
662,3,3,2,1,2,3,4,3,2,NA,2,NA,NA,NA,2,4,3,2,2,2,3,3,2,2,3,2,55,5,2,1,NA,2,NA,NA,NA,NA,2,English,NA,NA,1,Durham,NC,27712,2,Y,-78942000,36077000
663,4,4,4,4,4,4,5,3,1,1,1,3,NA,NA,4,4,5,4,4,4,3,4,4,4,4,2,4,4,2,2,NA,NA,NA,4,NA,NA,2,English,NA,NA,2,Durham,NC,27704,2,Y,-78862000,36052000
664,4,4,3,2,4,4,4,1,1,2,1,4,4,3,3,4,4,4,3,2,2,1,4,1,2,2,12,1,1,1,NA,2,NA,NA,NA,NA,1,English,NA,NA,2,Durham,NC,27705,2,Y,-78915000,36014000
665,3,4,3,3,3,4,5,3,1,1,2,3,3,3,3,5,5,5,4,4,4,4,4,4,4,2,24,3,2,1,NA,NA,NA,4,NA,NA,2,English,NA,NA,4,Bahama,NC,27503,NA,N,-78859000,36153000
666,4,4,4,4,5,5,5,4,2,1,2,1,1,1,2,4,5,NA,4,NA,NA,NA,5,NA,5,2,4,1,2,2,NA,2,NA,NA,NA,NA,2,English,NA,NA,2,Durham,NC,27707,3,Y,-78963000,35962000
667,5,5,2,1,3,4,4,1,NA,1,2,4,4,NA,4,5,NA,NA,NA,NA,NA,NA,NA,NA,NA,2,8,1,2,1,NA,2,NA,NA,NA,NA,2,English,NA,NA,3,Durham,NC,27701,2,Y,-78901000,36017000
668,5,5,5,5,5,5,5,5,2,1,1,5,5,5,5,5,5,5,5,5,5,5,5,5,5,2,14,4,2,2,1,NA,NA,NA,NA,NA,2,English,NA,NA,2,Durham,NC,27703,4,Y,-78881000,35937000
669,4,4,4,4,4,4,4,4,2,1,2,4,4,4,4,5,4,4,4,4,1,4,4,4,4,2,20,2,2,2,NA,NA,NA,4,NA,NA,2,English,NA,NA,3,Durham,NC,27703,1,Y,-78804000,36009000
670,3,1,2,1,1,3,2,1,1,2,1,2,NA,NA,2,1,4,4,2,2,2,3,3,3,2,1,22,NA,2,1,NA,NA,NA,4,NA,NA,2,English,NA,NA,1,Durham,NC,27701,1,Y,-78890000,35998000
671,NA,NA,NA,NA,NA,NA,NA,NA,1,NA,2,3,3,NA,2,3,3,4,4,3,3,3,3,3,2,1,55,4,2,2,NA,NA,NA,4,NA,NA,2,English,NA,NA,1,Durham,NC,27704,2,Y,-78870000,36031000
672,4,4,4,4,4,4,3,NA,2,1,2,2,2,NA,3,3,4,4,3,4,4,4,2,3,4,2,3,1,1,2,NA,2,NA,NA,NA,NA,2,English,NA,NA,4,Durham,NC,27713,4,Y,-78903000,35905000
673,3,3,3,1,4,4,5,2,2,1,2,4,3,3,4,5,5,5,3,4,3,5,4,NA,5,2,32,4,2,1,NA,2,NA,NA,NA,NA,2,English,NA,NA,4,Durham,NC,27701,2,Y,-78893000,36010000
674,4,4,4,4,2,3,4,4,2,1,2,2,3,3,1,3,5,3,4,4,4,4,4,3,4,2,NA,5,1,1,NA,NA,NA,4,NA,NA,2,English,NA,NA,1,Durham,NC,27707,4,Y,-78881000,35960000
675,4,4,4,4,4,4,4,4,2,NA,2,4,4,NA,4,5,4,4,4,NA,NA,4,4,4,4,2,NA,2,1,1,NA,NA,NA,4,NA,NA,2,English,NA,NA,NA,Durham,NC,27712,2,Y,-78954000,36063000
676,NA,NA,2,1,NA,2,NA,NA,1,2,2,NA,2,2,2,NA,NA,NA,NA,NA,NA,NA,NA,NA,NA,1,10,1,1,1,1,NA,NA,NA,NA,NA,NA,NA,NA,NA,NA,Durham,NC,27704,2,Y,-78906000,36026000
677,4,4,2,2,4,4,4,4,2,1,2,1,1,1,4,2,4,4,4,4,4,4,4,3,4,2,16,3,1,2,NA,2,NA,NA,NA,NA,1,English,NA,NA,2,Durham,NC,27712,2,Y,-78890000,36081000
678,NA,NA,NA,NA,NA,NA,NA,NA,2,1,2,NA,NA,NA,2,3,4,4,4,4,4,4,NA,NA,NA,2,8,3,2,1,1,NA,NA,NA,NA,NA,2,NA,NA,NA,4,Durham,NC,27705,NA,N,-78988000,36003000
679,NA,NA,NA,NA,3,4,4,3,2,1,2,1,2,NA,4,4,4,3,4,3,3,4,3,3,3,2,20,4,1,2,NA,2,NA,NA,NA,NA,2,English,NA,NA,3,Durham,NC,27707,3,Y,-78959000,35951000
680,4,4,3,NA,4,4,4,3,2,1,2,3,3,3,4,5,4,4,4,4,4,4,4,4,4,2,25,3,1,1,NA,2,NA,NA,NA,NA,2,English,NA,NA,4,Durham,NC,27705,3,Y,-78963000,36018000
681,4,NA,4,NA,3,4,4,3,2,1,2,NA,NA,NA,3,4,4,4,4,4,3,4,4,3,4,2,47,4,2,1,NA,2,NA,NA,NA,NA,2,English,NA,NA,4,Durham,NC,27705,2,Y,-78977000,36050000
682,4,3,4,5,4,5,4,4,2,1,2,2,NA,NA,4,4,5,5,5,4,2,4,4,3,4,2,40,5,2,1,NA,2,NA,NA,NA,NA,2,English,NA,NA,2,Durham,NC,27712,2,Y,-78977000,36073000
683,NA,NA,NA,NA,NA,NA,NA,NA,2,1,1,3,3,NA,4,5,5,5,5,5,4,5,5,5,5,2,25,3,2,1,NA,2,NA,NA,NA,NA,2,English,NA,NA,1,Durham,NC,27705,3,Y,-78963000,35978000
684,3,3,4,3,4,4,4,4,NA,NA,2,NA,NA,NA,NA,NA,NA,NA,NA,NA,NA,NA,NA,NA,NA,2,6,4,1,2,1,NA,NA,NA,NA,NA,2,Other,Telugu,NA,1,Durham,NC,27705,3,Y,-78971000,36025000
685,4,4,4,4,4,4,4,2,2,NA,1,2,2,NA,3,2,4,3,2,3,2,2,2,NA,3,2,50,5,1,1,NA,2,NA,NA,NA,NA,2,English,NA,NA,2,Durham,NC,27712,2,Y,-78957000,36064000
686,5,3,4,4,5,5,5,5,1,1,1,NA,NA,NA,1,5,5,5,5,5,5,3,5,3,4,2,30,2,2,2,NA,2,NA,NA,NA,NA,1,English,NA,NA,3,Durham,NC,27712,2,Y,-78959000,36057000
687,4,4,4,4,4,4,4,3,1,1,2,4,4,4,3,4,4,4,4,4,4,4,4,3,4,2,NA,1,2,2,NA,NA,NA,4,NA,NA,2,English,NA,NA,4,Durham,NC,27705,NA,N,-78995000,35984000
688,3,3,4,4,4,5,5,3,2,1,2,4,4,NA,4,5,5,5,5,5,4,5,5,5,4,2,40,5,2,1,NA,2,NA,NA,NA,NA,2,English,NA,NA,3,Durham,NC,27707,3,Y,-78961000,35944000
689,1,1,1,1,1,1,4,1,NA,NA,NA,1,1,NA,1,3,1,3,1,1,1,1,1,1,1,2,13,2,1,1,NA,NA,NA,4,NA,NA,2,English,NA,NA,4,Durham,NC,27712,2,Y,-78871000,36108000
690,4,3,4,4,4,3,4,2,1,2,1,NA,NA,NA,1,5,4,4,4,4,4,4,5,4,5,1,30,2,2,2,NA,NA,NA,4,NA,NA,2,English,NA,NA,1,Durham,NC,27705,2,Y,-78922000,36045000
691,4,4,4,2,4,4,5,4,2,NA,2,NA,NA,NA,4,NA,5,NA,5,NA,NA,5,5,4,5,2,13,4,2,1,NA,2,NA,NA,NA,NA,2,English,NA,NA,NA,Durham,NC,27705,3,Y,-78961000,35978000
692,4,5,4,3,4,2,4,1,2,1,NA,4,4,NA,1,4,4,3,3,4,4,4,3,4,4,2,51,3,2,1,NA,NA,NA,4,NA,NA,2,English,NA,NA,3,Durham,NC,27703,1,Y,NA,NA
693,4,NA,2,2,2,4,4,3,2,NA,2,3,NA,NA,3,3,4,4,4,4,3,4,4,NA,3,2,30,4,2,1,NA,2,NA,NA,NA,NA,2,English,NA,NA,2,Durham,NC,27705,2,Y,-78948000,36061000
694,1,1,1,1,3,1,4,1,1,2,NA,3,3,3,1,1,2,2,2,2,2,2,2,2,2,2,40,3,2,2,NA,NA,NA,4,5,Native Indian,2,English,NA,NA,1,Durham,NC,27707,4,Y,-78886000,35966000
695,4,4,4,4,4,4,4,4,2,1,2,3,NA,NA,4,4,4,NA,4,4,4,4,4,4,4,2,65,5,1,2,NA,2,NA,NA,NA,NA,1,Spanish,NA,NA,1,Durham,NC,27703,1,Y,-78817000,35975000
696,4,4,3,2,4,4,5,5,2,2,2,3,4,NA,4,5,5,5,5,5,5,5,3,NA,4,2,13,4,1,1,NA,2,NA,NA,NA,NA,1,English,NA,NA,3,Durham,NC,27705,3,Y,-78982000,35985000
697,4,4,4,1,3,4,4,4,2,2,2,4,NA,4,3,4,4,4,4,NA,NA,4,4,NA,3,2,29,4,1,2,NA,2,NA,NA,NA,NA,2,English,NA,NA,1,Durham,NC,27705,2,Y,-78935000,36016000
698,4,4,3,4,2,5,5,4,2,1,2,4,4,NA,4,5,5,5,5,4,3,5,4,5,5,2,15,4,1,2,NA,2,NA,NA,NA,NA,1,English,NA,NA,3,Durham,NC,27705,2,Y,-78946000,36054000
699,4,3,3,3,4,4,3,3,2,1,2,2,2,NA,2,3,4,3,3,4,4,2,3,NA,3,2,15,2,1,1,NA,2,NA,NA,NA,NA,1,English,NA,NA,4,Durham,NC,27707,3,Y,-78935000,35951000
700,3,4,3,NA,3,3,3,3,NA,NA,NA,4,NA,NA,NA,5,4,NA,3,NA,NA,4,4,4,4,2,27,5,1,2,NA,2,NA,NA,NA,NA,1,English,NA,NA,3,Durham,NC,27705,2,Y,-78939000,36050000
701,3,NA,2,4,4,5,5,3,2,1,2,2,3,NA,2,4,5,5,5,4,3,5,4,4,5,2,35,3,2,1,NA,2,NA,NA,NA,NA,2,English,NA,NA,3,Durham,NC,27705,3,Y,-78946000,35977000
702,NA,NA,NA,NA,NA,NA,NA,NA,NA,NA,NA,3,3,NA,3,4,4,4,3,3,2,3,4,NA,NA,2,NA,NA,1,2,1,NA,NA,NA,NA,NA,NA,NA,NA,NA,2,Durham,NC,27712,2,Y,-78936000,36081000
703,3,3,3,3,4,4,5,3,2,1,2,1,1,NA,NA,3,5,5,4,5,3,4,4,3,4,2,31,3,2,1,NA,2,NA,NA,NA,NA,2,English,NA,NA,3,Durham,NC,27707,3,Y,-78950000,35939000
704,3,3,2,3,2,3,4,3,1,2,1,NA,NA,NA,2,NA,3,3,2,3,3,1,3,2,3,2,20,2,1,2,NA,NA,NA,4,NA,NA,2,English,NA,NA,2,Durham,NC,27701,2,Y,-78905000,36018000
705,4,3,4,3,4,4,5,4,2,1,2,3,NA,NA,2,4,4,4,4,NA,NA,4,4,3,4,2,15,4,2,1,NA,2,NA,NA,NA,NA,2,English,NA,NA,2,Durham,NC,27712,2,Y,-78935000,36081000
706,3,3,3,3,3,2,4,2,NA,1,2,3,NA,NA,2,3,3,NA,3,NA,NA,3,3,NA,3,2,6,4,2,2,NA,NA,NA,4,NA,NA,2,English,NA,NA,2,Durham,NC,27704,1,Y,NA,NA
707,NA,1,1,1,1,1,1,1,NA,NA,NA,NA,NA,NA,NA,NA,1,1,1,1,1,1,2,1,1,2,76,5,2,2,NA,2,NA,NA,NA,NA,2,English,NA,NA,1,Durham,NC,27704,NA,N,-78810000,36027000
708,3,3,3,3,3,NA,4,3,2,1,2,2,2,2,2,5,4,3,3,4,3,3,3,4,2,2,25,3,1,1,NA,2,NA,NA,NA,NA,2,English,NA,NA,3,Durham,NC,27707,NA,N,-78995000,35938000
709,2,2,2,2,2,3,4,1,1,2,1,2,4,2,1,4,2,4,4,2,2,2,4,2,1,1,25,3,1,2,NA,2,NA,NA,NA,NA,1,Spanish,NA,NA,1,Durham,NC,27707,3,Y,-78942000,35962000
710,3,3,3,NA,3,3,4,NA,NA,NA,NA,NA,NA,NA,NA,3,3,NA,NA,NA,NA,5,5,NA,NA,2,52,5,2,1,NA,NA,NA,4,NA,NA,2,English,NA,NA,NA,Durham,NC,27707,3,Y,-78940000,35961000
711,1,1,1,1,1,NA,1,1,2,1,2,1,NA,1,1,3,2,1,1,1,1,1,1,1,1,1,30,1,2,1,NA,NA,NA,4,NA,NA,1,English,NA,NA,3,Durham,NC,27713,3,Y,-78930000,35945000
712,4,4,3,4,2,3,4,2,1,1,1,2,2,3,2,4,3,3,3,3,3,2,3,3,3,2,20,2,1,2,NA,NA,NA,4,NA,NA,2,English,NA,NA,3,Durham,NC,27703,1,Y,-78804000,36010000
713,5,4,4,4,5,4,4,4,2,1,1,2,2,4,3,4,4,4,4,4,4,4,4,3,4,2,30,2,2,1,NA,2,NA,NA,NA,NA,1,Spanish,NA,NA,1,Durham,NC,27704,1,Y,-78854000,36009000
714,3,3,2,3,2,3,4,4,2,1,2,3,NA,NA,2,4,4,NA,3,2,2,2,4,NA,2,2,5,3,2,1,NA,2,NA,NA,NA,NA,2,English,NA,NA,4,Durham,NC,27703,4,Y,-78815000,35920000
715,2,3,3,3,2,NA,2,3,1,1,2,2,3,3,3,3,4,4,NA,NA,NA,4,4,3,3,2,11,3,1,1,1,NA,NA,NA,NA,NA,2,English,NA,NA,2,Durham,NC,27703,4,Y,-78823000,35927000
716,3,3,2,4,3,3,4,2,1,NA,2,3,3,3,3,3,4,4,3,2,3,4,4,3,4,2,5,5,1,1,NA,NA,NA,4,NA,NA,2,English,NA,NA,1,Durham,NC,27704,1,Y,-78816000,36019000
717,NA,NA,NA,NA,NA,NA,NA,NA,2,1,2,3,3,NA,2,4,4,4,4,4,4,2,4,4,3,2,35,5,1,1,NA,NA,NA,4,NA,NA,2,English,NA,NA,2,Durham,NC,27704,2,Y,-78911000,36059000
718,4,4,4,2,2,4,5,4,1,1,1,2,NA,4,4,4,4,4,4,NA,NA,4,4,5,4,2,19,2,1,2,NA,NA,NA,4,NA,NA,2,English,NA,NA,1,Durham,NC,27703,1,Y,NA,NA
719,NA,4,4,NA,4,4,5,2,NA,NA,NA,NA,NA,NA,NA,NA,4,4,4,4,4,4,4,4,4,2,70,5,1,1,NA,NA,NA,4,NA,NA,1,English,NA,NA,2,Durham,NC,27703,NA,N,-78753000,35934000
720,3,NA,2,2,3,4,2,3,2,NA,2,NA,NA,NA,3,2,4,4,3,3,NA,NA,4,NA,4,2,20,2,2,2,NA,NA,NA,4,NA,NA,2,English,NA,NA,3,Durham,NC,27701,1,Y,-78877000,35998000
721,5,5,5,5,5,5,5,5,2,1,2,5,5,5,5,5,5,5,5,5,5,5,5,5,5,2,10,2,1,1,1,NA,NA,NA,NA,NA,2,Other,Tagalog,NA,4,Durham,NC,27712,2,Y,-78976000,36076000
722,4,NA,3,NA,NA,NA,4,NA,NA,NA,1,NA,NA,NA,2,4,4,4,4,4,NA,4,4,NA,NA,2,73,5,2,1,NA,NA,NA,4,NA,NA,2,English,NA,NA,NA,Durham,NC,27707,3,Y,-78962000,35929000
723,3,3,3,3,3,3,3,3,1,NA,1,3,3,3,3,3,4,3,3,4,3,3,3,3,3,2,38,2,2,1,NA,NA,NA,4,NA,NA,2,English,NA,NA,2,Durham,NC,27704,2,Y,NA,NA
724,4,4,4,4,3,3,4,4,1,1,2,NA,NA,NA,3,2,3,3,3,3,3,3,3,3,3,2,36,2,1,1,NA,NA,NA,4,NA,NA,2,English,NA,NA,NA,Durham,NC,27701,1,Y,NA,NA
725,4,2,2,4,4,4,2,2,1,1,1,2,2,2,2,2,4,4,4,2,2,2,3,2,4,2,12,1,2,2,NA,2,NA,NA,NA,NA,2,English,NA,NA,2,Durham,NC,27704,1,Y,NA,NA
726,3,2,3,3,4,4,5,2,1,NA,1,3,3,3,2,3,4,4,4,4,4,4,4,4,4,2,60,4,2,1,NA,2,NA,NA,NA,NA,1,English,NA,NA,1,Rougemont,NC,27572,NA,N,-78902000,36232000
727,2,2,2,1,1,2,4,1,NA,NA,NA,NA,NA,NA,3,3,2,3,3,1,1,3,1,3,3,2,43,3,1,1,NA,2,NA,NA,NA,NA,2,English,NA,NA,NA,Durham,NC,27703,NA,N,-78805000,35970000
728,3,3,3,NA,3,4,4,2,2,2,2,NA,NA,NA,NA,3,4,4,4,4,4,3,4,4,4,2,7,3,2,1,NA,2,NA,NA,NA,NA,1,English,NA,NA,2,Durham,NC,27707,3,Y,-78950000,35932000
729,4,4,4,2,4,4,5,3,2,1,2,2,2,NA,3,3,5,5,4,4,4,4,5,NA,5,2,23,2,1,1,NA,2,NA,NA,NA,NA,2,English,NA,NA,NA,Durham,NC,27705,3,Y,-78971000,35979000
730,4,4,3,2,2,4,5,3,2,1,2,3,4,NA,3,5,4,NA,4,4,2,4,NA,NA,3,2,47,5,1,2,NA,2,NA,NA,NA,NA,2,English,NA,NA,3,Durham,NC,27707,3,Y,-78933000,35985000
731,4,3,3,3,3,4,3,3,2,1,2,1,1,3,2,3,4,3,4,3,2,4,3,3,3,2,36,4,1,1,NA,NA,NA,4,NA,NA,2,English,NA,NA,4,Durham,NC,27707,3,Y,-78969000,35944000
732,4,2,4,3,2,2,4,3,1,2,1,2,2,3,4,1,4,3,2,2,2,2,2,NA,3,1,22,2,2,1,NA,2,NA,NA,NA,NA,1,Spanish,NA,Health care access,2,Durham,NC,27712,2,Y,-78962000,36046000
733,3,3,3,3,3,3,4,NA,2,NA,NA,NA,NA,NA,2,4,4,4,3,4,2,3,3,2,3,2,53,5,2,2,NA,2,NA,NA,NA,NA,2,English,NA,NA,2,Durham,NC,27707,3,Y,-78953000,35927000
734,3,3,3,1,NA,NA,4,2,NA,NA,NA,1,2,NA,2,4,4,4,4,4,3,4,4,NA,4,2,38,4,2,1,NA,2,NA,NA,NA,NA,2,English,NA,NA,2,Durham,NC,27705,3,Y,-78965000,35981000
735,4,4,4,4,4,4,4,4,2,1,2,3,3,NA,3,3,4,4,4,4,4,3,4,3,3,2,50,5,2,2,NA,2,NA,NA,NA,NA,2,English,NA,NA,2,Durham,NC,27707,3,Y,-78942000,35951000
736,NA,NA,NA,NA,NA,NA,NA,NA,1,2,1,3,3,3,3,4,4,4,4,4,4,4,4,4,3,2,8,2,2,2,NA,NA,NA,4,NA,NA,2,English,NA,NA,2,Durham,NC,27713,4,Y,-78908000,35924000
737,3,3,3,3,4,4,4,3,NA,NA,NA,NA,NA,NA,NA,4,4,NA,3,3,3,4,4,NA,4,2,63,4,1,2,NA,2,NA,NA,NA,NA,2,English,NA,NA,NA,Durham,NC,27707,4,Y,-78897000,35958000
738,5,5,5,5,5,5,5,5,2,1,2,4,NA,NA,1,5,4,4,4,4,NA,4,4,4,4,2,23,5,2,1,NA,2,NA,NA,NA,NA,2,English,NA,NA,3,Durham,NC,27705,2,Y,-78941000,36031000
739,4,4,2,2,2,4,4,4,2,1,2,2,3,3,2,2,4,4,4,4,4,4,2,4,4,2,NA,2,2,1,1,NA,NA,NA,NA,NA,2,English,NA,NA,4,Durham,NC,27707,3,Y,-78988000,35941000
740,3,NA,3,NA,3,3,4,2,1,NA,1,3,3,NA,3,4,4,4,3,4,4,4,4,4,3,2,71,5,1,2,NA,NA,NA,4,NA,NA,2,English,NA,NA,1,Durham,NC,27705,2,Y,-78917000,36015000
741,4,4,4,2,3,4,4,2,2,1,1,4,4,NA,4,4,4,4,4,4,4,4,4,4,4,2,20,2,2,1,NA,2,NA,NA,NA,NA,2,English,NA,NA,4,Durham,NC,27701,2,Y,-78903000,36017000
742,4,4,4,4,3,4,5,4,2,1,NA,NA,NA,NA,2,5,4,4,4,4,NA,4,4,NA,4,2,6,5,2,1,NA,2,NA,NA,NA,NA,2,English,NA,NA,1,Durham,NC,27703,1,Y,-78784000,35938000
743,5,4,2,2,4,2,5,NA,1,2,NA,NA,NA,NA,2,5,5,NA,4,NA,NA,5,4,3,5,2,14,5,1,2,NA,2,NA,NA,NA,NA,2,English,NA,NA,3,Durham,NC,27704,1,Y,NA,NA
744,3,3,2,3,2,3,4,3,NA,NA,NA,NA,NA,NA,NA,NA,4,NA,3,NA,NA,4,5,3,4,2,56,5,1,2,NA,2,NA,NA,NA,NA,2,English,NA,NA,4,Durham,NC,27705,3,Y,-78950000,35975000
745,4,4,4,4,3,4,4,3,2,NA,2,3,NA,NA,3,4,4,4,4,4,4,4,4,3,3,2,39,2,2,1,NA,NA,NA,4,NA,NA,2,English,NA,NA,4,Durham,NC,27703,1,Y,NA,NA
746,NA,NA,NA,NA,NA,NA,NA,NA,NA,NA,NA,1,1,NA,3,1,4,4,2,2,2,3,4,3,3,2,5,2,2,1,NA,2,NA,NA,NA,NA,2,English,NA,NA,4,Durham,NC,27703,1,Y,-78796000,35982000
747,2,2,3,1,1,3,4,1,1,2,1,2,1,NA,1,2,2,1,3,3,2,1,4,1,1,1,15,1,2,2,NA,NA,NA,4,NA,NA,2,English,NA,NA,1,Durham,NC,27705,2,Y,-78977000,36037000
748,4,4,4,4,3,3,4,3,2,1,2,4,3,NA,NA,4,4,4,NA,NA,NA,3,4,4,3,2,35,3,1,1,NA,2,NA,NA,NA,NA,2,English,NA,NA,2,Durham,NC,27705,3,Y,-78938000,35977000
749,4,4,5,4,4,5,5,4,2,1,2,5,NA,NA,2,5,5,5,5,5,4,NA,3,NA,4,2,15,3,1,1,NA,2,NA,NA,NA,NA,2,English,NA,NA,NA,Durham,NC,27705,2,Y,-78970000,36039000
750,3,3,2,2,2,3,4,2,2,1,NA,3,NA,NA,2,2,2,4,2,3,2,1,3,NA,2,2,5,2,2,2,1,NA,NA,NA,NA,NA,2,English,NA,NA,NA,Durham,NC,27705,3,Y,-78963000,35975000
751,4,4,4,4,4,5,5,4,1,2,1,3,3,3,3,2,5,5,5,5,5,5,5,5,5,1,17,2,2,2,NA,2,NA,NA,NA,NA,2,English,NA,NA,1,Durham,NC,27703,1,Y,-78854000,35966000
752,2,2,4,4,3,4,2,2,1,2,1,4,4,1,2,2,2,3,1,1,1,1,2,2,3,2,20,3,2,2,NA,NA,NA,4,NA,NA,2,English,NA,NA,1,Durham,NC,27703,1,Y,NA,NA
753,4,3,4,4,4,4,4,2,2,1,2,5,4,3,3,5,4,NA,4,4,3,4,5,NA,4,2,7,1,1,1,NA,2,NA,NA,NA,NA,2,English,NA,NA,4,Durham,NC,27701,2,Y,-78893000,36007000
754,4,4,4,4,4,4,5,4,NA,NA,2,1,4,NA,3,5,5,5,3,4,4,4,4,3,4,2,43,2,1,1,NA,NA,NA,4,NA,NA,2,English,NA,NA,3,Durham,NC,27712,2,Y,-78919000,36094000
755,4,4,4,4,5,5,5,4,2,1,2,4,NA,NA,4,5,5,5,5,5,4,5,5,NA,5,2,23,3,2,2,NA,NA,NA,NA,NA,NA,1,English,NA,NA,2,Durham,NC,27707,4,Y,-78927000,35970000
756,4,4,4,4,4,4,4,4,2,1,1,NA,NA,NA,4,5,4,4,4,4,3,4,4,4,4,2,36,2,2,1,NA,2,NA,NA,NA,NA,2,English,NA,NA,3,Durham,NC,27712,2,Y,-78885000,36088000
757,1,1,3,1,2,3,2,1,1,2,1,1,1,1,1,1,4,4,4,4,1,4,4,2,3,2,43,3,2,2,NA,NA,NA,4,NA,NA,2,English,NA,NA,1,Durham,NC,27707,4,Y,-78909000,35969000
758,4,4,4,4,4,4,5,4,2,1,2,2,2,NA,3,4,5,5,5,5,4,4,4,4,4,2,17,2,1,1,NA,2,NA,NA,NA,NA,2,English,NA,NA,NA,Durham,NC,27707,3,Y,-78983000,35970000
759,5,NA,3,1,4,4,4,4,2,1,2,1,1,NA,3,3,5,5,4,4,4,4,NA,NA,NA,2,23,2,2,1,NA,2,NA,NA,NA,NA,2,English,NA,NA,NA,Durham,NC,27707,3,Y,-78970000,35943000
760,4,4,2,2,3,4,2,4,NA,2,1,5,NA,2,2,2,4,4,4,3,3,4,4,4,4,2,26,5,2,2,NA,NA,NA,4,NA,NA,2,English,NA,NA,1,Durham,NC,27701,1,Y,-78893000,35999000
761,NA,NA,1,NA,2,NA,NA,NA,2,NA,1,3,3,3,2,4,4,4,3,4,3,3,3,3,3,2,60,4,2,2,NA,NA,NA,4,NA,NA,2,English,NA,NA,2,Durham,NC,27712,NA,N,-78905000,36104000
762,3,3,3,3,3,3,4,4,2,1,2,NA,NA,NA,NA,5,4,4,NA,NA,NA,3,4,4,3,2,64,4,2,1,NA,2,NA,NA,NA,NA,2,English,NA,NA,2,Durham,NC,27712,NA,N,-78870000,36104000
763,4,4,3,4,4,4,5,4,2,1,1,2,2,NA,4,4,4,4,4,4,4,3,3,4,4,2,6,1,1,2,NA,2,NA,NA,NA,NA,2,English,NA,NA,2,Durham,NC,27704,2,Y,-78893000,36028000
764,1,1,1,1,1,1,2,1,NA,NA,NA,1,1,1,1,1,2,2,1,2,2,1,1,1,1,2,17,4,2,1,NA,NA,NA,4,NA,NA,2,English,NA,NA,1,Durham,NC,27713,4,Y,-78908000,35892000
765,3,3,4,3,2,4,5,3,2,1,2,3,3,NA,3,5,5,5,5,3,3,3,4,3,5,2,0,1,2,2,NA,NA,NA,4,NA,NA,2,English,NA,NA,2,Durham,NC,27713,3,Y,-78943000,35925000
766,3,3,4,2,4,4,5,3,1,2,2,2,2,NA,3,4,4,3,2,3,2,3,3,4,3,2,2,1,2,1,NA,NA,NA,4,NA,NA,2,English,NA,NA,3,Durham,NC,27703,1,Y,-78848000,35981000
767,3,4,4,2,4,4,4,NA,2,1,2,4,4,4,3,4,NA,NA,NA,NA,NA,NA,NA,NA,NA,NA,20,2,1,1,NA,2,NA,NA,NA,NA,2,English,NA,NA,2,Durham,NC,27712,NA,N,-78978000,36078000
768,5,5,4,4,4,4,5,4,2,1,2,NA,NA,NA,4,5,4,4,4,4,4,4,3,NA,4,2,33,4,2,1,1,NA,NA,NA,NA,NA,2,English,NA,NA,4,Durham,NC,27713,4,Y,-78921000,35922000
769,4,4,4,4,4,4,3,2,1,2,2,NA,NA,4,2,NA,4,NA,NA,3,4,NA,NA,NA,NA,2,72,5,1,2,NA,NA,NA,4,NA,NA,2,English,NA,NA,1,Rougemont,NC,27572,NA,N,-78861000,36233000
770,4,4,2,2,2,3,5,3,2,1,2,4,NA,NA,3,4,5,NA,3,4,NA,4,3,NA,3,2,10,5,1,1,NA,2,NA,NA,NA,NA,2,English,NA,NA,3,Durham,NC,27713,NA,N,-78924000,35890000
771,4,3,3,2,3,4,4,2,2,2,1,3,NA,NA,4,3,4,4,4,4,4,4,4,4,4,2,20,4,1,1,NA,NA,NA,4,NA,NA,2,English,NA,NA,1,Durham,NC,27701,1,Y,-78890000,35999000
772,NA,1,2,2,2,2,2,2,2,1,1,1,1,1,1,1,2,2,2,NA,3,3,2,3,3,2,20,3,2,2,NA,NA,NA,4,NA,NA,2,English,NA,NA,3,Durham,NC,27703,NA,N,-78805000,35995000
773,5,5,4,3,4,5,5,5,2,1,2,4,2,NA,3,5,5,5,5,5,4,NA,4,NA,4,2,14,2,1,1,NA,NA,NA,4,NA,NA,2,English,NA,NA,4,Durham,NC,27713,4,Y,-78923000,35893000
774,3,3,2,3,2,2,3,2,1,1,2,4,NA,1,1,4,4,5,3,3,4,3,3,2,3,1,16,2,2,1,1,NA,NA,NA,NA,NA,2,English,NA,NA,3,Durham,NC,27704,2,Y,-78915000,36063000
775,4,4,4,3,3,4,4,3,2,1,1,3,NA,3,3,5,4,4,4,4,4,4,3,4,4,2,23,2,2,2,NA,NA,NA,4,NA,NA,2,English,NA,NA,3,Durham,NC,27712,2,Y,-78894000,36077000
776,4,4,4,4,5,5,5,5,1,2,2,4,NA,2,4,5,4,4,4,4,4,4,4,3,3,2,NA,2,2,2,NA,NA,NA,4,NA,NA,2,English,NA,NA,2,Durham,NC,27705,3,Y,-78974000,36016000
777,1,1,2,2,1,1,4,1,NA,NA,NA,NA,NA,NA,1,5,NA,NA,NA,NA,1,2,NA,NA,1,2,40,5,2,2,NA,NA,NA,4,NA,NA,2,English,NA,NA,1,Durham,NC,27707,4,Y,-78925000,35968000
778,3,3,4,3,4,4,4,3,2,1,2,3,2,NA,3,3,3,4,3,3,2,2,3,3,3,2,41,3,3,1,NA,2,NA,NA,NA,NA,2,English,NA,NA,2,Durham,NC,27703,NA,N,-78811000,35988000
779,4,4,4,2,3,4,5,3,2,1,2,3,3,3,3,5,4,NA,4,4,2,3,3,3,3,2,13,4,1,1,NA,2,NA,NA,NA,NA,1,Spanish,NA,NA,NA,Durham,NC,27707,3,Y,-78969000,35944000
780,3,3,2,2,3,2,2,2,2,2,1,3,3,NA,4,4,4,4,4,3,2,2,4,NA,4,2,6,1,1,2,NA,2,NA,NA,NA,NA,2,English,NA,NA,2,Durham,NC,27701,2,Y,-78886000,36010000
781,4,NA,2,2,3,4,4,3,2,1,1,NA,NA,NA,1,4,4,4,4,4,4,5,4,3,3,2,17,5,1,1,NA,NA,NA,4,NA,NA,2,English,NA,NA,1,Durham,NC,27701,4,Y,-78897000,35979000
782,2,2,1,1,1,2,2,1,2,2,1,NA,NA,NA,NA,NA,4,3,3,2,3,3,3,2,3,1,30,5,1,1,NA,NA,NA,4,NA,NA,2,English,NA,NA,1,Rougemont,NC,27572,NA,N,-78875000,36229000
783,4,4,4,3,4,4,4,4,2,1,2,2,NA,2,3,4,4,3,4,4,2,3,3,NA,3,2,10,1,1,1,NA,NA,NA,4,NA,NA,2,English,NA,NA,NA,Durham,NC,27707,NA,N,-78995000,35941000
784,5,5,4,4,4,4,5,4,2,1,NA,4,NA,5,4,4,NA,NA,NA,NA,NA,NA,NA,NA,NA,2,60,4,2,2,NA,NA,NA,4,NA,NA,2,English,NA,NA,1,Durham,NC,27701,1,Y,-78878000,35999000
785,3,3,NA,2,2,4,5,2,2,NA,1,NA,NA,NA,4,5,5,NA,5,5,5,5,5,NA,3,2,40,5,1,2,NA,2,NA,NA,NA,NA,2,English,NA,NA,2,Rougemont,NC,27503,NA,N,-78868000,36199000
786,3,3,3,3,2,3,3,3,1,2,1,1,NA,NA,1,3,NA,NA,NA,NA,NA,NA,NA,NA,NA,2,24,3,1,2,NA,NA,NA,4,NA,NA,2,English,NA,NA,2,Durham,NC,27707,4,Y,-78914000,35954000
787,4,4,4,3,4,4,4,5,2,1,2,3,NA,NA,NA,4,4,4,4,4,4,4,4,4,4,2,6,1,2,1,NA,NA,NA,4,NA,NA,2,English,NA,NA,2,Durham,NC,27712,2,Y,-78934000,36082000
788,4,4,4,3,3,4,4,2,1,2,1,NA,NA,NA,1,4,4,4,4,4,4,4,5,4,4,1,53,3,2,1,NA,NA,NA,4,NA,NA,2,English,NA,NA,2,Durham,NC,27707,4,Y,-78919000,35955000
789,4,4,4,3,4,4,4,4,1,2,1,3,3,2,2,3,4,4,3,3,3,4,3,3,3,2,22,5,2,2,NA,NA,NA,4,NA,NA,2,English,NA,NA,1,Durham,NC,27712,2,Y,-78881000,36089000
790,NA,NA,NA,NA,1,3,5,3,1,2,2,3,3,3,3,5,5,4,4,5,4,5,5,5,5,2,24,4,2,2,NA,NA,NA,4,NA,NA,2,English,NA,NA,1,Durham,NC,27707,3,Y,-78954000,35926000
791,4,4,4,4,5,5,5,5,2,1,2,5,NA,NA,4,5,5,5,5,5,5,4,4,4,5,2,10,2,1,1,NA,2,NA,NA,NA,NA,2,English,NA,NA,4,Durham,NC,27705,3,Y,-78969000,36024000
792,3,3,3,3,3,4,5,4,2,1,2,NA,NA,NA,2,4,4,4,4,4,4,NA,3,3,4,2,10,1,2,1,NA,2,NA,NA,NA,NA,1,English,NA,NA,4,Durham,NC,27701,2,Y,-78907000,36011000
793,1,1,1,4,1,1,1,1,2,1,2,2,NA,3,4,4,1,1,4,1,1,1,4,3,1,1,16,2,2,2,NA,NA,NA,4,NA,NA,2,English,NA,NA,2,Durham,NC,27703,NA,N,-78807000,35995000
794,4,4,4,4,4,4,4,4,2,1,2,2,NA,NA,5,5,4,4,4,4,4,NA,3,4,4,2,7,1,1,1,NA,2,NA,NA,NA,NA,2,English,NA,NA,4,Durham,NC,27713,3,Y,-78943000,35931000
795,4,4,4,4,4,4,4,4,2,2,1,NA,NA,NA,3,4,4,4,3,4,3,3,4,3,4,2,40,3,2,2,NA,NA,NA,4,NA,NA,2,English,NA,NA,2,Durham,NC,27703,NA,N,-78816000,35988000
796,4,4,2,2,3,2,4,2,1,2,1,2,2,2,2,2,4,4,3,3,3,3,3,4,2,2,50,NA,1,1,1,NA,NA,NA,NA,NA,NA,NA,NA,NA,NA,Durham,NC,27703,NA,N,-78761000,35956000
797,2,3,3,3,3,3,2,1,1,2,1,2,2,1,1,3,1,1,2,3,3,3,3,3,3,1,42,2,2,1,NA,NA,NA,4,NA,NA,2,English,NA,NA,2,Durham,NC,27704,2,Y,-78881000,36024000
798,3,3,4,3,4,4,4,3,2,1,2,4,NA,NA,4,3,4,4,3,NA,NA,NA,4,NA,4,2,17,2,2,2,1,NA,NA,NA,NA,NA,2,English,NA,NA,NA,Durham,NC,27703,1,Y,-78794000,35971000
799,4,3,5,4,5,5,5,4,2,1,2,2,2,3,4,4,5,4,4,4,3,NA,4,4,4,1,11,2,2,1,NA,NA,NA,4,NA,NA,2,English,NA,NA,4,Durham,NC,27707,3,Y,-78918000,35983000
800,3,3,3,4,2,4,5,2,1,1,2,2,2,NA,2,4,4,4,3,4,3,4,3,3,4,2,53,3,1,1,NA,NA,NA,4,NA,NA,2,English,NA,NA,3,Durham,NC,27703,NA,N,-78850000,35946000
801,3,3,3,1,NA,4,5,5,2,1,2,2,2,2,2,4,4,4,3,3,2,4,4,4,4,1,NA,1,2,2,NA,2,NA,NA,NA,NA,2,English,NA,NA,3,Durham,NC,27713,NA,N,-78925000,35880000
802,3,NA,4,3,3,4,4,4,2,1,2,4,3,3,3,3,5,NA,4,NA,NA,NA,4,NA,4,2,14,1,1,1,NA,NA,NA,4,NA,NA,2,English,NA,NA,4,Durham,NC,27705,2,Y,-78918000,36010000
803,4,4,4,2,3,4,5,3,2,1,2,4,4,NA,2,5,4,4,3,4,3,4,3,NA,3,2,30,4,1,1,NA,2,NA,NA,NA,NA,2,English,NA,NA,3,Durham,NC,27701,2,Y,-78909000,36013000
804,4,1,2,2,3,4,4,1,2,1,2,NA,NA,NA,4,4,4,4,3,4,4,2,2,4,4,2,42,2,1,1,NA,2,NA,NA,NA,NA,2,English,NA,NA,4,Durham,NC,27704,NA,N,-78809000,36027000
805,3,3,2,1,2,3,4,2,1,2,2,3,3,NA,4,5,4,3,3,3,3,2,1,3,3,1,7,1,2,2,NA,NA,NA,4,NA,NA,2,English,NA,NA,2,Durham,NC,27707,3,Y,-78966000,35953000
806,4,4,4,3,3,2,1,3,2,1,2,2,3,5,3,3,1,1,1,1,1,1,1,1,1,2,60,4,1,1,NA,NA,NA,4,NA,NA,2,English,NA,NA,NA,Durham,NC,27704,2,Y,-78869000,36033000
807,4,NA,3,3,4,4,4,2,2,NA,NA,NA,NA,NA,3,4,4,4,4,4,4,4,4,NA,4,2,50,4,1,1,NA,NA,NA,4,NA,NA,2,English,NA,NA,1,Durham,NC,27704,2,Y,-78885000,36023000
808,4,4,4,2,NA,3,4,4,NA,2,NA,3,NA,3,2,NA,4,4,4,4,4,4,3,3,NA,2,6,1,2,2,NA,NA,NA,4,NA,NA,2,English,NA,NA,2,Bahama,NC,27503,NA,N,-78850000,36177000
809,4,4,2,3,2,4,4,2,2,NA,2,NA,NA,NA,NA,NA,4,4,4,4,4,3,4,NA,3,2,29,2,2,1,NA,NA,NA,4,NA,NA,2,English,NA,NA,3,Durham,NC,27703,1,Y,-78825000,35986000
810,4,4,4,4,4,4,4,4,2,1,2,2,NA,NA,2,3,4,4,4,3,2,4,4,5,4,2,14,2,2,1,NA,NA,NA,4,NA,NA,2,English,NA,NA,4,Durham,NC,27705,2,Y,-78932000,36034000
811,3,3,2,2,3,3,3,2,2,1,2,4,NA,NA,2,4,NA,NA,NA,NA,NA,NA,NA,NA,NA,2,37,3,1,1,NA,NA,NA,4,NA,NA,2,English,NA,NA,NA,Durham,NC,27707,3,Y,-78942000,35948000
812,5,4,4,5,4,4,4,4,2,1,2,4,NA,NA,2,4,5,5,5,5,4,5,5,5,5,2,18,2,1,1,NA,2,NA,NA,NA,NA,2,English,NA,NA,3,Durham,NC,27707,3,Y,-78918000,35974000
813,NA,NA,4,NA,4,4,5,4,2,1,2,2,2,NA,2,5,4,4,4,4,4,NA,NA,4,4,2,16,2,2,1,NA,NA,NA,4,NA,NA,2,English,NA,NA,4,Durham,NC,27703,1,Y,-78811000,35955000
814,3,3,4,3,3,4,4,3,2,1,2,3,4,3,3,5,4,NA,4,4,3,3,5,5,4,2,26,2,1,1,NA,NA,NA,4,NA,NA,2,English,NA,NA,4,Durham,NC,27703,4,Y,-78881000,35944000
815,3,3,1,1,2,3,2,4,1,2,1,1,2,1,1,2,3,NA,2,4,2,2,1,NA,2,1,8,2,1,2,NA,NA,NA,4,NA,NA,2,English,NA,NA,1,Durham,NC,27703,1,Y,-78849000,35984000
816,4,NA,1,2,3,4,5,3,2,1,2,3,2,4,5,3,4,4,4,4,4,4,3,NA,3,2,25,3,2,1,NA,2,NA,NA,NA,NA,2,English,NA,NA,4,Durham,NC,27705,2,Y,-78924000,36013000
817,4,4,4,4,4,4,4,4,2,1,2,4,4,4,NA,4,5,5,5,4,5,5,5,5,5,2,20,2,2,2,NA,NA,NA,4,NA,NA,2,English,NA,NA,3,Durham,NC,27713,4,Y,-78926000,35918000
818,3,3,2,3,3,2,2,2,1,2,1,NA,NA,NA,NA,NA,3,3,3,NA,NA,NA,NA,NA,NA,2,18,3,1,2,NA,NA,NA,4,NA,NA,2,English,NA,NA,1,Durham,NC,27703,1,Y,-78852000,35988000
819,4,4,4,4,3,4,4,4,2,1,2,2,2,NA,3,4,4,4,NA,NA,NA,2,3,4,4,2,10,2,2,1,NA,NA,NA,4,NA,NA,2,English,NA,NA,NA,Durham,NC,27703,1,Y,-78819000,35992000
820,NA,NA,NA,NA,4,5,5,NA,NA,NA,NA,NA,NA,NA,NA,4,5,NA,NA,NA,NA,5,NA,NA,NA,NA,41,4,2,1,NA,2,NA,NA,NA,NA,2,English,NA,NA,NA,Durham,NC,27712,NA,N,-78922000,36114000
821,5,5,5,3,3,4,5,4,2,1,2,1,3,NA,4,1,4,4,4,4,2,3,4,3,3,2,31,3,2,1,NA,2,NA,NA,NA,NA,2,English,NA,NA,4,Durham,NC,27707,3,Y,-78969000,35945000
822,4,4,4,1,4,4,5,4,2,2,2,2,2,3,3,2,4,4,4,4,4,3,4,4,3,2,31,4,2,2,NA,2,NA,NA,NA,NA,2,English,NA,NA,1,Durham,NC,27705,3,Y,-78965000,35983000
823,4,4,3,4,4,4,5,4,2,1,2,1,2,NA,4,1,4,4,3,NA,NA,4,5,4,4,2,7,3,2,1,NA,2,NA,NA,NA,NA,1,English,NA,NA,2,Durham,NC,27703,NA,N,-78797000,35972000
824,4,4,4,3,4,4,4,3,2,NA,2,NA,NA,NA,NA,NA,NA,NA,NA,NA,NA,NA,NA,NA,NA,2,50,3,2,2,NA,NA,NA,4,NA,NA,2,English,NA,NA,1,Durham,NC,27703,1,Y,-78860000,35996000
825,4,NA,3,3,3,3,4,2,2,1,1,1,1,3,2,3,3,NA,NA,NA,NA,NA,NA,NA,NA,2,21,4,1,1,NA,2,NA,NA,NA,NA,2,English,NA,NA,2,Durham,NC,27712,2,Y,-78962000,36046000
826,4,4,4,4,2,3,4,NA,1,1,2,3,4,NA,2,5,4,4,3,NA,NA,NA,1,NA,1,1,33,1,2,2,NA,NA,NA,4,NA,NA,2,English,NA,NA,4,Durham,NC,27713,4,Y,-78915000,35917000
827,4,4,4,2,4,4,4,4,1,1,1,4,NA,NA,4,4,4,4,4,4,NA,4,4,4,4,2,15,4,1,2,NA,2,NA,NA,NA,NA,2,English,NA,NA,1,Durham,NC,27704,2,Y,-78907000,36058000
828,4,3,2,NA,3,3,4,2,2,NA,2,NA,NA,NA,NA,NA,3,NA,4,3,3,4,5,NA,3,2,12,5,2,1,NA,NA,NA,4,NA,NA,2,English,NA,NA,2,Durham,NC,27703,1,Y,-78806000,35984000
829,4,4,3,3,3,4,3,3,2,1,2,4,NA,NA,4,5,4,4,4,4,2,3,4,3,3,2,3,2,1,2,NA,NA,NA,4,NA,NA,1,Spanish,NA,NA,2,Rougemont,NC,27572,NA,N,-78897000,36226000
830,NA,NA,NA,NA,NA,NA,NA,NA,NA,NA,NA,NA,NA,NA,NA,NA,4,NA,NA,NA,NA,4,NA,NA,NA,2,NA,5,2,1,NA,2,NA,NA,NA,NA,2,English,NA,NA,1,Durham,NC,27704,NA,N,-78776000,36029000
831,NA,NA,NA,NA,NA,NA,NA,NA,NA,NA,NA,NA,NA,NA,NA,NA,NA,NA,NA,NA,NA,NA,NA,NA,NA,2,76,5,1,1,1,NA,NA,NA,NA,NA,2,English,NA,NA,NA,Durham,NC,27703,4,Y,-78867000,35958000
832,4,4,3,4,4,5,5,4,1,1,2,3,4,NA,3,3,4,5,5,4,3,5,3,3,3,2,14,3,1,1,NA,2,NA,NA,NA,NA,2,English,NA,NA,NA,Durham,NC,27707,3,Y,-78915000,35978000
833,NA,4,3,1,4,4,5,4,2,1,NA,3,2,3,2,5,4,5,4,4,3,NA,4,NA,3,2,27,1,1,2,NA,2,NA,NA,NA,NA,2,English,NA,NA,1,Durham,NC,27712,2,Y,-78931000,36080000
834,4,3,3,3,2,3,5,4,2,1,2,2,2,NA,2,2,4,4,4,4,NA,4,3,NA,NA,2,13,4,2,2,NA,2,NA,NA,NA,NA,1,Spanish,NA,NA,2,Durham,NC,27712,2,Y,-78959000,36056000
835,3,2,1,1,1,1,3,2,NA,1,2,NA,NA,NA,NA,NA,3,3,1,1,2,2,2,1,2,2,64,4,2,1,NA,2,NA,NA,NA,NA,2,English,NA,NA,NA,Durham,NC,27703,NA,N,-78801000,36002000
836,1,1,1,1,1,1,1,1,2,2,1,1,1,1,1,1,1,1,1,1,1,1,1,1,1,1,17,4,1,1,NA,2,NA,NA,NA,NA,2,English,NA,NA,3,Durham,NC,27704,2,Y,-78876000,36063000
837,4,4,3,3,3,4,5,4,2,1,2,3,2,NA,1,5,4,4,5,4,4,4,4,4,4,2,11,2,1,1,NA,2,NA,NA,NA,NA,2,English,NA,NA,4,Durham,NC,27705,2,Y,-78944000,36038000
838,3,3,4,4,4,4,4,4,2,1,2,3,3,3,4,4,5,5,4,4,4,5,5,4,5,2,40,5,1,1,NA,NA,NA,4,NA,NA,2,English,NA,NA,4,Durham,NC,27701,2,Y,-78910000,36012000
839,NA,NA,5,5,5,5,5,4,2,1,2,NA,NA,NA,5,NA,4,NA,5,NA,NA,5,5,5,5,2,49,4,1,1,NA,NA,NA,4,NA,NA,2,English,NA,NA,4,Durham,NC,27707,4,Y,-78925000,35971000
840,4,NA,4,4,4,4,4,4,1,1,1,3,3,NA,3,4,4,4,4,4,4,3,3,4,4,1,8,2,2,1,NA,2,NA,NA,NA,NA,1,English,NA,NA,3,Durham,NC,27707,3,Y,-78936000,35952000
841,3,3,4,3,4,4,5,3,2,1,NA,4,NA,NA,3,5,4,4,4,5,5,4,4,5,5,2,56,5,1,1,NA,2,NA,NA,NA,NA,2,English,NA,NA,4,Durham,NC,27705,3,Y,-78965000,35987000
842,4,4,3,3,3,4,4,4,2,1,1,NA,NA,NA,2,4,4,4,3,3,2,3,4,NA,3,2,78,5,2,1,NA,NA,NA,4,NA,NA,2,English,NA,NA,2,Durham,NC,27705,3,Y,-78968000,36016000
843,4,3,3,3,3,4,3,2,1,1,1,4,4,NA,4,4,4,4,4,NA,NA,4,4,4,4,2,13,1,2,1,NA,2,NA,NA,NA,NA,2,English,NA,NA,1,Durham,NC,27703,1,Y,-78879000,35991000
844,3,3,2,2,3,3,5,3,2,1,2,3,2,2,3,2,4,4,4,3,3,4,2,NA,4,2,17,5,2,1,NA,NA,NA,4,NA,NA,2,English,NA,NA,4,Durham,NC,27701,1,Y,NA,NA
845,4,NA,4,3,4,4,5,3,1,1,2,3,3,4,1,5,4,4,4,NA,NA,4,3,NA,4,2,60,4,2,1,NA,2,NA,NA,NA,NA,1,English,NA,NA,1,Durham,NC,27707,3,Y,-78945000,35936000
846,4,4,5,4,5,5,5,NA,2,1,1,3,NA,NA,4,5,5,5,4,5,3,5,5,4,5,2,29,3,1,1,NA,2,NA,NA,NA,NA,2,English,NA,NA,NA,Durham,NC,27704,1,Y,NA,NA
847,4,4,4,4,4,4,5,4,2,1,2,4,3,3,4,4,5,4,4,4,4,4,4,4,4,2,NA,2,1,1,NA,NA,NA,4,NA,NA,2,English,NA,NA,4,Durham,NC,27703,1,Y,-78831000,35950000
848,2,NA,3,2,3,3,4,2,2,1,2,3,NA,NA,NA,4,3,NA,2,3,NA,NA,NA,NA,NA,1,12,3,2,1,NA,NA,NA,4,NA,NA,2,English,NA,NA,4,Durham,NC,27707,3,Y,-78940000,35961000
